<?xml version="1.0" encoding="UTF-8"?>
<kml xmlns="http://www.opengis.net/kml/2.2">
  <Document>
    <name>HohesHaus Site Plan</name>
    <description>HohesHaus Site Plan, Berlin, 1440. HohesHaus Site Plan (1440). HyperCities Map Library.</description>
    <Style id="hypercities-footprint">
      <LineStyle><color>ff5e6ad6</color><width>2</width></LineStyle>
      <PolyStyle><color>285e6ad6</color><fill>1</fill><outline>1</outline></PolyStyle>
    </Style>

    <Placemark>
      <name>HohesHaus Site Plan</name>
      <description>HyperCities Map Library footprint · Berlin · 1440</description>
      <TimeSpan><begin>1440-01-01</begin><end>1440-12-31</end></TimeSpan>
      <ExtendedData>
      <Data name="mapId"><value>map:409</value></Data>
      <Data name="place"><value>Berlin</value></Data>
      <Data name="years"><value>1440</value></Data>
      <Data name="sourceRecordId"><value>409</value></Data>
      <Data name="collection"><value></value></Data>
      <Data name="creator"><value></value></Data>
      <Data name="citation"><value>HohesHaus Site Plan (1440). HyperCities Map Library.</value></Data>
      <Data name="tileTemplate"><value>https://tiles.ats.ucla.edu/tiles/1440_HohesHaus_Site_Plan_Final/{z}/{x}/{y}.png</value></Data>
      <Data name="groundOverlayTiles"><value>Source XYZ tiles included as KML GroundOverlays at the recorded minimum zoom.</value></Data>
      <Data name="rasterAvailability"><value>Original XYZ tiles, rendered here as KML GroundOverlays at the recorded minimum zoom.</value></Data>
      <Data name="exportScope"><value>Georeferenced footprint, provenance, and a source-tile raster overview at the recorded minimum zoom.</value></Data>
      </ExtendedData>
      <styleUrl>#hypercities-footprint</styleUrl>
      <Polygon><tessellate>1</tessellate><outerBoundaryIs><LinearRing><coordinates>13.410768,52.517296,0 13.415501,52.517296,0 13.415501,52.520399,0 13.410768,52.520399,0 13.410768,52.517296,0</coordinates></LinearRing></outerBoundaryIs></Polygon>
    </Placemark>
    <GroundOverlay>
      <name>HohesHaus Site Plan · raster tile 16/35209/21492</name>
      <drawOrder>1</drawOrder>
      <Icon><href>https://tiles.ats.ucla.edu/tiles/1440_HohesHaus_Site_Plan_Final/16/35209/21492.png</href></Icon>
      <LatLonBox>
        <north>52.522906</north>
        <south>52.519564</south>
        <east>13.414307</east>
        <west>13.408813</west>
      </LatLonBox>
    </GroundOverlay>
    <GroundOverlay>
      <name>HohesHaus Site Plan · raster tile 16/35210/21492</name>
      <drawOrder>1</drawOrder>
      <Icon><href>https://tiles.ats.ucla.edu/tiles/1440_HohesHaus_Site_Plan_Final/16/35210/21492.png</href></Icon>
      <LatLonBox>
        <north>52.522906</north>
        <south>52.519564</south>
        <east>13.419800</east>
        <west>13.414307</west>
      </LatLonBox>
    </GroundOverlay>
    <GroundOverlay>
      <name>HohesHaus Site Plan · raster tile 16/35209/21493</name>
      <drawOrder>1</drawOrder>
      <Icon><href>https://tiles.ats.ucla.edu/tiles/1440_HohesHaus_Site_Plan_Final/16/35209/21493.png</href></Icon>
      <LatLonBox>
        <north>52.519564</north>
        <south>52.516221</south>
        <east>13.414307</east>
        <west>13.408813</west>
      </LatLonBox>
    </GroundOverlay>
    <GroundOverlay>
      <name>HohesHaus Site Plan · raster tile 16/35210/21493</name>
      <drawOrder>1</drawOrder>
      <Icon><href>https://tiles.ats.ucla.edu/tiles/1440_HohesHaus_Site_Plan_Final/16/35210/21493.png</href></Icon>
      <LatLonBox>
        <north>52.519564</north>
        <south>52.516221</south>
        <east>13.419800</east>
        <west>13.414307</west>
      </LatLonBox>
    </GroundOverlay>

  </Document>
</kml>