<?xml version="1.0" encoding="UTF-8"?>
<kml xmlns="http://www.opengis.net/kml/2.2">
  <Document>
    <name>Easter Island</name>
    <description>Easter Island, Easter Island, 1988. Easter Island (1988). HyperCities Map Library.</description>
    <Style id="hypercities-footprint">
      <LineStyle><color>ff5e6ad6</color><width>2</width></LineStyle>
      <PolyStyle><color>285e6ad6</color><fill>1</fill><outline>1</outline></PolyStyle>
    </Style>

    <Placemark>
      <name>Easter Island</name>
      <description>HyperCities Map Library footprint · Easter Island · 1988</description>
      <TimeSpan><begin>1988-01-01</begin><end>1988-12-31</end></TimeSpan>
      <ExtendedData>
      <Data name="mapId"><value>map:162</value></Data>
      <Data name="place"><value>Easter Island</value></Data>
      <Data name="years"><value>1988</value></Data>
      <Data name="sourceRecordId"><value>162</value></Data>
      <Data name="collection"><value></value></Data>
      <Data name="creator"><value></value></Data>
      <Data name="citation"><value>Easter Island (1988). HyperCities Map Library.</value></Data>
      <Data name="tileTemplate"><value>https://tiles.ats.ucla.edu/tiles/EasterIsland_1988/{z}/{x}/{y}.png</value></Data>
      <Data name="groundOverlayTiles"><value>Source XYZ tiles included as KML GroundOverlays at the recorded minimum zoom.</value></Data>
      <Data name="rasterAvailability"><value>Original XYZ tiles, rendered here as KML GroundOverlays at the recorded minimum zoom.</value></Data>
      <Data name="exportScope"><value>Georeferenced footprint, provenance, and a source-tile raster overview at the recorded minimum zoom.</value></Data>
      </ExtendedData>
      <styleUrl>#hypercities-footprint</styleUrl>
      <Polygon><tessellate>1</tessellate><outerBoundaryIs><LinearRing><coordinates>-109.521163,-27.253434,0 -109.15839,-27.253434,0 -109.15839,-27.034785,0 -109.521163,-27.034785,0 -109.521163,-27.253434,0</coordinates></LinearRing></outerBoundaryIs></Polygon>
    </Placemark>
    <GroundOverlay>
      <name>Easter Island · raster tile 10/200/591</name>
      <drawOrder>1</drawOrder>
      <Icon><href>https://tiles.ats.ucla.edu/tiles/EasterIsland_1988/10/200/591.png</href></Icon>
      <LatLonBox>
        <north>-26.745610</north>
        <south>-27.059126</south>
        <east>-109.335938</east>
        <west>-109.687500</west>
      </LatLonBox>
    </GroundOverlay>
    <GroundOverlay>
      <name>Easter Island · raster tile 10/201/591</name>
      <drawOrder>1</drawOrder>
      <Icon><href>https://tiles.ats.ucla.edu/tiles/EasterIsland_1988/10/201/591.png</href></Icon>
      <LatLonBox>
        <north>-26.745610</north>
        <south>-27.059126</south>
        <east>-108.984375</east>
        <west>-109.335938</west>
      </LatLonBox>
    </GroundOverlay>
    <GroundOverlay>
      <name>Easter Island · raster tile 10/200/592</name>
      <drawOrder>1</drawOrder>
      <Icon><href>https://tiles.ats.ucla.edu/tiles/EasterIsland_1988/10/200/592.png</href></Icon>
      <LatLonBox>
        <north>-27.059126</north>
        <south>-27.371767</south>
        <east>-109.335938</east>
        <west>-109.687500</west>
      </LatLonBox>
    </GroundOverlay>
    <GroundOverlay>
      <name>Easter Island · raster tile 10/201/592</name>
      <drawOrder>1</drawOrder>
      <Icon><href>https://tiles.ats.ucla.edu/tiles/EasterIsland_1988/10/201/592.png</href></Icon>
      <LatLonBox>
        <north>-27.059126</north>
        <south>-27.371767</south>
        <east>-108.984375</east>
        <west>-109.335938</west>
      </LatLonBox>
    </GroundOverlay>

  </Document>
</kml>