<?xml version="1.0" encoding="UTF-8"?>
<kml xmlns="http://www.opengis.net/kml/2.2">
  <Document>
    <name>Proposed Transportation Network</name>
    <description>Proposed Transportation Network, Ollantaytambo, 2025. Proposed Transportation Network (2025). HyperCities Map Library.</description>
    <Style id="hypercities-footprint">
      <LineStyle><color>ff5e6ad6</color><width>2</width></LineStyle>
      <PolyStyle><color>285e6ad6</color><fill>1</fill><outline>1</outline></PolyStyle>
    </Style>

    <Placemark>
      <name>Proposed Transportation Network</name>
      <description>HyperCities Map Library footprint · Ollantaytambo · 2025</description>
      <TimeSpan><begin>2025-01-01</begin><end>2025-12-31</end></TimeSpan>
      <ExtendedData>
      <Data name="mapId"><value>map:118</value></Data>
      <Data name="place"><value>Ollantaytambo</value></Data>
      <Data name="years"><value>2025</value></Data>
      <Data name="sourceRecordId"><value>118</value></Data>
      <Data name="collection"><value></value></Data>
      <Data name="creator"><value></value></Data>
      <Data name="citation"><value>Proposed Transportation Network (2025). HyperCities Map Library.</value></Data>
      <Data name="tileTemplate"><value>https://tiles.ats.ucla.edu/tiles/Peru_2025_ProposedTransportationNetwork/{z}/{x}/{y}.png</value></Data>
      <Data name="groundOverlayTiles"><value>Source XYZ tiles included as KML GroundOverlays at the recorded minimum zoom.</value></Data>
      <Data name="rasterAvailability"><value>Original XYZ tiles, rendered here as KML GroundOverlays at the recorded minimum zoom.</value></Data>
      <Data name="exportScope"><value>Georeferenced footprint, provenance, and a source-tile raster overview at the recorded minimum zoom.</value></Data>
      </ExtendedData>
      <styleUrl>#hypercities-footprint</styleUrl>
      <Polygon><tessellate>1</tessellate><outerBoundaryIs><LinearRing><coordinates>-72.278356,-13.263521,0 -72.263824,-13.263521,0 -72.263824,-13.255327,0 -72.278356,-13.255327,0 -72.278356,-13.263521,0</coordinates></LinearRing></outerBoundaryIs></Polygon>
    </Placemark>
    <GroundOverlay>
      <name>Proposed Transportation Network · raster tile 15/9805/17601</name>
      <drawOrder>1</drawOrder>
      <Icon><href>https://tiles.ats.ucla.edu/tiles/Peru_2025_ProposedTransportationNetwork/15/9805/17601.png</href></Icon>
      <LatLonBox>
        <north>-13.250640</north>
        <south>-13.261333</south>
        <east>-72.268066</east>
        <west>-72.279053</west>
      </LatLonBox>
    </GroundOverlay>
    <GroundOverlay>
      <name>Proposed Transportation Network · raster tile 15/9806/17601</name>
      <drawOrder>1</drawOrder>
      <Icon><href>https://tiles.ats.ucla.edu/tiles/Peru_2025_ProposedTransportationNetwork/15/9806/17601.png</href></Icon>
      <LatLonBox>
        <north>-13.250640</north>
        <south>-13.261333</south>
        <east>-72.257080</east>
        <west>-72.268066</west>
      </LatLonBox>
    </GroundOverlay>
    <GroundOverlay>
      <name>Proposed Transportation Network · raster tile 15/9805/17602</name>
      <drawOrder>1</drawOrder>
      <Icon><href>https://tiles.ats.ucla.edu/tiles/Peru_2025_ProposedTransportationNetwork/15/9805/17602.png</href></Icon>
      <LatLonBox>
        <north>-13.261333</north>
        <south>-13.272026</south>
        <east>-72.268066</east>
        <west>-72.279053</west>
      </LatLonBox>
    </GroundOverlay>
    <GroundOverlay>
      <name>Proposed Transportation Network · raster tile 15/9806/17602</name>
      <drawOrder>1</drawOrder>
      <Icon><href>https://tiles.ats.ucla.edu/tiles/Peru_2025_ProposedTransportationNetwork/15/9806/17602.png</href></Icon>
      <LatLonBox>
        <north>-13.261333</north>
        <south>-13.272026</south>
        <east>-72.257080</east>
        <west>-72.268066</west>
      </LatLonBox>
    </GroundOverlay>

  </Document>
</kml>