<?xml version="1.0" encoding="UTF-8"?>
<kml xmlns="http://www.opengis.net/kml/2.2">
  <Document>
    <name>Map of Tokyo (1945)</name>
    <description>Map of Tokyo (1945), Tokyo, 1945. Map of Tokyo (1945) (1945). HyperCities Map Library.</description>
    <Style id="hypercities-footprint">
      <LineStyle><color>ff5e6ad6</color><width>2</width></LineStyle>
      <PolyStyle><color>285e6ad6</color><fill>1</fill><outline>1</outline></PolyStyle>
    </Style>

    <Placemark>
      <name>Map of Tokyo (1945)</name>
      <description>HyperCities Map Library footprint · Tokyo · 1945</description>
      <TimeSpan><begin>1945-01-01</begin><end>1945-12-31</end></TimeSpan>
      <ExtendedData>
      <Data name="mapId"><value>map:169</value></Data>
      <Data name="place"><value>Tokyo</value></Data>
      <Data name="years"><value>1945</value></Data>
      <Data name="sourceRecordId"><value>169</value></Data>
      <Data name="collection"><value></value></Data>
      <Data name="creator"><value></value></Data>
      <Data name="citation"><value>Map of Tokyo (1945) (1945). HyperCities Map Library.</value></Data>
      <Data name="tileTemplate"><value>https://tiles.ats.ucla.edu/tiles/Tokyo_1945_2/{z}/{x}/{y}.png</value></Data>
      <Data name="groundOverlayTiles"><value>Source XYZ tiles included as KML GroundOverlays at the recorded minimum zoom.</value></Data>
      <Data name="rasterAvailability"><value>Original XYZ tiles, rendered here as KML GroundOverlays at the recorded minimum zoom.</value></Data>
      <Data name="exportScope"><value>Georeferenced footprint, provenance, and a source-tile raster overview at the recorded minimum zoom.</value></Data>
      </ExtendedData>
      <styleUrl>#hypercities-footprint</styleUrl>
      <Polygon><tessellate>1</tessellate><outerBoundaryIs><LinearRing><coordinates>139.838806,35.757892,0 139.918975,35.757892,0 139.918975,35.838393,0 139.838806,35.838393,0 139.838806,35.757892,0</coordinates></LinearRing></outerBoundaryIs></Polygon>
    </Placemark>
    <GroundOverlay>
      <name>Map of Tokyo (1945) · raster tile 12/3639/1610</name>
      <drawOrder>1</drawOrder>
      <Icon><href>https://tiles.ats.ucla.edu/tiles/Tokyo_1945_2/12/3639/1610.png</href></Icon>
      <LatLonBox>
        <north>35.889050</north>
        <south>35.817813</south>
        <east>139.921875</east>
        <west>139.833984</west>
      </LatLonBox>
    </GroundOverlay>
    <GroundOverlay>
      <name>Map of Tokyo (1945) · raster tile 12/3639/1611</name>
      <drawOrder>1</drawOrder>
      <Icon><href>https://tiles.ats.ucla.edu/tiles/Tokyo_1945_2/12/3639/1611.png</href></Icon>
      <LatLonBox>
        <north>35.817813</north>
        <south>35.746512</south>
        <east>139.921875</east>
        <west>139.833984</west>
      </LatLonBox>
    </GroundOverlay>

  </Document>
</kml>