<?xml version="1.0" encoding="UTF-8"?>
<kml xmlns="http://www.opengis.net/kml/2.2">
  <Document>
    <name>Map of Vancouver (1923)</name>
    <description>Map of Vancouver (1923), Vancouver, 1923. Map of Vancouver (1923) (1923). HyperCities Map Library.</description>
    <Style id="hypercities-footprint">
      <LineStyle><color>ff5e6ad6</color><width>2</width></LineStyle>
      <PolyStyle><color>285e6ad6</color><fill>1</fill><outline>1</outline></PolyStyle>
    </Style>

    <Placemark>
      <name>Map of Vancouver (1923)</name>
      <description>HyperCities Map Library footprint · Vancouver · 1923</description>
      <TimeSpan><begin>1923-01-01</begin><end>1923-12-31</end></TimeSpan>
      <ExtendedData>
      <Data name="mapId"><value>map:202</value></Data>
      <Data name="place"><value>Vancouver</value></Data>
      <Data name="years"><value>1923</value></Data>
      <Data name="sourceRecordId"><value>202</value></Data>
      <Data name="collection"><value></value></Data>
      <Data name="creator"><value></value></Data>
      <Data name="citation"><value>Map of Vancouver (1923) (1923). HyperCities Map Library.</value></Data>
      <Data name="tileTemplate"><value>https://tiles.ats.ucla.edu/tiles/Vancouver_1923_final/{z}/{x}/{y}.png</value></Data>
      <Data name="groundOverlayTiles"><value>Source XYZ tiles included as KML GroundOverlays at the recorded minimum zoom.</value></Data>
      <Data name="rasterAvailability"><value>Original XYZ tiles, rendered here as KML GroundOverlays at the recorded minimum zoom.</value></Data>
      <Data name="exportScope"><value>Georeferenced footprint, provenance, and a source-tile raster overview at the recorded minimum zoom.</value></Data>
      </ExtendedData>
      <styleUrl>#hypercities-footprint</styleUrl>
      <Polygon><tessellate>1</tessellate><outerBoundaryIs><LinearRing><coordinates>-123.385657,48.949692,0 -122.487824,48.949692,0 -122.487824,49.384095,0 -123.385657,49.384095,0 -123.385657,48.949692,0</coordinates></LinearRing></outerBoundaryIs></Polygon>
    </Placemark>
    <GroundOverlay>
      <name>Map of Vancouver (1923) · raster tile 9/80/174</name>
      <drawOrder>1</drawOrder>
      <Icon><href>https://tiles.ats.ucla.edu/tiles/Vancouver_1923_final/9/80/174.png</href></Icon>
      <LatLonBox>
        <north>49.837982</north>
        <south>49.382373</south>
        <east>-123.046875</east>
        <west>-123.750000</west>
      </LatLonBox>
    </GroundOverlay>
    <GroundOverlay>
      <name>Map of Vancouver (1923) · raster tile 9/81/174</name>
      <drawOrder>1</drawOrder>
      <Icon><href>https://tiles.ats.ucla.edu/tiles/Vancouver_1923_final/9/81/174.png</href></Icon>
      <LatLonBox>
        <north>49.837982</north>
        <south>49.382373</south>
        <east>-122.343750</east>
        <west>-123.046875</west>
      </LatLonBox>
    </GroundOverlay>
    <GroundOverlay>
      <name>Map of Vancouver (1923) · raster tile 9/80/175</name>
      <drawOrder>1</drawOrder>
      <Icon><href>https://tiles.ats.ucla.edu/tiles/Vancouver_1923_final/9/80/175.png</href></Icon>
      <LatLonBox>
        <north>49.382373</north>
        <south>48.922499</south>
        <east>-123.046875</east>
        <west>-123.750000</west>
      </LatLonBox>
    </GroundOverlay>
    <GroundOverlay>
      <name>Map of Vancouver (1923) · raster tile 9/81/175</name>
      <drawOrder>1</drawOrder>
      <Icon><href>https://tiles.ats.ucla.edu/tiles/Vancouver_1923_final/9/81/175.png</href></Icon>
      <LatLonBox>
        <north>49.382373</north>
        <south>48.922499</south>
        <east>-122.343750</east>
        <west>-123.046875</west>
      </LatLonBox>
    </GroundOverlay>

  </Document>
</kml>