<?xml version="1.0" encoding="UTF-8"?>
<kml xmlns="http://www.opengis.net/kml/2.2">
  <Document>
    <name>Miami 184</name>
    <description>Miami 184, Miami, 1951. Miami 184 (1951). HyperCities Map Library.</description>
    <Style id="hypercities-footprint">
      <LineStyle><color>ff5e6ad6</color><width>2</width></LineStyle>
      <PolyStyle><color>285e6ad6</color><fill>1</fill><outline>1</outline></PolyStyle>
    </Style>

    <Placemark>
      <name>Miami 184</name>
      <description>HyperCities Map Library footprint · Miami · 1951</description>
      <TimeSpan><begin>1951-01-01</begin><end>1951-12-31</end></TimeSpan>
      <ExtendedData>
      <Data name="mapId"><value>map:433</value></Data>
      <Data name="place"><value>Miami</value></Data>
      <Data name="years"><value>1951</value></Data>
      <Data name="sourceRecordId"><value>433</value></Data>
      <Data name="collection"><value></value></Data>
      <Data name="creator"><value></value></Data>
      <Data name="citation"><value>Miami 184 (1951). HyperCities Map Library.</value></Data>
      <Data name="tileTemplate"><value>https://tiles.ats.ucla.edu/tiles/1951_Miami_184_0171S/{z}/{x}/{y}.png</value></Data>
      <Data name="groundOverlayTiles"><value>Source XYZ tiles included as KML GroundOverlays at the recorded minimum zoom.</value></Data>
      <Data name="rasterAvailability"><value>Original XYZ tiles, rendered here as KML GroundOverlays at the recorded minimum zoom.</value></Data>
      <Data name="exportScope"><value>Georeferenced footprint, provenance, and a source-tile raster overview at the recorded minimum zoom.</value></Data>
      </ExtendedData>
      <styleUrl>#hypercities-footprint</styleUrl>
      <Polygon><tessellate>1</tessellate><outerBoundaryIs><LinearRing><coordinates>-80.232218,25.765943,0 -80.224809,25.765943,0 -80.224809,25.773968,0 -80.232218,25.773968,0 -80.232218,25.765943,0</coordinates></LinearRing></outerBoundaryIs></Polygon>
    </Placemark>
    <GroundOverlay>
      <name>Miami 184 · raster tile 16/18162/27909</name>
      <drawOrder>1</drawOrder>
      <Icon><href>https://tiles.ats.ucla.edu/tiles/1951_Miami_184_0171S/16/18162/27909.png</href></Icon>
      <LatLonBox>
        <north>25.775161</north>
        <south>25.770214</south>
        <east>-80.227661</east>
        <west>-80.233154</west>
      </LatLonBox>
    </GroundOverlay>
    <GroundOverlay>
      <name>Miami 184 · raster tile 16/18163/27909</name>
      <drawOrder>1</drawOrder>
      <Icon><href>https://tiles.ats.ucla.edu/tiles/1951_Miami_184_0171S/16/18163/27909.png</href></Icon>
      <LatLonBox>
        <north>25.775161</north>
        <south>25.770214</south>
        <east>-80.222168</east>
        <west>-80.227661</west>
      </LatLonBox>
    </GroundOverlay>
    <GroundOverlay>
      <name>Miami 184 · raster tile 16/18162/27910</name>
      <drawOrder>1</drawOrder>
      <Icon><href>https://tiles.ats.ucla.edu/tiles/1951_Miami_184_0171S/16/18162/27910.png</href></Icon>
      <LatLonBox>
        <north>25.770214</north>
        <south>25.765267</south>
        <east>-80.227661</east>
        <west>-80.233154</west>
      </LatLonBox>
    </GroundOverlay>
    <GroundOverlay>
      <name>Miami 184 · raster tile 16/18163/27910</name>
      <drawOrder>1</drawOrder>
      <Icon><href>https://tiles.ats.ucla.edu/tiles/1951_Miami_184_0171S/16/18163/27910.png</href></Icon>
      <LatLonBox>
        <north>25.770214</north>
        <south>25.765267</south>
        <east>-80.222168</east>
        <west>-80.227661</west>
      </LatLonBox>
    </GroundOverlay>

  </Document>
</kml>