<?xml version="1.0" encoding="UTF-8"?>
<kml xmlns="http://www.opengis.net/kml/2.2">
  <Document>
    <name>Plan de Paris</name>
    <description>Plan de Paris, Paris, 1704. Plan de Paris (1704). HyperCities Map Library.</description>
    <Style id="hypercities-footprint">
      <LineStyle><color>ff5e6ad6</color><width>2</width></LineStyle>
      <PolyStyle><color>285e6ad6</color><fill>1</fill><outline>1</outline></PolyStyle>
    </Style>

    <Placemark>
      <name>Plan de Paris</name>
      <description>HyperCities Map Library footprint · Paris · 1704</description>
      <TimeSpan><begin>1704-01-01</begin><end>1704-12-31</end></TimeSpan>
      <ExtendedData>
      <Data name="mapId"><value>map:215</value></Data>
      <Data name="place"><value>Paris</value></Data>
      <Data name="years"><value>1704</value></Data>
      <Data name="sourceRecordId"><value>215</value></Data>
      <Data name="collection"><value></value></Data>
      <Data name="creator"><value></value></Data>
      <Data name="citation"><value>Plan de Paris (1704). HyperCities Map Library.</value></Data>
      <Data name="tileTemplate"><value>https://tiles.ats.ucla.edu/tiles/Plan_de_Paris_Final/{z}/{x}/{y}.png</value></Data>
      <Data name="groundOverlayTiles"><value>Source XYZ tiles included as KML GroundOverlays at the recorded minimum zoom.</value></Data>
      <Data name="rasterAvailability"><value>Original XYZ tiles, rendered here as KML GroundOverlays at the recorded minimum zoom.</value></Data>
      <Data name="exportScope"><value>Georeferenced footprint, provenance, and a source-tile raster overview at the recorded minimum zoom.</value></Data>
      </ExtendedData>
      <styleUrl>#hypercities-footprint</styleUrl>
      <Polygon><tessellate>1</tessellate><outerBoundaryIs><LinearRing><coordinates>2.29313,48.823234,0 2.399635,48.823234,0 2.399635,48.891313,0 2.29313,48.891313,0 2.29313,48.823234,0</coordinates></LinearRing></outerBoundaryIs></Polygon>
    </Placemark>
    <GroundOverlay>
      <name>Plan de Paris · raster tile 12/2074/1408</name>
      <drawOrder>1</drawOrder>
      <Icon><href>https://tiles.ats.ucla.edu/tiles/Plan_de_Paris_Final/12/2074/1408.png</href></Icon>
      <LatLonBox>
        <north>48.922499</north>
        <south>48.864715</south>
        <east>2.373047</east>
        <west>2.285156</west>
      </LatLonBox>
    </GroundOverlay>
    <GroundOverlay>
      <name>Plan de Paris · raster tile 12/2075/1408</name>
      <drawOrder>1</drawOrder>
      <Icon><href>https://tiles.ats.ucla.edu/tiles/Plan_de_Paris_Final/12/2075/1408.png</href></Icon>
      <LatLonBox>
        <north>48.922499</north>
        <south>48.864715</south>
        <east>2.460938</east>
        <west>2.373047</west>
      </LatLonBox>
    </GroundOverlay>
    <GroundOverlay>
      <name>Plan de Paris · raster tile 12/2074/1409</name>
      <drawOrder>1</drawOrder>
      <Icon><href>https://tiles.ats.ucla.edu/tiles/Plan_de_Paris_Final/12/2074/1409.png</href></Icon>
      <LatLonBox>
        <north>48.864715</north>
        <south>48.806863</south>
        <east>2.373047</east>
        <west>2.285156</west>
      </LatLonBox>
    </GroundOverlay>
    <GroundOverlay>
      <name>Plan de Paris · raster tile 12/2075/1409</name>
      <drawOrder>1</drawOrder>
      <Icon><href>https://tiles.ats.ucla.edu/tiles/Plan_de_Paris_Final/12/2075/1409.png</href></Icon>
      <LatLonBox>
        <north>48.864715</north>
        <south>48.806863</south>
        <east>2.460938</east>
        <west>2.373047</west>
      </LatLonBox>
    </GroundOverlay>

  </Document>
</kml>