<?xml version="1.0" encoding="UTF-8"?>
<kml xmlns="http://www.opengis.net/kml/2.2">
  <Document>
    <name>Los Angeles 4</name>
    <description>Los Angeles 4, Los Angeles, 1953. Los Angeles 4 (1953). HyperCities Map Library.</description>
    <Style id="hypercities-footprint">
      <LineStyle><color>ff5e6ad6</color><width>2</width></LineStyle>
      <PolyStyle><color>285e6ad6</color><fill>1</fill><outline>1</outline></PolyStyle>
    </Style>

    <Placemark>
      <name>Los Angeles 4</name>
      <description>HyperCities Map Library footprint · Los Angeles · 1953</description>
      <TimeSpan><begin>1953-01-01</begin><end>1953-12-31</end></TimeSpan>
      <ExtendedData>
      <Data name="mapId"><value>map:445</value></Data>
      <Data name="place"><value>Los Angeles</value></Data>
      <Data name="years"><value>1953</value></Data>
      <Data name="sourceRecordId"><value>445</value></Data>
      <Data name="collection"><value></value></Data>
      <Data name="creator"><value></value></Data>
      <Data name="citation"><value>Los Angeles 4 (1953). HyperCities Map Library.</value></Data>
      <Data name="tileTemplate"><value>https://tiles.ats.ucla.edu/tiles/1953_LA_4/{z}/{x}/{y}.png</value></Data>
      <Data name="groundOverlayTiles"><value>Source XYZ tiles included as KML GroundOverlays at the recorded minimum zoom.</value></Data>
      <Data name="rasterAvailability"><value>Original XYZ tiles, rendered here as KML GroundOverlays at the recorded minimum zoom.</value></Data>
      <Data name="exportScope"><value>Georeferenced footprint, provenance, and a source-tile raster overview at the recorded minimum zoom.</value></Data>
      </ExtendedData>
      <styleUrl>#hypercities-footprint</styleUrl>
      <Polygon><tessellate>1</tessellate><outerBoundaryIs><LinearRing><coordinates>-118.25978,34.007306,0 -118.255823,34.007306,0 -118.255823,34.01117,0 -118.25978,34.01117,0 -118.25978,34.007306,0</coordinates></LinearRing></outerBoundaryIs></Polygon>
    </Placemark>
    <GroundOverlay>
      <name>Los Angeles 4 · raster tile 16/11239/26177</name>
      <drawOrder>1</drawOrder>
      <Icon><href>https://tiles.ats.ucla.edu/tiles/1953_LA_4/16/11239/26177.png</href></Icon>
      <LatLonBox>
        <north>34.011689</north>
        <south>34.007135</south>
        <east>-118.256836</east>
        <west>-118.262329</west>
      </LatLonBox>
    </GroundOverlay>
    <GroundOverlay>
      <name>Los Angeles 4 · raster tile 16/11240/26177</name>
      <drawOrder>1</drawOrder>
      <Icon><href>https://tiles.ats.ucla.edu/tiles/1953_LA_4/16/11240/26177.png</href></Icon>
      <LatLonBox>
        <north>34.011689</north>
        <south>34.007135</south>
        <east>-118.251343</east>
        <west>-118.256836</west>
      </LatLonBox>
    </GroundOverlay>

  </Document>
</kml>