<?xml version="1.0" encoding="UTF-8"?>
<kml xmlns="http://www.opengis.net/kml/2.2">
  <Document>
    <name>THE BERLIN REGION</name>
    <description>THE BERLIN REGION, Berlin, 1985. THE BERLIN REGION (1985). HyperCities Map Library. UCLA Bruman Map Collection.</description>
    <Style id="hypercities-footprint">
      <LineStyle><color>ff5e6ad6</color><width>2</width></LineStyle>
      <PolyStyle><color>285e6ad6</color><fill>1</fill><outline>1</outline></PolyStyle>
    </Style>

    <Placemark>
      <name>THE BERLIN REGION</name>
      <description>HyperCities Map Library footprint · Berlin · 1985</description>
      <TimeSpan><begin>1985-01-01</begin><end>1985-12-31</end></TimeSpan>
      <ExtendedData>
      <Data name="mapId"><value>map:13</value></Data>
      <Data name="place"><value>Berlin</value></Data>
      <Data name="years"><value>1985</value></Data>
      <Data name="sourceRecordId"><value>13</value></Data>
      <Data name="collection"><value>UCLA Bruman Map Collection</value></Data>
      <Data name="creator"><value></value></Data>
      <Data name="citation"><value>THE BERLIN REGION (1985). HyperCities Map Library. UCLA Bruman Map Collection.</value></Data>
      <Data name="tileTemplate"><value>https://tiles.ats.ucla.edu/tiles/Berlin_1985_Region/{z}/{x}/{y}.png</value></Data>
      <Data name="groundOverlayTiles"><value>Source XYZ tiles included as KML GroundOverlays at the recorded minimum zoom.</value></Data>
      <Data name="rasterAvailability"><value>Original XYZ tiles, rendered here as KML GroundOverlays at the recorded minimum zoom.</value></Data>
      <Data name="exportScope"><value>Georeferenced footprint, provenance, and a source-tile raster overview at the recorded minimum zoom.</value></Data>
      </ExtendedData>
      <styleUrl>#hypercities-footprint</styleUrl>
      <Polygon><tessellate>1</tessellate><outerBoundaryIs><LinearRing><coordinates>12.773699,52.236955,0 13.88118,52.236955,0 13.88118,52.758127,0 12.773699,52.758127,0 12.773699,52.236955,0</coordinates></LinearRing></outerBoundaryIs></Polygon>
    </Placemark>
    <GroundOverlay>
      <name>THE BERLIN REGION · raster tile 10/548/334</name>
      <drawOrder>1</drawOrder>
      <Icon><href>https://tiles.ats.ucla.edu/tiles/Berlin_1985_Region/10/548/334.png</href></Icon>
      <LatLonBox>
        <north>52.908902</north>
        <south>52.696361</south>
        <east>13.007813</east>
        <west>12.656250</west>
      </LatLonBox>
    </GroundOverlay>
    <GroundOverlay>
      <name>THE BERLIN REGION · raster tile 10/549/334</name>
      <drawOrder>1</drawOrder>
      <Icon><href>https://tiles.ats.ucla.edu/tiles/Berlin_1985_Region/10/549/334.png</href></Icon>
      <LatLonBox>
        <north>52.908902</north>
        <south>52.696361</south>
        <east>13.359375</east>
        <west>13.007813</west>
      </LatLonBox>
    </GroundOverlay>
    <GroundOverlay>
      <name>THE BERLIN REGION · raster tile 10/550/334</name>
      <drawOrder>1</drawOrder>
      <Icon><href>https://tiles.ats.ucla.edu/tiles/Berlin_1985_Region/10/550/334.png</href></Icon>
      <LatLonBox>
        <north>52.908902</north>
        <south>52.696361</south>
        <east>13.710938</east>
        <west>13.359375</west>
      </LatLonBox>
    </GroundOverlay>
    <GroundOverlay>
      <name>THE BERLIN REGION · raster tile 10/551/334</name>
      <drawOrder>1</drawOrder>
      <Icon><href>https://tiles.ats.ucla.edu/tiles/Berlin_1985_Region/10/551/334.png</href></Icon>
      <LatLonBox>
        <north>52.908902</north>
        <south>52.696361</south>
        <east>14.062500</east>
        <west>13.710938</west>
      </LatLonBox>
    </GroundOverlay>
    <GroundOverlay>
      <name>THE BERLIN REGION · raster tile 10/548/335</name>
      <drawOrder>1</drawOrder>
      <Icon><href>https://tiles.ats.ucla.edu/tiles/Berlin_1985_Region/10/548/335.png</href></Icon>
      <LatLonBox>
        <north>52.696361</north>
        <south>52.482780</south>
        <east>13.007813</east>
        <west>12.656250</west>
      </LatLonBox>
    </GroundOverlay>
    <GroundOverlay>
      <name>THE BERLIN REGION · raster tile 10/549/335</name>
      <drawOrder>1</drawOrder>
      <Icon><href>https://tiles.ats.ucla.edu/tiles/Berlin_1985_Region/10/549/335.png</href></Icon>
      <LatLonBox>
        <north>52.696361</north>
        <south>52.482780</south>
        <east>13.359375</east>
        <west>13.007813</west>
      </LatLonBox>
    </GroundOverlay>
    <GroundOverlay>
      <name>THE BERLIN REGION · raster tile 10/550/335</name>
      <drawOrder>1</drawOrder>
      <Icon><href>https://tiles.ats.ucla.edu/tiles/Berlin_1985_Region/10/550/335.png</href></Icon>
      <LatLonBox>
        <north>52.696361</north>
        <south>52.482780</south>
        <east>13.710938</east>
        <west>13.359375</west>
      </LatLonBox>
    </GroundOverlay>
    <GroundOverlay>
      <name>THE BERLIN REGION · raster tile 10/551/335</name>
      <drawOrder>1</drawOrder>
      <Icon><href>https://tiles.ats.ucla.edu/tiles/Berlin_1985_Region/10/551/335.png</href></Icon>
      <LatLonBox>
        <north>52.696361</north>
        <south>52.482780</south>
        <east>14.062500</east>
        <west>13.710938</west>
      </LatLonBox>
    </GroundOverlay>
    <GroundOverlay>
      <name>THE BERLIN REGION · raster tile 10/548/336</name>
      <drawOrder>1</drawOrder>
      <Icon><href>https://tiles.ats.ucla.edu/tiles/Berlin_1985_Region/10/548/336.png</href></Icon>
      <LatLonBox>
        <north>52.482780</north>
        <south>52.268157</south>
        <east>13.007813</east>
        <west>12.656250</west>
      </LatLonBox>
    </GroundOverlay>
    <GroundOverlay>
      <name>THE BERLIN REGION · raster tile 10/549/336</name>
      <drawOrder>1</drawOrder>
      <Icon><href>https://tiles.ats.ucla.edu/tiles/Berlin_1985_Region/10/549/336.png</href></Icon>
      <LatLonBox>
        <north>52.482780</north>
        <south>52.268157</south>
        <east>13.359375</east>
        <west>13.007813</west>
      </LatLonBox>
    </GroundOverlay>
    <GroundOverlay>
      <name>THE BERLIN REGION · raster tile 10/550/336</name>
      <drawOrder>1</drawOrder>
      <Icon><href>https://tiles.ats.ucla.edu/tiles/Berlin_1985_Region/10/550/336.png</href></Icon>
      <LatLonBox>
        <north>52.482780</north>
        <south>52.268157</south>
        <east>13.710938</east>
        <west>13.359375</west>
      </LatLonBox>
    </GroundOverlay>
    <GroundOverlay>
      <name>THE BERLIN REGION · raster tile 10/551/336</name>
      <drawOrder>1</drawOrder>
      <Icon><href>https://tiles.ats.ucla.edu/tiles/Berlin_1985_Region/10/551/336.png</href></Icon>
      <LatLonBox>
        <north>52.482780</north>
        <south>52.268157</south>
        <east>14.062500</east>
        <west>13.710938</west>
      </LatLonBox>
    </GroundOverlay>
    <GroundOverlay>
      <name>THE BERLIN REGION · raster tile 10/548/337</name>
      <drawOrder>1</drawOrder>
      <Icon><href>https://tiles.ats.ucla.edu/tiles/Berlin_1985_Region/10/548/337.png</href></Icon>
      <LatLonBox>
        <north>52.268157</north>
        <south>52.052490</south>
        <east>13.007813</east>
        <west>12.656250</west>
      </LatLonBox>
    </GroundOverlay>
    <GroundOverlay>
      <name>THE BERLIN REGION · raster tile 10/549/337</name>
      <drawOrder>1</drawOrder>
      <Icon><href>https://tiles.ats.ucla.edu/tiles/Berlin_1985_Region/10/549/337.png</href></Icon>
      <LatLonBox>
        <north>52.268157</north>
        <south>52.052490</south>
        <east>13.359375</east>
        <west>13.007813</west>
      </LatLonBox>
    </GroundOverlay>
    <GroundOverlay>
      <name>THE BERLIN REGION · raster tile 10/550/337</name>
      <drawOrder>1</drawOrder>
      <Icon><href>https://tiles.ats.ucla.edu/tiles/Berlin_1985_Region/10/550/337.png</href></Icon>
      <LatLonBox>
        <north>52.268157</north>
        <south>52.052490</south>
        <east>13.710938</east>
        <west>13.359375</west>
      </LatLonBox>
    </GroundOverlay>
    <GroundOverlay>
      <name>THE BERLIN REGION · raster tile 10/551/337</name>
      <drawOrder>1</drawOrder>
      <Icon><href>https://tiles.ats.ucla.edu/tiles/Berlin_1985_Region/10/551/337.png</href></Icon>
      <LatLonBox>
        <north>52.268157</north>
        <south>52.052490</south>
        <east>14.062500</east>
        <west>13.710938</west>
      </LatLonBox>
    </GroundOverlay>

  </Document>
</kml>