<?xml version="1.0" encoding="UTF-8"?>
<kml xmlns="http://www.opengis.net/kml/2.2">
  <Document>
    <name>Map of Chicago (1924)</name>
    <description>Map of Chicago (1924), Chicago, 1924. Map of Chicago (1924) (1924). HyperCities Map Library.</description>
    <Style id="hypercities-footprint">
      <LineStyle><color>ff5e6ad6</color><width>2</width></LineStyle>
      <PolyStyle><color>285e6ad6</color><fill>1</fill><outline>1</outline></PolyStyle>
    </Style>

    <Placemark>
      <name>Map of Chicago (1924)</name>
      <description>HyperCities Map Library footprint · Chicago · 1924</description>
      <TimeSpan><begin>1924-01-01</begin><end>1924-12-31</end></TimeSpan>
      <ExtendedData>
      <Data name="mapId"><value>map:183</value></Data>
      <Data name="place"><value>Chicago</value></Data>
      <Data name="years"><value>1924</value></Data>
      <Data name="sourceRecordId"><value>183</value></Data>
      <Data name="collection"><value></value></Data>
      <Data name="creator"><value></value></Data>
      <Data name="citation"><value>Map of Chicago (1924) (1924). HyperCities Map Library.</value></Data>
      <Data name="tileTemplate"><value>https://tiles.ats.ucla.edu/tiles/Chicago_1924_RMN1/{z}/{x}/{y}.png</value></Data>
      <Data name="groundOverlayTiles"><value>Source XYZ tiles included as KML GroundOverlays at the recorded minimum zoom.</value></Data>
      <Data name="rasterAvailability"><value>Original XYZ tiles, rendered here as KML GroundOverlays at the recorded minimum zoom.</value></Data>
      <Data name="exportScope"><value>Georeferenced footprint, provenance, and a source-tile raster overview at the recorded minimum zoom.</value></Data>
      </ExtendedData>
      <styleUrl>#hypercities-footprint</styleUrl>
      <Polygon><tessellate>1</tessellate><outerBoundaryIs><LinearRing><coordinates>-87.646238,41.860414,0 -87.617992,41.860414,0 -87.617992,41.894294,0 -87.646238,41.894294,0 -87.646238,41.860414,0</coordinates></LinearRing></outerBoundaryIs></Polygon>
    </Placemark>
    <GroundOverlay>
      <name>Map of Chicago (1924) · raster tile 14/4203/6088</name>
      <drawOrder>1</drawOrder>
      <Icon><href>https://tiles.ats.ucla.edu/tiles/Chicago_1924_RMN1/14/4203/6088.png</href></Icon>
      <LatLonBox>
        <north>41.902277</north>
        <south>41.885921</south>
        <east>-87.626953</east>
        <west>-87.648926</west>
      </LatLonBox>
    </GroundOverlay>
    <GroundOverlay>
      <name>Map of Chicago (1924) · raster tile 14/4204/6088</name>
      <drawOrder>1</drawOrder>
      <Icon><href>https://tiles.ats.ucla.edu/tiles/Chicago_1924_RMN1/14/4204/6088.png</href></Icon>
      <LatLonBox>
        <north>41.902277</north>
        <south>41.885921</south>
        <east>-87.604980</east>
        <west>-87.626953</west>
      </LatLonBox>
    </GroundOverlay>
    <GroundOverlay>
      <name>Map of Chicago (1924) · raster tile 14/4203/6089</name>
      <drawOrder>1</drawOrder>
      <Icon><href>https://tiles.ats.ucla.edu/tiles/Chicago_1924_RMN1/14/4203/6089.png</href></Icon>
      <LatLonBox>
        <north>41.885921</north>
        <south>41.869561</south>
        <east>-87.626953</east>
        <west>-87.648926</west>
      </LatLonBox>
    </GroundOverlay>
    <GroundOverlay>
      <name>Map of Chicago (1924) · raster tile 14/4204/6089</name>
      <drawOrder>1</drawOrder>
      <Icon><href>https://tiles.ats.ucla.edu/tiles/Chicago_1924_RMN1/14/4204/6089.png</href></Icon>
      <LatLonBox>
        <north>41.885921</north>
        <south>41.869561</south>
        <east>-87.604980</east>
        <west>-87.626953</west>
      </LatLonBox>
    </GroundOverlay>
    <GroundOverlay>
      <name>Map of Chicago (1924) · raster tile 14/4203/6090</name>
      <drawOrder>1</drawOrder>
      <Icon><href>https://tiles.ats.ucla.edu/tiles/Chicago_1924_RMN1/14/4203/6090.png</href></Icon>
      <LatLonBox>
        <north>41.869561</north>
        <south>41.853196</south>
        <east>-87.626953</east>
        <west>-87.648926</west>
      </LatLonBox>
    </GroundOverlay>
    <GroundOverlay>
      <name>Map of Chicago (1924) · raster tile 14/4204/6090</name>
      <drawOrder>1</drawOrder>
      <Icon><href>https://tiles.ats.ucla.edu/tiles/Chicago_1924_RMN1/14/4204/6090.png</href></Icon>
      <LatLonBox>
        <north>41.869561</north>
        <south>41.853196</south>
        <east>-87.604980</east>
        <west>-87.626953</west>
      </LatLonBox>
    </GroundOverlay>

  </Document>
</kml>