<?xml version="1.0" encoding="UTF-8"?>
<kml xmlns="http://www.opengis.net/kml/2.2">
  <Document>
    <name>Manhattan</name>
    <description>Manhattan, New York, 1990. Manhattan (1990). HyperCities Map Library. Seymour B. Durst Old York Library and Reading Room at The Graduate Center of The City University of New York.</description>
    <Style id="hypercities-footprint">
      <LineStyle><color>ff5e6ad6</color><width>2</width></LineStyle>
      <PolyStyle><color>285e6ad6</color><fill>1</fill><outline>1</outline></PolyStyle>
    </Style>

    <Placemark>
      <name>Manhattan</name>
      <description>HyperCities Map Library footprint · New York · 1990</description>
      <TimeSpan><begin>1990-01-01</begin><end>1990-12-31</end></TimeSpan>
      <ExtendedData>
      <Data name="mapId"><value>map:58</value></Data>
      <Data name="place"><value>New York</value></Data>
      <Data name="years"><value>1990</value></Data>
      <Data name="sourceRecordId"><value>58</value></Data>
      <Data name="collection"><value>Seymour B. Durst Old York Library and Reading Room at The Graduate Center of The City University of New York</value></Data>
      <Data name="creator"><value>Produced by the Cartographic Division National Geographic Society. National Geographic Magazine, John B. Carver, JR., Chief Cartographer</value></Data>
      <Data name="citation"><value>Manhattan (1990). HyperCities Map Library. Seymour B. Durst Old York Library and Reading Room at The Graduate Center of The City University of New York.</value></Data>
      <Data name="tileTemplate"><value>https://tiles.ats.ucla.edu/tiles/NewYork_1990/{z}/{x}/{y}.png</value></Data>
      <Data name="groundOverlayTiles"><value>Source XYZ tiles included as KML GroundOverlays at the recorded minimum zoom.</value></Data>
      <Data name="rasterAvailability"><value>Original XYZ tiles, rendered here as KML GroundOverlays at the recorded minimum zoom.</value></Data>
      <Data name="exportScope"><value>Georeferenced footprint, provenance, and a source-tile raster overview at the recorded minimum zoom.</value></Data>
      </ExtendedData>
      <styleUrl>#hypercities-footprint</styleUrl>
      <Polygon><tessellate>1</tessellate><outerBoundaryIs><LinearRing><coordinates>-74.06333,40.67909,0 -73.855101,40.67909,0 -73.855101,40.890588,0 -74.06333,40.890588,0 -74.06333,40.67909,0</coordinates></LinearRing></outerBoundaryIs></Polygon>
    </Placemark>
    <GroundOverlay>
      <name>Manhattan · raster tile 11/602/768</name>
      <drawOrder>1</drawOrder>
      <Icon><href>https://tiles.ats.ucla.edu/tiles/NewYork_1990/11/602/768.png</href></Icon>
      <LatLonBox>
        <north>40.979898</north>
        <south>40.847060</south>
        <east>-74.003906</east>
        <west>-74.179688</west>
      </LatLonBox>
    </GroundOverlay>
    <GroundOverlay>
      <name>Manhattan · raster tile 11/603/768</name>
      <drawOrder>1</drawOrder>
      <Icon><href>https://tiles.ats.ucla.edu/tiles/NewYork_1990/11/603/768.png</href></Icon>
      <LatLonBox>
        <north>40.979898</north>
        <south>40.847060</south>
        <east>-73.828125</east>
        <west>-74.003906</west>
      </LatLonBox>
    </GroundOverlay>
    <GroundOverlay>
      <name>Manhattan · raster tile 11/602/769</name>
      <drawOrder>1</drawOrder>
      <Icon><href>https://tiles.ats.ucla.edu/tiles/NewYork_1990/11/602/769.png</href></Icon>
      <LatLonBox>
        <north>40.847060</north>
        <south>40.713956</south>
        <east>-74.003906</east>
        <west>-74.179688</west>
      </LatLonBox>
    </GroundOverlay>
    <GroundOverlay>
      <name>Manhattan · raster tile 11/603/769</name>
      <drawOrder>1</drawOrder>
      <Icon><href>https://tiles.ats.ucla.edu/tiles/NewYork_1990/11/603/769.png</href></Icon>
      <LatLonBox>
        <north>40.847060</north>
        <south>40.713956</south>
        <east>-73.828125</east>
        <west>-74.003906</west>
      </LatLonBox>
    </GroundOverlay>
    <GroundOverlay>
      <name>Manhattan · raster tile 11/602/770</name>
      <drawOrder>1</drawOrder>
      <Icon><href>https://tiles.ats.ucla.edu/tiles/NewYork_1990/11/602/770.png</href></Icon>
      <LatLonBox>
        <north>40.713956</north>
        <south>40.580585</south>
        <east>-74.003906</east>
        <west>-74.179688</west>
      </LatLonBox>
    </GroundOverlay>
    <GroundOverlay>
      <name>Manhattan · raster tile 11/603/770</name>
      <drawOrder>1</drawOrder>
      <Icon><href>https://tiles.ats.ucla.edu/tiles/NewYork_1990/11/603/770.png</href></Icon>
      <LatLonBox>
        <north>40.713956</north>
        <south>40.580585</south>
        <east>-73.828125</east>
        <west>-74.003906</west>
      </LatLonBox>
    </GroundOverlay>

  </Document>
</kml>