<?xml version="1.0" encoding="UTF-8"?>
<kml xmlns="http://www.opengis.net/kml/2.2">
  <Document>
    <name>Los Angeles Aerial Images</name>
    <description>Los Angeles Aerial Images, Los Angeles, 1968. Los Angeles Aerial Images (1968). HyperCities Map Library.</description>
    <Style id="hypercities-footprint">
      <LineStyle><color>ff5e6ad6</color><width>2</width></LineStyle>
      <PolyStyle><color>285e6ad6</color><fill>1</fill><outline>1</outline></PolyStyle>
    </Style>

    <Placemark>
      <name>Los Angeles Aerial Images</name>
      <description>HyperCities Map Library footprint · Los Angeles · 1968</description>
      <TimeSpan><begin>1968-01-01</begin><end>1968-12-31</end></TimeSpan>
      <ExtendedData>
      <Data name="mapId"><value>map:59</value></Data>
      <Data name="place"><value>Los Angeles</value></Data>
      <Data name="years"><value>1968</value></Data>
      <Data name="sourceRecordId"><value>59</value></Data>
      <Data name="collection"><value></value></Data>
      <Data name="creator"><value></value></Data>
      <Data name="citation"><value>Los Angeles Aerial Images (1968). HyperCities Map Library.</value></Data>
      <Data name="tileTemplate"><value>https://tiles.ats.ucla.edu/tiles/LosAngeles/1968/Layer_NewLayer/{z}/{x}/{y}.png</value></Data>
      <Data name="groundOverlayTiles"><value>Source XYZ tiles included as KML GroundOverlays at the recorded minimum zoom.</value></Data>
      <Data name="rasterAvailability"><value>Original XYZ tiles, rendered here as KML GroundOverlays at the recorded minimum zoom.</value></Data>
      <Data name="exportScope"><value>Georeferenced footprint, provenance, and a source-tile raster overview at the recorded minimum zoom.</value></Data>
      </ExtendedData>
      <styleUrl>#hypercities-footprint</styleUrl>
      <Polygon><tessellate>1</tessellate><outerBoundaryIs><LinearRing><coordinates>-118.287294,34.019668,0 -118.216597,34.019668,0 -118.216597,34.070935,0 -118.287294,34.070935,0 -118.287294,34.019668,0</coordinates></LinearRing></outerBoundaryIs></Polygon>
    </Placemark>
    <GroundOverlay>
      <name>Los Angeles Aerial Images · raster tile 4/2/6</name>
      <drawOrder>1</drawOrder>
      <Icon><href>https://tiles.ats.ucla.edu/tiles/LosAngeles/1968/Layer_NewLayer/4/2/6.png</href></Icon>
      <LatLonBox>
        <north>40.979898</north>
        <south>21.943046</south>
        <east>-112.500000</east>
        <west>-135.000000</west>
      </LatLonBox>
    </GroundOverlay>

  </Document>
</kml>