<?xml version="1.0" encoding="UTF-8"?>
<kml xmlns="http://www.opengis.net/kml/2.2">
  <Document>
    <name>Map of Horizon City 21_31</name>
    <description>Map of Horizon City 21_31, El Paso, 1963. Map of Horizon City 21_31 (1963). HyperCities Map Library.</description>
    <Style id="hypercities-footprint">
      <LineStyle><color>ff5e6ad6</color><width>2</width></LineStyle>
      <PolyStyle><color>285e6ad6</color><fill>1</fill><outline>1</outline></PolyStyle>
    </Style>

    <Placemark>
      <name>Map of Horizon City 21_31</name>
      <description>HyperCities Map Library footprint · El Paso · 1963</description>
      <TimeSpan><begin>1963-01-01</begin><end>1963-12-31</end></TimeSpan>
      <ExtendedData>
      <Data name="mapId"><value>map:483</value></Data>
      <Data name="place"><value>El Paso</value></Data>
      <Data name="years"><value>1963</value></Data>
      <Data name="sourceRecordId"><value>483</value></Data>
      <Data name="collection"><value></value></Data>
      <Data name="creator"><value></value></Data>
      <Data name="citation"><value>Map of Horizon City 21_31 (1963). HyperCities Map Library.</value></Data>
      <Data name="tileTemplate"><value>https://tiles.ats.ucla.edu/tiles/HorizonCity_1963_RectifiedMaps_21_31/{z}/{x}/{y}.png</value></Data>
      <Data name="groundOverlayTiles"><value>Source XYZ tiles included as KML GroundOverlays at the recorded minimum zoom.</value></Data>
      <Data name="rasterAvailability"><value>Original XYZ tiles, rendered here as KML GroundOverlays at the recorded minimum zoom.</value></Data>
      <Data name="exportScope"><value>Georeferenced footprint, provenance, and a source-tile raster overview at the recorded minimum zoom.</value></Data>
      </ExtendedData>
      <styleUrl>#hypercities-footprint</styleUrl>
      <Polygon><tessellate>1</tessellate><outerBoundaryIs><LinearRing><coordinates>-106.070587,31.686383,0 -106.056936,31.686383,0 -106.056936,31.694676,0 -106.070587,31.694676,0 -106.070587,31.686383,0</coordinates></LinearRing></outerBoundaryIs></Polygon>
    </Placemark>
    <GroundOverlay>
      <name>Map of Horizon City 21_31 · raster tile 14/3364/6669</name>
      <drawOrder>1</drawOrder>
      <Icon><href>https://tiles.ats.ucla.edu/tiles/HorizonCity_1963_RectifiedMaps_21_31/14/3364/6669.png</href></Icon>
      <LatLonBox>
        <north>31.709476</north>
        <south>31.690782</south>
        <east>-106.062012</east>
        <west>-106.083984</west>
      </LatLonBox>
    </GroundOverlay>
    <GroundOverlay>
      <name>Map of Horizon City 21_31 · raster tile 14/3365/6669</name>
      <drawOrder>1</drawOrder>
      <Icon><href>https://tiles.ats.ucla.edu/tiles/HorizonCity_1963_RectifiedMaps_21_31/14/3365/6669.png</href></Icon>
      <LatLonBox>
        <north>31.709476</north>
        <south>31.690782</south>
        <east>-106.040039</east>
        <west>-106.062012</west>
      </LatLonBox>
    </GroundOverlay>
    <GroundOverlay>
      <name>Map of Horizon City 21_31 · raster tile 14/3364/6670</name>
      <drawOrder>1</drawOrder>
      <Icon><href>https://tiles.ats.ucla.edu/tiles/HorizonCity_1963_RectifiedMaps_21_31/14/3364/6670.png</href></Icon>
      <LatLonBox>
        <north>31.690782</north>
        <south>31.672083</south>
        <east>-106.062012</east>
        <west>-106.083984</west>
      </LatLonBox>
    </GroundOverlay>
    <GroundOverlay>
      <name>Map of Horizon City 21_31 · raster tile 14/3365/6670</name>
      <drawOrder>1</drawOrder>
      <Icon><href>https://tiles.ats.ucla.edu/tiles/HorizonCity_1963_RectifiedMaps_21_31/14/3365/6670.png</href></Icon>
      <LatLonBox>
        <north>31.690782</north>
        <south>31.672083</south>
        <east>-106.040039</east>
        <west>-106.062012</west>
      </LatLonBox>
    </GroundOverlay>

  </Document>
</kml>