<?xml version="1.0" encoding="UTF-8"?>
<kml xmlns="http://www.opengis.net/kml/2.2">
  <Document>
    <name>To His Excellency Sir Henry Moore, Bart. Captain General and Governour in Chief, in &amp; over the Province of New York &amp; the Territories depending thereon in America Chancellor &amp; Vice Admiral of the fame. This Plan of the City of New York Is most humbly Insc</name>
    <description>To His Excellency Sir Henry Moore, Bart. Captain General and Governour in Chief, in &amp; over the Province of New York &amp; the Territories depending thereon in America Chancellor &amp; Vice Admiral of the fame. This Plan of the City of New York Is most humbly Insc, New York, 1767. To His Excellency Sir Henry Moore, Bart. Captain General and Governour in Chief, in &amp; over the Province of New York &amp; the Territories depending thereon in America Chancellor &amp; Vice Admiral of the fame. This Plan of the City of New York Is most humbly Insc (1767). HyperCities Map Library.</description>
    <Style id="hypercities-footprint">
      <LineStyle><color>ff5e6ad6</color><width>2</width></LineStyle>
      <PolyStyle><color>285e6ad6</color><fill>1</fill><outline>1</outline></PolyStyle>
    </Style>

    <Placemark>
      <name>To His Excellency Sir Henry Moore, Bart. Captain General and Governour in Chief, in &amp; over the Province of New York &amp; the Territories depending thereon in America Chancellor &amp; Vice Admiral of the fame. This Plan of the City of New York Is most humbly Insc</name>
      <description>HyperCities Map Library footprint · New York · 1767</description>
      <TimeSpan><begin>1767-01-01</begin><end>1767-12-31</end></TimeSpan>
      <ExtendedData>
      <Data name="mapId"><value>map:45</value></Data>
      <Data name="place"><value>New York</value></Data>
      <Data name="years"><value>1767</value></Data>
      <Data name="sourceRecordId"><value>45</value></Data>
      <Data name="collection"><value></value></Data>
      <Data name="creator"><value>Bernard Ratzer</value></Data>
      <Data name="citation"><value>To His Excellency Sir Henry Moore, Bart. Captain General and Governour in Chief, in &amp; over the Province of New York &amp; the Territories depending thereon in America Chancellor &amp; Vice Admiral of the fame. This Plan of the City of New York Is most humbly Insc (1767). HyperCities Map Library.</value></Data>
      <Data name="tileTemplate"><value>https://tiles.ats.ucla.edu/tiles/NewYork_1767a/{z}/{x}/{y}.png</value></Data>
      <Data name="groundOverlayTiles"><value>Source XYZ tiles included as KML GroundOverlays at the recorded minimum zoom.</value></Data>
      <Data name="rasterAvailability"><value>Original XYZ tiles, rendered here as KML GroundOverlays at the recorded minimum zoom.</value></Data>
      <Data name="exportScope"><value>Georeferenced footprint, provenance, and a source-tile raster overview at the recorded minimum zoom.</value></Data>
      </ExtendedData>
      <styleUrl>#hypercities-footprint</styleUrl>
      <Polygon><tessellate>1</tessellate><outerBoundaryIs><LinearRing><coordinates>-74.029017,40.695149,0 -73.969532,40.695149,0 -73.969532,40.72832,0 -74.029017,40.72832,0 -74.029017,40.695149,0</coordinates></LinearRing></outerBoundaryIs></Polygon>
    </Placemark>
    <GroundOverlay>
      <name>To His Excellency Sir Henry Moore, Bart. Captain General and Governour in Chief, in &amp; over the Province of New York &amp; the Territories depending thereon in America Chancellor &amp; Vice Admiral of the fame. This Plan of the City of New York Is most humbly Insc · raster tile 5/9/12</name>
      <drawOrder>1</drawOrder>
      <Icon><href>https://tiles.ats.ucla.edu/tiles/NewYork_1767a/5/9/12.png</href></Icon>
      <LatLonBox>
        <north>40.979898</north>
        <south>31.952162</south>
        <east>-67.500000</east>
        <west>-78.750000</west>
      </LatLonBox>
    </GroundOverlay>

  </Document>
</kml>