<?xml version="1.0" encoding="UTF-8"?>
<kml xmlns="http://www.opengis.net/kml/2.2">
  <Document>
    <name>Old Coeln Wall Plan</name>
    <description>Old Coeln Wall Plan, Berlin, 1440. Old Coeln Wall Plan (1440). HyperCities Map Library.</description>
    <Style id="hypercities-footprint">
      <LineStyle><color>ff5e6ad6</color><width>2</width></LineStyle>
      <PolyStyle><color>285e6ad6</color><fill>1</fill><outline>1</outline></PolyStyle>
    </Style>

    <Placemark>
      <name>Old Coeln Wall Plan</name>
      <description>HyperCities Map Library footprint · Berlin · 1440</description>
      <TimeSpan><begin>1440-01-01</begin><end>1440-12-31</end></TimeSpan>
      <ExtendedData>
      <Data name="mapId"><value>map:408</value></Data>
      <Data name="place"><value>Berlin</value></Data>
      <Data name="years"><value>1440</value></Data>
      <Data name="sourceRecordId"><value>408</value></Data>
      <Data name="collection"><value></value></Data>
      <Data name="creator"><value></value></Data>
      <Data name="citation"><value>Old Coeln Wall Plan (1440). HyperCities Map Library.</value></Data>
      <Data name="tileTemplate"><value>https://tiles.ats.ucla.edu/tiles/1440_Old_Coeln_Wall_Plan_Final/{z}/{x}/{y}.png</value></Data>
      <Data name="groundOverlayTiles"><value>Source XYZ tiles included as KML GroundOverlays at the recorded minimum zoom.</value></Data>
      <Data name="rasterAvailability"><value>Original XYZ tiles, rendered here as KML GroundOverlays at the recorded minimum zoom.</value></Data>
      <Data name="exportScope"><value>Georeferenced footprint, provenance, and a source-tile raster overview at the recorded minimum zoom.</value></Data>
      </ExtendedData>
      <styleUrl>#hypercities-footprint</styleUrl>
      <Polygon><tessellate>1</tessellate><outerBoundaryIs><LinearRing><coordinates>13.401586,52.516349,0 13.404001,52.516349,0 13.404001,52.517795,0 13.401586,52.517795,0 13.401586,52.516349,0</coordinates></LinearRing></outerBoundaryIs></Polygon>
    </Placemark>
    <GroundOverlay>
      <name>Old Coeln Wall Plan · raster tile 17/70415/42987</name>
      <drawOrder>1</drawOrder>
      <Icon><href>https://tiles.ats.ucla.edu/tiles/1440_Old_Coeln_Wall_Plan_Final/17/70415/42987.png</href></Icon>
      <LatLonBox>
        <north>52.517892</north>
        <south>52.516221</south>
        <east>13.403320</east>
        <west>13.400574</west>
      </LatLonBox>
    </GroundOverlay>
    <GroundOverlay>
      <name>Old Coeln Wall Plan · raster tile 17/70416/42987</name>
      <drawOrder>1</drawOrder>
      <Icon><href>https://tiles.ats.ucla.edu/tiles/1440_Old_Coeln_Wall_Plan_Final/17/70416/42987.png</href></Icon>
      <LatLonBox>
        <north>52.517892</north>
        <south>52.516221</south>
        <east>13.406067</east>
        <west>13.403320</west>
      </LatLonBox>
    </GroundOverlay>

  </Document>
</kml>