<?xml version="1.0" encoding="UTF-8"?>
<kml xmlns="http://www.opengis.net/kml/2.2">
  <Document>
    <name>Hudson Bay Res. Edmonton Settlement</name>
    <description>Hudson Bay Res. Edmonton Settlement, Edmonton, 1924. Hudson Bay Res. Edmonton Settlement (1924). HyperCities Map Library. University of Alberta Map Collection.</description>
    <Style id="hypercities-footprint">
      <LineStyle><color>ff5e6ad6</color><width>2</width></LineStyle>
      <PolyStyle><color>285e6ad6</color><fill>1</fill><outline>1</outline></PolyStyle>
    </Style>

    <Placemark>
      <name>Hudson Bay Res. Edmonton Settlement</name>
      <description>HyperCities Map Library footprint · Edmonton · 1924</description>
      <TimeSpan><begin>1924-01-01</begin><end>1924-12-31</end></TimeSpan>
      <ExtendedData>
      <Data name="mapId"><value>map:307</value></Data>
      <Data name="place"><value>Edmonton</value></Data>
      <Data name="years"><value>1924</value></Data>
      <Data name="sourceRecordId"><value>307</value></Data>
      <Data name="collection"><value>University of Alberta Map Collection</value></Data>
      <Data name="creator"><value>Alfred Driscoll</value></Data>
      <Data name="citation"><value>Hudson Bay Res. Edmonton Settlement (1924). HyperCities Map Library. University of Alberta Map Collection.</value></Data>
      <Data name="tileTemplate"><value>https://tiles.ats.ucla.edu/tiles/Edmonton_1924/{z}/{x}/{y}.png</value></Data>
      <Data name="groundOverlayTiles"><value>Source XYZ tiles included as KML GroundOverlays at the recorded minimum zoom.</value></Data>
      <Data name="rasterAvailability"><value>Original XYZ tiles, rendered here as KML GroundOverlays at the recorded minimum zoom.</value></Data>
      <Data name="exportScope"><value>Georeferenced footprint, provenance, and a source-tile raster overview at the recorded minimum zoom.</value></Data>
      </ExtendedData>
      <styleUrl>#hypercities-footprint</styleUrl>
      <Polygon><tessellate>1</tessellate><outerBoundaryIs><LinearRing><coordinates>-113.525255,53.526319,0 -113.490198,53.526319,0 -113.490198,53.537647,0 -113.525255,53.537647,0 -113.525255,53.526319,0</coordinates></LinearRing></outerBoundaryIs></Polygon>
    </Placemark>
    <GroundOverlay>
      <name>Hudson Bay Res. Edmonton Settlement · raster tile 13/1512/2648</name>
      <drawOrder>1</drawOrder>
      <Icon><href>https://tiles.ats.ucla.edu/tiles/Edmonton_1924/13/1512/2648.png</href></Icon>
      <LatLonBox>
        <north>53.540307</north>
        <south>53.514185</south>
        <east>-113.510742</east>
        <west>-113.554688</west>
      </LatLonBox>
    </GroundOverlay>
    <GroundOverlay>
      <name>Hudson Bay Res. Edmonton Settlement · raster tile 13/1513/2648</name>
      <drawOrder>1</drawOrder>
      <Icon><href>https://tiles.ats.ucla.edu/tiles/Edmonton_1924/13/1513/2648.png</href></Icon>
      <LatLonBox>
        <north>53.540307</north>
        <south>53.514185</south>
        <east>-113.466797</east>
        <west>-113.510742</west>
      </LatLonBox>
    </GroundOverlay>

  </Document>
</kml>