<?xml version="1.0" encoding="UTF-8"?>
<kml xmlns="http://www.opengis.net/kml/2.2">
  <Document>
    <name>Mercator Brandenburg Mittelmark</name>
    <description>Mercator Brandenburg Mittelmark, Berlin, 1633. Mercator Brandenburg Mittelmark (1633). HyperCities Map Library.</description>
    <Style id="hypercities-footprint">
      <LineStyle><color>ff5e6ad6</color><width>2</width></LineStyle>
      <PolyStyle><color>285e6ad6</color><fill>1</fill><outline>1</outline></PolyStyle>
    </Style>

    <Placemark>
      <name>Mercator Brandenburg Mittelmark</name>
      <description>HyperCities Map Library footprint · Berlin · 1633</description>
      <TimeSpan><begin>1633-01-01</begin><end>1633-12-31</end></TimeSpan>
      <ExtendedData>
      <Data name="mapId"><value>map:377</value></Data>
      <Data name="place"><value>Berlin</value></Data>
      <Data name="years"><value>1633</value></Data>
      <Data name="sourceRecordId"><value>377</value></Data>
      <Data name="collection"><value></value></Data>
      <Data name="creator"><value></value></Data>
      <Data name="citation"><value>Mercator Brandenburg Mittelmark (1633). HyperCities Map Library.</value></Data>
      <Data name="tileTemplate"><value>https://tiles.ats.ucla.edu/tiles/1633_Mercator_Brandenburg_Mittelmark/{z}/{x}/{y}.png</value></Data>
      <Data name="groundOverlayTiles"><value>Source XYZ tiles included as KML GroundOverlays at the recorded minimum zoom.</value></Data>
      <Data name="rasterAvailability"><value>Original XYZ tiles, rendered here as KML GroundOverlays at the recorded minimum zoom.</value></Data>
      <Data name="exportScope"><value>Georeferenced footprint, provenance, and a source-tile raster overview at the recorded minimum zoom.</value></Data>
      </ExtendedData>
      <styleUrl>#hypercities-footprint</styleUrl>
      <Polygon><tessellate>1</tessellate><outerBoundaryIs><LinearRing><coordinates>11.298322,51.718832,0 15.195088,51.718832,0 15.195088,53.696174,0 11.298322,53.696174,0 11.298322,51.718832,0</coordinates></LinearRing></outerBoundaryIs></Polygon>
    </Placemark>
    <GroundOverlay>
      <name>Mercator Brandenburg Mittelmark · raster tile 7/68/41</name>
      <drawOrder>1</drawOrder>
      <Icon><href>https://tiles.ats.ucla.edu/tiles/1633_Mercator_Brandenburg_Mittelmark/7/68/41.png</href></Icon>
      <LatLonBox>
        <north>54.162434</north>
        <south>52.482780</south>
        <east>14.062500</east>
        <west>11.250000</west>
      </LatLonBox>
    </GroundOverlay>
    <GroundOverlay>
      <name>Mercator Brandenburg Mittelmark · raster tile 7/69/41</name>
      <drawOrder>1</drawOrder>
      <Icon><href>https://tiles.ats.ucla.edu/tiles/1633_Mercator_Brandenburg_Mittelmark/7/69/41.png</href></Icon>
      <LatLonBox>
        <north>54.162434</north>
        <south>52.482780</south>
        <east>16.875000</east>
        <west>14.062500</west>
      </LatLonBox>
    </GroundOverlay>
    <GroundOverlay>
      <name>Mercator Brandenburg Mittelmark · raster tile 7/68/42</name>
      <drawOrder>1</drawOrder>
      <Icon><href>https://tiles.ats.ucla.edu/tiles/1633_Mercator_Brandenburg_Mittelmark/7/68/42.png</href></Icon>
      <LatLonBox>
        <north>52.482780</north>
        <south>50.736455</south>
        <east>14.062500</east>
        <west>11.250000</west>
      </LatLonBox>
    </GroundOverlay>
    <GroundOverlay>
      <name>Mercator Brandenburg Mittelmark · raster tile 7/69/42</name>
      <drawOrder>1</drawOrder>
      <Icon><href>https://tiles.ats.ucla.edu/tiles/1633_Mercator_Brandenburg_Mittelmark/7/69/42.png</href></Icon>
      <LatLonBox>
        <north>52.482780</north>
        <south>50.736455</south>
        <east>16.875000</east>
        <west>14.062500</west>
      </LatLonBox>
    </GroundOverlay>

  </Document>
</kml>