<?xml version="1.0" encoding="UTF-8"?>
<kml xmlns="http://www.opengis.net/kml/2.2">
  <Document>
    <name>Map of ParisSm-gomboust-1900-HIGHRES (fina)</name>
    <description>Map of ParisSm-gomboust-1900-HIGHRES (fina), Paris, 1899. Map of ParisSm-gomboust-1900-HIGHRES (fina) (1899). HyperCities Map Library.</description>
    <Style id="hypercities-footprint">
      <LineStyle><color>ff5e6ad6</color><width>2</width></LineStyle>
      <PolyStyle><color>285e6ad6</color><fill>1</fill><outline>1</outline></PolyStyle>
    </Style>

    <Placemark>
      <name>Map of ParisSm-gomboust-1900-HIGHRES (fina)</name>
      <description>HyperCities Map Library footprint · Paris · 1899</description>
      <TimeSpan><begin>1899-01-01</begin><end>1899-12-31</end></TimeSpan>
      <ExtendedData>
      <Data name="mapId"><value>map:216</value></Data>
      <Data name="place"><value>Paris</value></Data>
      <Data name="years"><value>1899</value></Data>
      <Data name="sourceRecordId"><value>216</value></Data>
      <Data name="collection"><value></value></Data>
      <Data name="creator"><value></value></Data>
      <Data name="citation"><value>Map of ParisSm-gomboust-1900-HIGHRES (fina) (1899). HyperCities Map Library.</value></Data>
      <Data name="tileTemplate"><value>https://tiles.ats.ucla.edu/tiles/ParisSm-gomboust-1900-HIGHRES_final/{z}/{x}/{y}.png</value></Data>
      <Data name="groundOverlayTiles"><value>Source XYZ tiles included as KML GroundOverlays at the recorded minimum zoom.</value></Data>
      <Data name="rasterAvailability"><value>Original XYZ tiles, rendered here as KML GroundOverlays at the recorded minimum zoom.</value></Data>
      <Data name="exportScope"><value>Georeferenced footprint, provenance, and a source-tile raster overview at the recorded minimum zoom.</value></Data>
      </ExtendedData>
      <styleUrl>#hypercities-footprint</styleUrl>
      <Polygon><tessellate>1</tessellate><outerBoundaryIs><LinearRing><coordinates>2.299411,48.827434,0 2.388109,48.827434,0 2.388109,48.888717,0 2.299411,48.888717,0 2.299411,48.827434,0</coordinates></LinearRing></outerBoundaryIs></Polygon>
    </Placemark>
    <GroundOverlay>
      <name>Map of ParisSm-gomboust-1900-HIGHRES (fina) · raster tile 12/2074/1408</name>
      <drawOrder>1</drawOrder>
      <Icon><href>https://tiles.ats.ucla.edu/tiles/ParisSm-gomboust-1900-HIGHRES_final/12/2074/1408.png</href></Icon>
      <LatLonBox>
        <north>48.922499</north>
        <south>48.864715</south>
        <east>2.373047</east>
        <west>2.285156</west>
      </LatLonBox>
    </GroundOverlay>
    <GroundOverlay>
      <name>Map of ParisSm-gomboust-1900-HIGHRES (fina) · raster tile 12/2075/1408</name>
      <drawOrder>1</drawOrder>
      <Icon><href>https://tiles.ats.ucla.edu/tiles/ParisSm-gomboust-1900-HIGHRES_final/12/2075/1408.png</href></Icon>
      <LatLonBox>
        <north>48.922499</north>
        <south>48.864715</south>
        <east>2.460938</east>
        <west>2.373047</west>
      </LatLonBox>
    </GroundOverlay>
    <GroundOverlay>
      <name>Map of ParisSm-gomboust-1900-HIGHRES (fina) · raster tile 12/2074/1409</name>
      <drawOrder>1</drawOrder>
      <Icon><href>https://tiles.ats.ucla.edu/tiles/ParisSm-gomboust-1900-HIGHRES_final/12/2074/1409.png</href></Icon>
      <LatLonBox>
        <north>48.864715</north>
        <south>48.806863</south>
        <east>2.373047</east>
        <west>2.285156</west>
      </LatLonBox>
    </GroundOverlay>
    <GroundOverlay>
      <name>Map of ParisSm-gomboust-1900-HIGHRES (fina) · raster tile 12/2075/1409</name>
      <drawOrder>1</drawOrder>
      <Icon><href>https://tiles.ats.ucla.edu/tiles/ParisSm-gomboust-1900-HIGHRES_final/12/2075/1409.png</href></Icon>
      <LatLonBox>
        <north>48.864715</north>
        <south>48.806863</south>
        <east>2.460938</east>
        <west>2.373047</west>
      </LatLonBox>
    </GroundOverlay>

  </Document>
</kml>