<?xml version="1.0" encoding="UTF-8"?>
<kml xmlns="http://www.opengis.net/kml/2.2">
  <Document>
    <name>Miami NE 2nd Avenue</name>
    <description>Miami NE 2nd Avenue, Miami, 1951. Miami NE 2nd Avenue (1951). HyperCities Map Library.</description>
    <Style id="hypercities-footprint">
      <LineStyle><color>ff5e6ad6</color><width>2</width></LineStyle>
      <PolyStyle><color>285e6ad6</color><fill>1</fill><outline>1</outline></PolyStyle>
    </Style>

    <Placemark>
      <name>Miami NE 2nd Avenue</name>
      <description>HyperCities Map Library footprint · Miami · 1951</description>
      <TimeSpan><begin>1951-01-01</begin><end>1951-12-31</end></TimeSpan>
      <ExtendedData>
      <Data name="mapId"><value>map:425</value></Data>
      <Data name="place"><value>Miami</value></Data>
      <Data name="years"><value>1951</value></Data>
      <Data name="sourceRecordId"><value>425</value></Data>
      <Data name="collection"><value></value></Data>
      <Data name="creator"><value></value></Data>
      <Data name="citation"><value>Miami NE 2nd Avenue (1951). HyperCities Map Library.</value></Data>
      <Data name="tileTemplate"><value>https://tiles.ats.ucla.edu/tiles/1951_Miami_NE_2nd_Ave_0351S/{z}/{x}/{y}.png</value></Data>
      <Data name="groundOverlayTiles"><value>Source XYZ tiles included as KML GroundOverlays at the recorded minimum zoom.</value></Data>
      <Data name="rasterAvailability"><value>Original XYZ tiles, rendered here as KML GroundOverlays at the recorded minimum zoom.</value></Data>
      <Data name="exportScope"><value>Georeferenced footprint, provenance, and a source-tile raster overview at the recorded minimum zoom.</value></Data>
      </ExtendedData>
      <styleUrl>#hypercities-footprint</styleUrl>
      <Polygon><tessellate>1</tessellate><outerBoundaryIs><LinearRing><coordinates>-80.191218,25.772871,0 -80.187475,25.772871,0 -80.187475,25.776798,0 -80.191218,25.776798,0 -80.191218,25.772871,0</coordinates></LinearRing></outerBoundaryIs></Polygon>
    </Placemark>
    <GroundOverlay>
      <name>Miami NE 2nd Avenue · raster tile 17/36339/55817</name>
      <drawOrder>1</drawOrder>
      <Icon><href>https://tiles.ats.ucla.edu/tiles/1951_Miami_NE_2nd_Ave_0351S/17/36339/55817.png</href></Icon>
      <LatLonBox>
        <north>25.777634</north>
        <south>25.775161</south>
        <east>-80.189209</east>
        <west>-80.191956</west>
      </LatLonBox>
    </GroundOverlay>
    <GroundOverlay>
      <name>Miami NE 2nd Avenue · raster tile 17/36340/55817</name>
      <drawOrder>1</drawOrder>
      <Icon><href>https://tiles.ats.ucla.edu/tiles/1951_Miami_NE_2nd_Ave_0351S/17/36340/55817.png</href></Icon>
      <LatLonBox>
        <north>25.777634</north>
        <south>25.775161</south>
        <east>-80.186462</east>
        <west>-80.189209</west>
      </LatLonBox>
    </GroundOverlay>
    <GroundOverlay>
      <name>Miami NE 2nd Avenue · raster tile 17/36339/55818</name>
      <drawOrder>1</drawOrder>
      <Icon><href>https://tiles.ats.ucla.edu/tiles/1951_Miami_NE_2nd_Ave_0351S/17/36339/55818.png</href></Icon>
      <LatLonBox>
        <north>25.775161</north>
        <south>25.772687</south>
        <east>-80.189209</east>
        <west>-80.191956</west>
      </LatLonBox>
    </GroundOverlay>
    <GroundOverlay>
      <name>Miami NE 2nd Avenue · raster tile 17/36340/55818</name>
      <drawOrder>1</drawOrder>
      <Icon><href>https://tiles.ats.ucla.edu/tiles/1951_Miami_NE_2nd_Ave_0351S/17/36340/55818.png</href></Icon>
      <LatLonBox>
        <north>25.775161</north>
        <south>25.772687</south>
        <east>-80.186462</east>
        <west>-80.189209</west>
      </LatLonBox>
    </GroundOverlay>

  </Document>
</kml>