<?xml version="1.0" encoding="UTF-8"?>
<kml xmlns="http://www.opengis.net/kml/2.2">
  <Document>
    <name>Los Angeles Street and Vicinity Maps</name>
    <description>Los Angeles Street and Vicinity Maps, Los Angeles, 1971. Los Angeles Street and Vicinity Maps (1971). HyperCities Map Library. UCLA Bruman Map Collection.</description>
    <Style id="hypercities-footprint">
      <LineStyle><color>ff5e6ad6</color><width>2</width></LineStyle>
      <PolyStyle><color>285e6ad6</color><fill>1</fill><outline>1</outline></PolyStyle>
    </Style>

    <Placemark>
      <name>Los Angeles Street and Vicinity Maps</name>
      <description>HyperCities Map Library footprint · Los Angeles · 1971</description>
      <TimeSpan><begin>1971-01-01</begin><end>1971-12-31</end></TimeSpan>
      <ExtendedData>
      <Data name="mapId"><value>map:65</value></Data>
      <Data name="place"><value>Los Angeles</value></Data>
      <Data name="years"><value>1971</value></Data>
      <Data name="sourceRecordId"><value>65</value></Data>
      <Data name="collection"><value>UCLA Bruman Map Collection</value></Data>
      <Data name="creator"><value>H.M. Gousha</value></Data>
      <Data name="citation"><value>Los Angeles Street and Vicinity Maps (1971). HyperCities Map Library. UCLA Bruman Map Collection.</value></Data>
      <Data name="tileTemplate"><value>https://tiles.ats.ucla.edu/tiles/Los_Angeles_1971/{z}/{x}/{y}.png</value></Data>
      <Data name="groundOverlayTiles"><value>Source XYZ tiles included as KML GroundOverlays at the recorded minimum zoom.</value></Data>
      <Data name="rasterAvailability"><value>Original XYZ tiles, rendered here as KML GroundOverlays at the recorded minimum zoom.</value></Data>
      <Data name="exportScope"><value>Georeferenced footprint, provenance, and a source-tile raster overview at the recorded minimum zoom.</value></Data>
      </ExtendedData>
      <styleUrl>#hypercities-footprint</styleUrl>
      <Polygon><tessellate>1</tessellate><outerBoundaryIs><LinearRing><coordinates>-118.526773,33.9087,0 -117.99845,33.9087,0 -117.99845,34.240638,0 -118.526773,34.240638,0 -118.526773,33.9087,0</coordinates></LinearRing></outerBoundaryIs></Polygon>
    </Placemark>
    <GroundOverlay>
      <name>Los Angeles Street and Vicinity Maps · raster tile 9/87/204</name>
      <drawOrder>1</drawOrder>
      <Icon><href>https://tiles.ats.ucla.edu/tiles/Los_Angeles_1971/9/87/204.png</href></Icon>
      <LatLonBox>
        <north>34.307144</north>
        <south>33.724340</south>
        <east>-118.125000</east>
        <west>-118.828125</west>
      </LatLonBox>
    </GroundOverlay>
    <GroundOverlay>
      <name>Los Angeles Street and Vicinity Maps · raster tile 9/88/204</name>
      <drawOrder>1</drawOrder>
      <Icon><href>https://tiles.ats.ucla.edu/tiles/Los_Angeles_1971/9/88/204.png</href></Icon>
      <LatLonBox>
        <north>34.307144</north>
        <south>33.724340</south>
        <east>-117.421875</east>
        <west>-118.125000</west>
      </LatLonBox>
    </GroundOverlay>

  </Document>
</kml>