<?xml version="1.0" encoding="UTF-8"?>
<kml xmlns="http://www.opengis.net/kml/2.2">
  <Document>
    <name>Map of Chicago (1920)</name>
    <description>Map of Chicago (1920), Chicago, 1920. Map of Chicago (1920) (1920). HyperCities Map Library.</description>
    <Style id="hypercities-footprint">
      <LineStyle><color>ff5e6ad6</color><width>2</width></LineStyle>
      <PolyStyle><color>285e6ad6</color><fill>1</fill><outline>1</outline></PolyStyle>
    </Style>

    <Placemark>
      <name>Map of Chicago (1920)</name>
      <description>HyperCities Map Library footprint · Chicago · 1920</description>
      <TimeSpan><begin>1920-01-01</begin><end>1920-12-31</end></TimeSpan>
      <ExtendedData>
      <Data name="mapId"><value>map:175</value></Data>
      <Data name="place"><value>Chicago</value></Data>
      <Data name="years"><value>1920</value></Data>
      <Data name="sourceRecordId"><value>175</value></Data>
      <Data name="collection"><value></value></Data>
      <Data name="creator"><value></value></Data>
      <Data name="citation"><value>Map of Chicago (1920) (1920). HyperCities Map Library.</value></Data>
      <Data name="tileTemplate"><value>https://tiles.ats.ucla.edu/tiles/Chicago_1920_VanVlissingen/{z}/{x}/{y}.png</value></Data>
      <Data name="groundOverlayTiles"><value>Source XYZ tiles included as KML GroundOverlays at the recorded minimum zoom.</value></Data>
      <Data name="rasterAvailability"><value>Original XYZ tiles, rendered here as KML GroundOverlays at the recorded minimum zoom.</value></Data>
      <Data name="exportScope"><value>Georeferenced footprint, provenance, and a source-tile raster overview at the recorded minimum zoom.</value></Data>
      </ExtendedData>
      <styleUrl>#hypercities-footprint</styleUrl>
      <Polygon><tessellate>1</tessellate><outerBoundaryIs><LinearRing><coordinates>-87.629359,41.642516,0 -87.550779,41.642516,0 -87.550779,41.734784,0 -87.629359,41.734784,0 -87.629359,41.642516,0</coordinates></LinearRing></outerBoundaryIs></Polygon>
    </Placemark>
    <GroundOverlay>
      <name>Map of Chicago (1920) · raster tile 12/1050/1524</name>
      <drawOrder>1</drawOrder>
      <Icon><href>https://tiles.ats.ucla.edu/tiles/Chicago_1920_VanVlissingen/12/1050/1524.png</href></Icon>
      <LatLonBox>
        <north>41.771312</north>
        <south>41.705729</south>
        <east>-87.626953</east>
        <west>-87.714844</west>
      </LatLonBox>
    </GroundOverlay>
    <GroundOverlay>
      <name>Map of Chicago (1920) · raster tile 12/1051/1524</name>
      <drawOrder>1</drawOrder>
      <Icon><href>https://tiles.ats.ucla.edu/tiles/Chicago_1920_VanVlissingen/12/1051/1524.png</href></Icon>
      <LatLonBox>
        <north>41.771312</north>
        <south>41.705729</south>
        <east>-87.539063</east>
        <west>-87.626953</west>
      </LatLonBox>
    </GroundOverlay>
    <GroundOverlay>
      <name>Map of Chicago (1920) · raster tile 12/1050/1525</name>
      <drawOrder>1</drawOrder>
      <Icon><href>https://tiles.ats.ucla.edu/tiles/Chicago_1920_VanVlissingen/12/1050/1525.png</href></Icon>
      <LatLonBox>
        <north>41.705729</north>
        <south>41.640078</south>
        <east>-87.626953</east>
        <west>-87.714844</west>
      </LatLonBox>
    </GroundOverlay>
    <GroundOverlay>
      <name>Map of Chicago (1920) · raster tile 12/1051/1525</name>
      <drawOrder>1</drawOrder>
      <Icon><href>https://tiles.ats.ucla.edu/tiles/Chicago_1920_VanVlissingen/12/1051/1525.png</href></Icon>
      <LatLonBox>
        <north>41.705729</north>
        <south>41.640078</south>
        <east>-87.539063</east>
        <west>-87.626953</west>
      </LatLonBox>
    </GroundOverlay>

  </Document>
</kml>