<?xml version="1.0" encoding="UTF-8"?>
<kml xmlns="http://www.opengis.net/kml/2.2">
  <Document>
    <name>Innaguration of Gen. George Washington; &quot;Plan of the City of New York&quot;</name>
    <description>Innaguration of Gen. George Washington; &quot;Plan of the City of New York&quot;, New York, 1789. Innaguration of Gen. George Washington; &quot;Plan of the City of New York&quot; (1789). HyperCities Map Library. UCLA Bruman Map Collection.</description>
    <Style id="hypercities-footprint">
      <LineStyle><color>ff5e6ad6</color><width>2</width></LineStyle>
      <PolyStyle><color>285e6ad6</color><fill>1</fill><outline>1</outline></PolyStyle>
    </Style>

    <Placemark>
      <name>Innaguration of Gen. George Washington; &quot;Plan of the City of New York&quot;</name>
      <description>HyperCities Map Library footprint · New York · 1789</description>
      <TimeSpan><begin>1789-01-01</begin><end>1789-12-31</end></TimeSpan>
      <ExtendedData>
      <Data name="mapId"><value>map:47</value></Data>
      <Data name="place"><value>New York</value></Data>
      <Data name="years"><value>1789</value></Data>
      <Data name="sourceRecordId"><value>47</value></Data>
      <Data name="collection"><value>UCLA Bruman Map Collection</value></Data>
      <Data name="creator"><value>John M&apos;comb; C. Tiebut Sculp.; U.S. Geological Survey; Joseph Laing (lith)</value></Data>
      <Data name="citation"><value>Innaguration of Gen. George Washington; &quot;Plan of the City of New York&quot; (1789). HyperCities Map Library. UCLA Bruman Map Collection.</value></Data>
      <Data name="tileTemplate"><value>https://tiles.ats.ucla.edu/tiles/NewYork_1789/{z}/{x}/{y}.png</value></Data>
      <Data name="groundOverlayTiles"><value>Source XYZ tiles included as KML GroundOverlays at the recorded minimum zoom.</value></Data>
      <Data name="rasterAvailability"><value>Original XYZ tiles, rendered here as KML GroundOverlays at the recorded minimum zoom.</value></Data>
      <Data name="exportScope"><value>Georeferenced footprint, provenance, and a source-tile raster overview at the recorded minimum zoom.</value></Data>
      </ExtendedData>
      <styleUrl>#hypercities-footprint</styleUrl>
      <Polygon><tessellate>1</tessellate><outerBoundaryIs><LinearRing><coordinates>-74.053406,40.688042,0 -73.957455,40.688042,0 -73.957455,40.763711,0 -74.053406,40.763711,0 -74.053406,40.688042,0</coordinates></LinearRing></outerBoundaryIs></Polygon>
    </Placemark>
    <GroundOverlay>
      <name>Innaguration of Gen. George Washington; &quot;Plan of the City of New York&quot; · raster tile 5/9/12</name>
      <drawOrder>1</drawOrder>
      <Icon><href>https://tiles.ats.ucla.edu/tiles/NewYork_1789/5/9/12.png</href></Icon>
      <LatLonBox>
        <north>40.979898</north>
        <south>31.952162</south>
        <east>-67.500000</east>
        <west>-78.750000</west>
      </LatLonBox>
    </GroundOverlay>

  </Document>
</kml>