<?xml version="1.0" encoding="UTF-8"?>
<kml xmlns="http://www.opengis.net/kml/2.2">
  <Document>
    <name>Map of Arkansas, Mississippi, and Louisiana</name>
    <description>Map of Arkansas, Mississippi, and Louisiana, Chicago, 1862. Map of Arkansas, Mississippi, and Louisiana (1862). HyperCities Map Library.</description>
    <Style id="hypercities-footprint">
      <LineStyle><color>ff5e6ad6</color><width>2</width></LineStyle>
      <PolyStyle><color>285e6ad6</color><fill>1</fill><outline>1</outline></PolyStyle>
    </Style>

    <Placemark>
      <name>Map of Arkansas, Mississippi, and Louisiana</name>
      <description>HyperCities Map Library footprint · Chicago · 1862</description>
      <TimeSpan><begin>1862-01-01</begin><end>1862-12-31</end></TimeSpan>
      <ExtendedData>
      <Data name="mapId"><value>map:285</value></Data>
      <Data name="place"><value>Chicago</value></Data>
      <Data name="years"><value>1862</value></Data>
      <Data name="sourceRecordId"><value>285</value></Data>
      <Data name="collection"><value></value></Data>
      <Data name="creator"><value></value></Data>
      <Data name="citation"><value>Map of Arkansas, Mississippi, and Louisiana (1862). HyperCities Map Library.</value></Data>
      <Data name="tileTemplate"><value>https://tiles.ats.ucla.edu/tiles/AR_MI_LA_1862/{z}/{x}/{y}.png</value></Data>
      <Data name="groundOverlayTiles"><value>Source XYZ tiles included as KML GroundOverlays at the recorded minimum zoom.</value></Data>
      <Data name="rasterAvailability"><value>Original XYZ tiles, rendered here as KML GroundOverlays at the recorded minimum zoom.</value></Data>
      <Data name="exportScope"><value>Georeferenced footprint, provenance, and a source-tile raster overview at the recorded minimum zoom.</value></Data>
      </ExtendedData>
      <styleUrl>#hypercities-footprint</styleUrl>
      <Polygon><tessellate>1</tessellate><outerBoundaryIs><LinearRing><coordinates>-95.121872,28.611787,0 -87.180323,28.611787,0 -87.180323,37.165564,0 -95.121872,37.165564,0 -95.121872,28.611787,0</coordinates></LinearRing></outerBoundaryIs></Polygon>
    </Placemark>
    <GroundOverlay>
      <name>Map of Arkansas, Mississippi, and Louisiana · raster tile 6/15/24</name>
      <drawOrder>1</drawOrder>
      <Icon><href>https://tiles.ats.ucla.edu/tiles/AR_MI_LA_1862/6/15/24.png</href></Icon>
      <LatLonBox>
        <north>40.979898</north>
        <south>36.597889</south>
        <east>-90.000000</east>
        <west>-95.625000</west>
      </LatLonBox>
    </GroundOverlay>
    <GroundOverlay>
      <name>Map of Arkansas, Mississippi, and Louisiana · raster tile 6/16/24</name>
      <drawOrder>1</drawOrder>
      <Icon><href>https://tiles.ats.ucla.edu/tiles/AR_MI_LA_1862/6/16/24.png</href></Icon>
      <LatLonBox>
        <north>40.979898</north>
        <south>36.597889</south>
        <east>-84.375000</east>
        <west>-90.000000</west>
      </LatLonBox>
    </GroundOverlay>
    <GroundOverlay>
      <name>Map of Arkansas, Mississippi, and Louisiana · raster tile 6/15/25</name>
      <drawOrder>1</drawOrder>
      <Icon><href>https://tiles.ats.ucla.edu/tiles/AR_MI_LA_1862/6/15/25.png</href></Icon>
      <LatLonBox>
        <north>36.597889</north>
        <south>31.952162</south>
        <east>-90.000000</east>
        <west>-95.625000</west>
      </LatLonBox>
    </GroundOverlay>
    <GroundOverlay>
      <name>Map of Arkansas, Mississippi, and Louisiana · raster tile 6/16/25</name>
      <drawOrder>1</drawOrder>
      <Icon><href>https://tiles.ats.ucla.edu/tiles/AR_MI_LA_1862/6/16/25.png</href></Icon>
      <LatLonBox>
        <north>36.597889</north>
        <south>31.952162</south>
        <east>-84.375000</east>
        <west>-90.000000</west>
      </LatLonBox>
    </GroundOverlay>
    <GroundOverlay>
      <name>Map of Arkansas, Mississippi, and Louisiana · raster tile 6/15/26</name>
      <drawOrder>1</drawOrder>
      <Icon><href>https://tiles.ats.ucla.edu/tiles/AR_MI_LA_1862/6/15/26.png</href></Icon>
      <LatLonBox>
        <north>31.952162</north>
        <south>27.059126</south>
        <east>-90.000000</east>
        <west>-95.625000</west>
      </LatLonBox>
    </GroundOverlay>
    <GroundOverlay>
      <name>Map of Arkansas, Mississippi, and Louisiana · raster tile 6/16/26</name>
      <drawOrder>1</drawOrder>
      <Icon><href>https://tiles.ats.ucla.edu/tiles/AR_MI_LA_1862/6/16/26.png</href></Icon>
      <LatLonBox>
        <north>31.952162</north>
        <south>27.059126</south>
        <east>-84.375000</east>
        <west>-90.000000</west>
      </LatLonBox>
    </GroundOverlay>

  </Document>
</kml>