<?xml version="1.0" encoding="UTF-8"?>
<kml xmlns="http://www.opengis.net/kml/2.2">
  <Document>
    <name>T-RACES: a Testbed for the Redlining Archives of California&apos;s Exclusionary Spaces</name>
    <description>T-RACES: a Testbed for the Redlining Archives of California&apos;s Exclusionary Spaces, Los Angeles, 1930–1940. T-RACES: a Testbed for the Redlining Archives of California&apos;s Exclusionary Spaces (1930–1940). HyperCities Map Library.</description>
    <Style id="hypercities-footprint">
      <LineStyle><color>ff5e6ad6</color><width>2</width></LineStyle>
      <PolyStyle><color>285e6ad6</color><fill>1</fill><outline>1</outline></PolyStyle>
    </Style>

    <Placemark>
      <name>T-RACES: a Testbed for the Redlining Archives of California&apos;s Exclusionary Spaces</name>
      <description>HyperCities Map Library footprint · Los Angeles · 1930–1940</description>
      <TimeSpan><begin>1930-01-01</begin><end>1940-12-31</end></TimeSpan>
      <ExtendedData>
      <Data name="mapId"><value>map:148</value></Data>
      <Data name="place"><value>Los Angeles</value></Data>
      <Data name="years"><value>1930–1940</value></Data>
      <Data name="sourceRecordId"><value>148</value></Data>
      <Data name="collection"><value></value></Data>
      <Data name="creator"><value>UCHRI</value></Data>
      <Data name="citation"><value>T-RACES: a Testbed for the Redlining Archives of California&apos;s Exclusionary Spaces (1930–1940). HyperCities Map Library.</value></Data>
      <Data name="tileTemplate"><value>https://tiles.ats.ucla.edu/tiles/LosAngeles/1930/Layers/{z}/{x}/{y}.png</value></Data>
      <Data name="groundOverlayTiles"><value>Source XYZ tiles included as KML GroundOverlays at the recorded minimum zoom.</value></Data>
      <Data name="rasterAvailability"><value>Original XYZ tiles, rendered here as KML GroundOverlays at the recorded minimum zoom.</value></Data>
      <Data name="exportScope"><value>Georeferenced footprint, provenance, and a source-tile raster overview at the recorded minimum zoom.</value></Data>
      </ExtendedData>
      <styleUrl>#hypercities-footprint</styleUrl>
      <Polygon><tessellate>1</tessellate><outerBoundaryIs><LinearRing><coordinates>-118.613333,33.704808,0 -117.703316,33.704808,0 -117.703316,34.303689,0 -118.613333,34.303689,0 -118.613333,33.704808,0</coordinates></LinearRing></outerBoundaryIs></Polygon>
    </Placemark>
    <GroundOverlay>
      <name>T-RACES: a Testbed for the Redlining Archives of California&apos;s Exclusionary Spaces · raster tile 6/10/25</name>
      <drawOrder>1</drawOrder>
      <Icon><href>https://tiles.ats.ucla.edu/tiles/LosAngeles/1930/Layers/6/10/25.png</href></Icon>
      <LatLonBox>
        <north>36.597889</north>
        <south>31.952162</south>
        <east>-118.125000</east>
        <west>-123.750000</west>
      </LatLonBox>
    </GroundOverlay>
    <GroundOverlay>
      <name>T-RACES: a Testbed for the Redlining Archives of California&apos;s Exclusionary Spaces · raster tile 6/11/25</name>
      <drawOrder>1</drawOrder>
      <Icon><href>https://tiles.ats.ucla.edu/tiles/LosAngeles/1930/Layers/6/11/25.png</href></Icon>
      <LatLonBox>
        <north>36.597889</north>
        <south>31.952162</south>
        <east>-112.500000</east>
        <west>-118.125000</west>
      </LatLonBox>
    </GroundOverlay>

  </Document>
</kml>