<?xml version="1.0" encoding="UTF-8"?>
<kml xmlns="http://www.opengis.net/kml/2.2">
  <Document>
    <name>State of Arizona, US Department of the Interior</name>
    <description>State of Arizona, US Department of the Interior, Kayenta, Arizona, 1934–1940. State of Arizona, US Department of the Interior (1934–1940). HyperCities Map Library. UCLA Map collections.</description>
    <Style id="hypercities-footprint">
      <LineStyle><color>ff5e6ad6</color><width>2</width></LineStyle>
      <PolyStyle><color>285e6ad6</color><fill>1</fill><outline>1</outline></PolyStyle>
    </Style>

    <Placemark>
      <name>State of Arizona, US Department of the Interior</name>
      <description>HyperCities Map Library footprint · Kayenta, Arizona · 1934–1940</description>
      <TimeSpan><begin>1934-01-01</begin><end>1940-12-31</end></TimeSpan>
      <ExtendedData>
      <Data name="mapId"><value>map:466</value></Data>
      <Data name="place"><value>Kayenta, Arizona</value></Data>
      <Data name="years"><value>1934–1940</value></Data>
      <Data name="sourceRecordId"><value>466</value></Data>
      <Data name="collection"><value>UCLA Map collections</value></Data>
      <Data name="creator"><value>T.W. Gales</value></Data>
      <Data name="citation"><value>State of Arizona, US Department of the Interior (1934–1940). HyperCities Map Library. UCLA Map collections.</value></Data>
      <Data name="tileTemplate"><value>https://tiles.ats.ucla.edu/tiles/USdeptint_1934_AZFINAL/{z}/{x}/{y}.png</value></Data>
      <Data name="groundOverlayTiles"><value>Source XYZ tiles included as KML GroundOverlays at the recorded minimum zoom.</value></Data>
      <Data name="rasterAvailability"><value>Original XYZ tiles, rendered here as KML GroundOverlays at the recorded minimum zoom.</value></Data>
      <Data name="exportScope"><value>Georeferenced footprint, provenance, and a source-tile raster overview at the recorded minimum zoom.</value></Data>
      </ExtendedData>
      <styleUrl>#hypercities-footprint</styleUrl>
      <Polygon><tessellate>1</tessellate><outerBoundaryIs><LinearRing><coordinates>-115.208394,30.902623,0 -108.540116,30.902623,0 -108.540116,37.356093,0 -115.208394,37.356093,0 -115.208394,30.902623,0</coordinates></LinearRing></outerBoundaryIs></Polygon>
    </Placemark>
    <GroundOverlay>
      <name>State of Arizona, US Department of the Interior · raster tile 6/11/24</name>
      <drawOrder>1</drawOrder>
      <Icon><href>https://tiles.ats.ucla.edu/tiles/USdeptint_1934_AZFINAL/6/11/24.png</href></Icon>
      <LatLonBox>
        <north>40.979898</north>
        <south>36.597889</south>
        <east>-112.500000</east>
        <west>-118.125000</west>
      </LatLonBox>
    </GroundOverlay>
    <GroundOverlay>
      <name>State of Arizona, US Department of the Interior · raster tile 6/12/24</name>
      <drawOrder>1</drawOrder>
      <Icon><href>https://tiles.ats.ucla.edu/tiles/USdeptint_1934_AZFINAL/6/12/24.png</href></Icon>
      <LatLonBox>
        <north>40.979898</north>
        <south>36.597889</south>
        <east>-106.875000</east>
        <west>-112.500000</west>
      </LatLonBox>
    </GroundOverlay>
    <GroundOverlay>
      <name>State of Arizona, US Department of the Interior · raster tile 6/11/25</name>
      <drawOrder>1</drawOrder>
      <Icon><href>https://tiles.ats.ucla.edu/tiles/USdeptint_1934_AZFINAL/6/11/25.png</href></Icon>
      <LatLonBox>
        <north>36.597889</north>
        <south>31.952162</south>
        <east>-112.500000</east>
        <west>-118.125000</west>
      </LatLonBox>
    </GroundOverlay>
    <GroundOverlay>
      <name>State of Arizona, US Department of the Interior · raster tile 6/12/25</name>
      <drawOrder>1</drawOrder>
      <Icon><href>https://tiles.ats.ucla.edu/tiles/USdeptint_1934_AZFINAL/6/12/25.png</href></Icon>
      <LatLonBox>
        <north>36.597889</north>
        <south>31.952162</south>
        <east>-106.875000</east>
        <west>-112.500000</west>
      </LatLonBox>
    </GroundOverlay>
    <GroundOverlay>
      <name>State of Arizona, US Department of the Interior · raster tile 6/11/26</name>
      <drawOrder>1</drawOrder>
      <Icon><href>https://tiles.ats.ucla.edu/tiles/USdeptint_1934_AZFINAL/6/11/26.png</href></Icon>
      <LatLonBox>
        <north>31.952162</north>
        <south>27.059126</south>
        <east>-112.500000</east>
        <west>-118.125000</west>
      </LatLonBox>
    </GroundOverlay>
    <GroundOverlay>
      <name>State of Arizona, US Department of the Interior · raster tile 6/12/26</name>
      <drawOrder>1</drawOrder>
      <Icon><href>https://tiles.ats.ucla.edu/tiles/USdeptint_1934_AZFINAL/6/12/26.png</href></Icon>
      <LatLonBox>
        <north>31.952162</north>
        <south>27.059126</south>
        <east>-106.875000</east>
        <west>-112.500000</west>
      </LatLonBox>
    </GroundOverlay>

  </Document>
</kml>