<?xml version="1.0" encoding="UTF-8"?>
<kml xmlns="http://www.opengis.net/kml/2.2">
  <Document>
    <name>Miami Marti</name>
    <description>Miami Marti, Miami, 1951. Miami Marti (1951). HyperCities Map Library.</description>
    <Style id="hypercities-footprint">
      <LineStyle><color>ff5e6ad6</color><width>2</width></LineStyle>
      <PolyStyle><color>285e6ad6</color><fill>1</fill><outline>1</outline></PolyStyle>
    </Style>

    <Placemark>
      <name>Miami Marti</name>
      <description>HyperCities Map Library footprint · Miami · 1951</description>
      <TimeSpan><begin>1951-01-01</begin><end>1951-12-31</end></TimeSpan>
      <ExtendedData>
      <Data name="mapId"><value>map:415</value></Data>
      <Data name="place"><value>Miami</value></Data>
      <Data name="years"><value>1951</value></Data>
      <Data name="sourceRecordId"><value>415</value></Data>
      <Data name="collection"><value></value></Data>
      <Data name="creator"><value></value></Data>
      <Data name="citation"><value>Miami Marti (1951). HyperCities Map Library.</value></Data>
      <Data name="tileTemplate"><value>https://tiles.ats.ucla.edu/tiles/1951_Miami_Marti/{z}/{x}/{y}.png</value></Data>
      <Data name="groundOverlayTiles"><value>Source XYZ tiles included as KML GroundOverlays at the recorded minimum zoom.</value></Data>
      <Data name="rasterAvailability"><value>Original XYZ tiles, rendered here as KML GroundOverlays at the recorded minimum zoom.</value></Data>
      <Data name="exportScope"><value>Georeferenced footprint, provenance, and a source-tile raster overview at the recorded minimum zoom.</value></Data>
      </ExtendedData>
      <styleUrl>#hypercities-footprint</styleUrl>
      <Polygon><tessellate>1</tessellate><outerBoundaryIs><LinearRing><coordinates>-80.212468,25.76669,0 -80.204757,25.76669,0 -80.204757,25.774838,0 -80.212468,25.774838,0 -80.212468,25.76669,0</coordinates></LinearRing></outerBoundaryIs></Polygon>
    </Placemark>
    <GroundOverlay>
      <name>Miami Marti · raster tile 16/18165/27909</name>
      <drawOrder>1</drawOrder>
      <Icon><href>https://tiles.ats.ucla.edu/tiles/1951_Miami_Marti/16/18165/27909.png</href></Icon>
      <LatLonBox>
        <north>25.775161</north>
        <south>25.770214</south>
        <east>-80.211182</east>
        <west>-80.216675</west>
      </LatLonBox>
    </GroundOverlay>
    <GroundOverlay>
      <name>Miami Marti · raster tile 16/18166/27909</name>
      <drawOrder>1</drawOrder>
      <Icon><href>https://tiles.ats.ucla.edu/tiles/1951_Miami_Marti/16/18166/27909.png</href></Icon>
      <LatLonBox>
        <north>25.775161</north>
        <south>25.770214</south>
        <east>-80.205688</east>
        <west>-80.211182</west>
      </LatLonBox>
    </GroundOverlay>
    <GroundOverlay>
      <name>Miami Marti · raster tile 16/18167/27909</name>
      <drawOrder>1</drawOrder>
      <Icon><href>https://tiles.ats.ucla.edu/tiles/1951_Miami_Marti/16/18167/27909.png</href></Icon>
      <LatLonBox>
        <north>25.775161</north>
        <south>25.770214</south>
        <east>-80.200195</east>
        <west>-80.205688</west>
      </LatLonBox>
    </GroundOverlay>
    <GroundOverlay>
      <name>Miami Marti · raster tile 16/18165/27910</name>
      <drawOrder>1</drawOrder>
      <Icon><href>https://tiles.ats.ucla.edu/tiles/1951_Miami_Marti/16/18165/27910.png</href></Icon>
      <LatLonBox>
        <north>25.770214</north>
        <south>25.765267</south>
        <east>-80.211182</east>
        <west>-80.216675</west>
      </LatLonBox>
    </GroundOverlay>
    <GroundOverlay>
      <name>Miami Marti · raster tile 16/18166/27910</name>
      <drawOrder>1</drawOrder>
      <Icon><href>https://tiles.ats.ucla.edu/tiles/1951_Miami_Marti/16/18166/27910.png</href></Icon>
      <LatLonBox>
        <north>25.770214</north>
        <south>25.765267</south>
        <east>-80.205688</east>
        <west>-80.211182</west>
      </LatLonBox>
    </GroundOverlay>
    <GroundOverlay>
      <name>Miami Marti · raster tile 16/18167/27910</name>
      <drawOrder>1</drawOrder>
      <Icon><href>https://tiles.ats.ucla.edu/tiles/1951_Miami_Marti/16/18167/27910.png</href></Icon>
      <LatLonBox>
        <north>25.770214</north>
        <south>25.765267</south>
        <east>-80.200195</east>
        <west>-80.205688</west>
      </LatLonBox>
    </GroundOverlay>

  </Document>
</kml>