<?xml version="1.0" encoding="UTF-8"?>
<kml xmlns="http://www.opengis.net/kml/2.2">
  <Document>
    <name>Los Angeles Street Map</name>
    <description>Los Angeles Street Map, Los Angeles, 1967. Los Angeles Street Map (1967). HyperCities Map Library. UCLA Bruman Map Collection.</description>
    <Style id="hypercities-footprint">
      <LineStyle><color>ff5e6ad6</color><width>2</width></LineStyle>
      <PolyStyle><color>285e6ad6</color><fill>1</fill><outline>1</outline></PolyStyle>
    </Style>

    <Placemark>
      <name>Los Angeles Street Map</name>
      <description>HyperCities Map Library footprint · Los Angeles · 1967</description>
      <TimeSpan><begin>1967-01-01</begin><end>1967-12-31</end></TimeSpan>
      <ExtendedData>
      <Data name="mapId"><value>map:66</value></Data>
      <Data name="place"><value>Los Angeles</value></Data>
      <Data name="years"><value>1967</value></Data>
      <Data name="sourceRecordId"><value>66</value></Data>
      <Data name="collection"><value>UCLA Bruman Map Collection</value></Data>
      <Data name="creator"><value>Rand McNall &amp; Co.</value></Data>
      <Data name="citation"><value>Los Angeles Street Map (1967). HyperCities Map Library. UCLA Bruman Map Collection.</value></Data>
      <Data name="tileTemplate"><value>https://tiles.ats.ucla.edu/tiles/Los_Angeles_1967/{z}/{x}/{y}.png</value></Data>
      <Data name="groundOverlayTiles"><value>Source XYZ tiles included as KML GroundOverlays at the recorded minimum zoom.</value></Data>
      <Data name="rasterAvailability"><value>Original XYZ tiles, rendered here as KML GroundOverlays at the recorded minimum zoom.</value></Data>
      <Data name="exportScope"><value>Georeferenced footprint, provenance, and a source-tile raster overview at the recorded minimum zoom.</value></Data>
      </ExtendedData>
      <styleUrl>#hypercities-footprint</styleUrl>
      <Polygon><tessellate>1</tessellate><outerBoundaryIs><LinearRing><coordinates>-118.530213,33.919456,0 -117.951004,33.919456,0 -117.951004,34.261258,0 -118.530213,34.261258,0 -118.530213,33.919456,0</coordinates></LinearRing></outerBoundaryIs></Polygon>
    </Placemark>
    <GroundOverlay>
      <name>Los Angeles Street Map · raster tile 10/174/408</name>
      <drawOrder>1</drawOrder>
      <Icon><href>https://tiles.ats.ucla.edu/tiles/Los_Angeles_1967/10/174/408.png</href></Icon>
      <LatLonBox>
        <north>34.307144</north>
        <south>34.016242</south>
        <east>-118.476563</east>
        <west>-118.828125</west>
      </LatLonBox>
    </GroundOverlay>
    <GroundOverlay>
      <name>Los Angeles Street Map · raster tile 10/175/408</name>
      <drawOrder>1</drawOrder>
      <Icon><href>https://tiles.ats.ucla.edu/tiles/Los_Angeles_1967/10/175/408.png</href></Icon>
      <LatLonBox>
        <north>34.307144</north>
        <south>34.016242</south>
        <east>-118.125000</east>
        <west>-118.476563</west>
      </LatLonBox>
    </GroundOverlay>
    <GroundOverlay>
      <name>Los Angeles Street Map · raster tile 10/176/408</name>
      <drawOrder>1</drawOrder>
      <Icon><href>https://tiles.ats.ucla.edu/tiles/Los_Angeles_1967/10/176/408.png</href></Icon>
      <LatLonBox>
        <north>34.307144</north>
        <south>34.016242</south>
        <east>-117.773438</east>
        <west>-118.125000</west>
      </LatLonBox>
    </GroundOverlay>
    <GroundOverlay>
      <name>Los Angeles Street Map · raster tile 10/174/409</name>
      <drawOrder>1</drawOrder>
      <Icon><href>https://tiles.ats.ucla.edu/tiles/Los_Angeles_1967/10/174/409.png</href></Icon>
      <LatLonBox>
        <north>34.016242</north>
        <south>33.724340</south>
        <east>-118.476563</east>
        <west>-118.828125</west>
      </LatLonBox>
    </GroundOverlay>
    <GroundOverlay>
      <name>Los Angeles Street Map · raster tile 10/175/409</name>
      <drawOrder>1</drawOrder>
      <Icon><href>https://tiles.ats.ucla.edu/tiles/Los_Angeles_1967/10/175/409.png</href></Icon>
      <LatLonBox>
        <north>34.016242</north>
        <south>33.724340</south>
        <east>-118.125000</east>
        <west>-118.476563</west>
      </LatLonBox>
    </GroundOverlay>
    <GroundOverlay>
      <name>Los Angeles Street Map · raster tile 10/176/409</name>
      <drawOrder>1</drawOrder>
      <Icon><href>https://tiles.ats.ucla.edu/tiles/Los_Angeles_1967/10/176/409.png</href></Icon>
      <LatLonBox>
        <north>34.016242</north>
        <south>33.724340</south>
        <east>-117.773438</east>
        <west>-118.125000</west>
      </LatLonBox>
    </GroundOverlay>

  </Document>
</kml>