<?xml version="1.0" encoding="UTF-8"?>
<kml xmlns="http://www.opengis.net/kml/2.2">
  <Document>
    <name>Elmwood Park Structural Survey</name>
    <description>Elmwood Park Structural Survey, Chicago, 1962. Elmwood Park Structural Survey (1962). HyperCities Map Library.</description>
    <Style id="hypercities-footprint">
      <LineStyle><color>ff5e6ad6</color><width>2</width></LineStyle>
      <PolyStyle><color>285e6ad6</color><fill>1</fill><outline>1</outline></PolyStyle>
    </Style>

    <Placemark>
      <name>Elmwood Park Structural Survey</name>
      <description>HyperCities Map Library footprint · Chicago · 1962</description>
      <TimeSpan><begin>1962-01-01</begin><end>1962-12-31</end></TimeSpan>
      <ExtendedData>
      <Data name="mapId"><value>map:339</value></Data>
      <Data name="place"><value>Chicago</value></Data>
      <Data name="years"><value>1962</value></Data>
      <Data name="sourceRecordId"><value>339</value></Data>
      <Data name="collection"><value></value></Data>
      <Data name="creator"><value></value></Data>
      <Data name="citation"><value>Elmwood Park Structural Survey (1962). HyperCities Map Library.</value></Data>
      <Data name="tileTemplate"><value>https://tiles.ats.ucla.edu/tiles/Elmwood_Structural_Survey/{z}/{x}/{y}.png</value></Data>
      <Data name="groundOverlayTiles"><value>Source XYZ tiles included as KML GroundOverlays at the recorded minimum zoom.</value></Data>
      <Data name="rasterAvailability"><value>Original XYZ tiles, rendered here as KML GroundOverlays at the recorded minimum zoom.</value></Data>
      <Data name="exportScope"><value>Georeferenced footprint, provenance, and a source-tile raster overview at the recorded minimum zoom.</value></Data>
      </ExtendedData>
      <styleUrl>#hypercities-footprint</styleUrl>
      <Polygon><tessellate>1</tessellate><outerBoundaryIs><LinearRing><coordinates>-90.388736,38.680086,0 -90.371107,38.680086,0 -90.371107,38.689597,0 -90.388736,38.689597,0 -90.388736,38.680086,0</coordinates></LinearRing></outerBoundaryIs></Polygon>
    </Placemark>
    <GroundOverlay>
      <name>Elmwood Park Structural Survey · raster tile 14/4078/6279</name>
      <drawOrder>1</drawOrder>
      <Icon><href>https://tiles.ats.ucla.edu/tiles/Elmwood_Structural_Survey/14/4078/6279.png</href></Icon>
      <LatLonBox>
        <north>38.702659</north>
        <south>38.685510</south>
        <east>-90.373535</east>
        <west>-90.395508</west>
      </LatLonBox>
    </GroundOverlay>
    <GroundOverlay>
      <name>Elmwood Park Structural Survey · raster tile 14/4079/6279</name>
      <drawOrder>1</drawOrder>
      <Icon><href>https://tiles.ats.ucla.edu/tiles/Elmwood_Structural_Survey/14/4079/6279.png</href></Icon>
      <LatLonBox>
        <north>38.702659</north>
        <south>38.685510</south>
        <east>-90.351563</east>
        <west>-90.373535</west>
      </LatLonBox>
    </GroundOverlay>
    <GroundOverlay>
      <name>Elmwood Park Structural Survey · raster tile 14/4078/6280</name>
      <drawOrder>1</drawOrder>
      <Icon><href>https://tiles.ats.ucla.edu/tiles/Elmwood_Structural_Survey/14/4078/6280.png</href></Icon>
      <LatLonBox>
        <north>38.685510</north>
        <south>38.668356</south>
        <east>-90.373535</east>
        <west>-90.395508</west>
      </LatLonBox>
    </GroundOverlay>
    <GroundOverlay>
      <name>Elmwood Park Structural Survey · raster tile 14/4079/6280</name>
      <drawOrder>1</drawOrder>
      <Icon><href>https://tiles.ats.ucla.edu/tiles/Elmwood_Structural_Survey/14/4079/6280.png</href></Icon>
      <LatLonBox>
        <north>38.685510</north>
        <south>38.668356</south>
        <east>-90.351563</east>
        <west>-90.373535</west>
      </LatLonBox>
    </GroundOverlay>

  </Document>
</kml>