<?xml version="1.0" encoding="UTF-8"?>
<kml xmlns="http://www.opengis.net/kml/2.2">
  <Document>
    <name>Biombo Conquista XVII</name>
    <description>Biombo Conquista XVII, Mexico City, 1697. Biombo Conquista XVII (1697). HyperCities Map Library.</description>
    <Style id="hypercities-footprint">
      <LineStyle><color>ff5e6ad6</color><width>2</width></LineStyle>
      <PolyStyle><color>285e6ad6</color><fill>1</fill><outline>1</outline></PolyStyle>
    </Style>

    <Placemark>
      <name>Biombo Conquista XVII</name>
      <description>HyperCities Map Library footprint · Mexico City · 1697</description>
      <TimeSpan><begin>1697-01-01</begin><end>1697-12-31</end></TimeSpan>
      <ExtendedData>
      <Data name="mapId"><value>map:254</value></Data>
      <Data name="place"><value>Mexico City</value></Data>
      <Data name="years"><value>1697</value></Data>
      <Data name="sourceRecordId"><value>254</value></Data>
      <Data name="collection"><value></value></Data>
      <Data name="creator"><value></value></Data>
      <Data name="citation"><value>Biombo Conquista XVII (1697). HyperCities Map Library.</value></Data>
      <Data name="tileTemplate"><value>https://tiles.ats.ucla.edu/tiles/Mexico_City_Biombo_Conquista_XVII/{z}/{x}/{y}.png</value></Data>
      <Data name="groundOverlayTiles"><value>Source XYZ tiles included as KML GroundOverlays at the recorded minimum zoom.</value></Data>
      <Data name="rasterAvailability"><value>Original XYZ tiles, rendered here as KML GroundOverlays at the recorded minimum zoom.</value></Data>
      <Data name="exportScope"><value>Georeferenced footprint, provenance, and a source-tile raster overview at the recorded minimum zoom.</value></Data>
      </ExtendedData>
      <styleUrl>#hypercities-footprint</styleUrl>
      <Polygon><tessellate>1</tessellate><outerBoundaryIs><LinearRing><coordinates>-99.296475,19.350397,0 -98.998536,19.350397,0 -98.998536,19.464912,0 -99.296475,19.464912,0 -99.296475,19.350397,0</coordinates></LinearRing></outerBoundaryIs></Polygon>
    </Placemark>
    <GroundOverlay>
      <name>Biombo Conquista XVII · raster tile 10/229/455</name>
      <drawOrder>1</drawOrder>
      <Icon><href>https://tiles.ats.ucla.edu/tiles/Mexico_City_Biombo_Conquista_XVII/10/229/455.png</href></Icon>
      <LatLonBox>
        <north>19.642588</north>
        <south>19.311143</south>
        <east>-99.140625</east>
        <west>-99.492188</west>
      </LatLonBox>
    </GroundOverlay>
    <GroundOverlay>
      <name>Biombo Conquista XVII · raster tile 10/230/455</name>
      <drawOrder>1</drawOrder>
      <Icon><href>https://tiles.ats.ucla.edu/tiles/Mexico_City_Biombo_Conquista_XVII/10/230/455.png</href></Icon>
      <LatLonBox>
        <north>19.642588</north>
        <south>19.311143</south>
        <east>-98.789063</east>
        <west>-99.140625</west>
      </LatLonBox>
    </GroundOverlay>

  </Document>
</kml>