<?xml version="1.0" encoding="UTF-8"?>
<kml xmlns="http://www.opengis.net/kml/2.2">
  <Document>
    <name>Official Street Numbering Scheme</name>
    <description>Official Street Numbering Scheme, Edmonton, 1913. Official Street Numbering Scheme (1913). HyperCities Map Library. City of Edmonton Archives.</description>
    <Style id="hypercities-footprint">
      <LineStyle><color>ff5e6ad6</color><width>2</width></LineStyle>
      <PolyStyle><color>285e6ad6</color><fill>1</fill><outline>1</outline></PolyStyle>
    </Style>

    <Placemark>
      <name>Official Street Numbering Scheme</name>
      <description>HyperCities Map Library footprint · Edmonton · 1913</description>
      <TimeSpan><begin>1913-01-01</begin><end>1913-12-31</end></TimeSpan>
      <ExtendedData>
      <Data name="mapId"><value>map:283</value></Data>
      <Data name="place"><value>Edmonton</value></Data>
      <Data name="years"><value>1913</value></Data>
      <Data name="sourceRecordId"><value>283</value></Data>
      <Data name="collection"><value>City of Edmonton Archives</value></Data>
      <Data name="creator"><value></value></Data>
      <Data name="citation"><value>Official Street Numbering Scheme (1913). HyperCities Map Library. City of Edmonton Archives.</value></Data>
      <Data name="tileTemplate"><value>https://tiles.ats.ucla.edu/tiles/EAM_73_source/{z}/{x}/{y}.png</value></Data>
      <Data name="groundOverlayTiles"><value>Source XYZ tiles included as KML GroundOverlays at the recorded minimum zoom.</value></Data>
      <Data name="rasterAvailability"><value>Original XYZ tiles, rendered here as KML GroundOverlays at the recorded minimum zoom.</value></Data>
      <Data name="exportScope"><value>Georeferenced footprint, provenance, and a source-tile raster overview at the recorded minimum zoom.</value></Data>
      </ExtendedData>
      <styleUrl>#hypercities-footprint</styleUrl>
      <Polygon><tessellate>1</tessellate><outerBoundaryIs><LinearRing><coordinates>-113.591109,53.495742,0 -113.40724,53.495742,0 -113.40724,53.606569,0 -113.591109,53.606569,0 -113.591109,53.495742,0</coordinates></LinearRing></outerBoundaryIs></Polygon>
    </Placemark>
    <GroundOverlay>
      <name>Official Street Numbering Scheme · raster tile 11/377/661</name>
      <drawOrder>1</drawOrder>
      <Icon><href>https://tiles.ats.ucla.edu/tiles/EAM_73_source/11/377/661.png</href></Icon>
      <LatLonBox>
        <north>53.644638</north>
        <south>53.540307</south>
        <east>-113.554688</east>
        <west>-113.730469</west>
      </LatLonBox>
    </GroundOverlay>
    <GroundOverlay>
      <name>Official Street Numbering Scheme · raster tile 11/378/661</name>
      <drawOrder>1</drawOrder>
      <Icon><href>https://tiles.ats.ucla.edu/tiles/EAM_73_source/11/378/661.png</href></Icon>
      <LatLonBox>
        <north>53.644638</north>
        <south>53.540307</south>
        <east>-113.378906</east>
        <west>-113.554688</west>
      </LatLonBox>
    </GroundOverlay>
    <GroundOverlay>
      <name>Official Street Numbering Scheme · raster tile 11/377/662</name>
      <drawOrder>1</drawOrder>
      <Icon><href>https://tiles.ats.ucla.edu/tiles/EAM_73_source/11/377/662.png</href></Icon>
      <LatLonBox>
        <north>53.540307</north>
        <south>53.435719</south>
        <east>-113.554688</east>
        <west>-113.730469</west>
      </LatLonBox>
    </GroundOverlay>
    <GroundOverlay>
      <name>Official Street Numbering Scheme · raster tile 11/378/662</name>
      <drawOrder>1</drawOrder>
      <Icon><href>https://tiles.ats.ucla.edu/tiles/EAM_73_source/11/378/662.png</href></Icon>
      <LatLonBox>
        <north>53.540307</north>
        <south>53.435719</south>
        <east>-113.378906</east>
        <west>-113.554688</west>
      </LatLonBox>
    </GroundOverlay>

  </Document>
</kml>