<?xml version="1.0" encoding="UTF-8"?>
<kml xmlns="http://www.opengis.net/kml/2.2">
  <Document>
    <name>Dhlamini</name>
    <description>Dhlamini, Soweto-Johannesburg, 1955. Dhlamini (1955). HyperCities Map Library.</description>
    <Style id="hypercities-footprint">
      <LineStyle><color>ff5e6ad6</color><width>2</width></LineStyle>
      <PolyStyle><color>285e6ad6</color><fill>1</fill><outline>1</outline></PolyStyle>
    </Style>

    <Placemark>
      <name>Dhlamini</name>
      <description>HyperCities Map Library footprint · Soweto-Johannesburg · 1955</description>
      <TimeSpan><begin>1955-01-01</begin><end>1955-12-31</end></TimeSpan>
      <ExtendedData>
      <Data name="mapId"><value>map:413</value></Data>
      <Data name="place"><value>Soweto-Johannesburg</value></Data>
      <Data name="years"><value>1955</value></Data>
      <Data name="sourceRecordId"><value>413</value></Data>
      <Data name="collection"><value></value></Data>
      <Data name="creator"><value></value></Data>
      <Data name="citation"><value>Dhlamini (1955). HyperCities Map Library.</value></Data>
      <Data name="tileTemplate"><value>https://tiles.ats.ucla.edu/tiles/Dhlamini_1955/{z}/{x}/{y}.png</value></Data>
      <Data name="groundOverlayTiles"><value>Source XYZ tiles included as KML GroundOverlays at the recorded minimum zoom.</value></Data>
      <Data name="rasterAvailability"><value>Original XYZ tiles, rendered here as KML GroundOverlays at the recorded minimum zoom.</value></Data>
      <Data name="exportScope"><value>Georeferenced footprint, provenance, and a source-tile raster overview at the recorded minimum zoom.</value></Data>
      </ExtendedData>
      <styleUrl>#hypercities-footprint</styleUrl>
      <Polygon><tessellate>1</tessellate><outerBoundaryIs><LinearRing><coordinates>27.861837,-26.286837,0 27.886685,-26.286837,0 27.886685,-26.263428,0 27.861837,-26.263428,0 27.861837,-26.286837,0</coordinates></LinearRing></outerBoundaryIs></Polygon>
    </Placemark>
    <GroundOverlay>
      <name>Dhlamini · raster tile 14/9460/9431</name>
      <drawOrder>1</drawOrder>
      <Icon><href>https://tiles.ats.ucla.edu/tiles/Dhlamini_1955/14/9460/9431.png</href></Icon>
      <LatLonBox>
        <north>-26.254010</north>
        <south>-26.273714</south>
        <east>27.883301</east>
        <west>27.861328</west>
      </LatLonBox>
    </GroundOverlay>
    <GroundOverlay>
      <name>Dhlamini · raster tile 14/9461/9431</name>
      <drawOrder>1</drawOrder>
      <Icon><href>https://tiles.ats.ucla.edu/tiles/Dhlamini_1955/14/9461/9431.png</href></Icon>
      <LatLonBox>
        <north>-26.254010</north>
        <south>-26.273714</south>
        <east>27.905273</east>
        <west>27.883301</west>
      </LatLonBox>
    </GroundOverlay>
    <GroundOverlay>
      <name>Dhlamini · raster tile 14/9460/9432</name>
      <drawOrder>1</drawOrder>
      <Icon><href>https://tiles.ats.ucla.edu/tiles/Dhlamini_1955/14/9460/9432.png</href></Icon>
      <LatLonBox>
        <north>-26.273714</north>
        <south>-26.293415</south>
        <east>27.883301</east>
        <west>27.861328</west>
      </LatLonBox>
    </GroundOverlay>
    <GroundOverlay>
      <name>Dhlamini · raster tile 14/9461/9432</name>
      <drawOrder>1</drawOrder>
      <Icon><href>https://tiles.ats.ucla.edu/tiles/Dhlamini_1955/14/9461/9432.png</href></Icon>
      <LatLonBox>
        <north>-26.273714</north>
        <south>-26.293415</south>
        <east>27.905273</east>
        <west>27.883301</west>
      </LatLonBox>
    </GroundOverlay>

  </Document>
</kml>