<?xml version="1.0" encoding="UTF-8"?>
<kml xmlns="http://www.opengis.net/kml/2.2">
  <Document>
    <name>City Map of Berlin: Capital of the GDR</name>
    <description>City Map of Berlin: Capital of the GDR, Berlin, 1986. City Map of Berlin: Capital of the GDR (1986). HyperCities Map Library. Wende Museum and Archive, Culver City.</description>
    <Style id="hypercities-footprint">
      <LineStyle><color>ff5e6ad6</color><width>2</width></LineStyle>
      <PolyStyle><color>285e6ad6</color><fill>1</fill><outline>1</outline></PolyStyle>
    </Style>

    <Placemark>
      <name>City Map of Berlin: Capital of the GDR</name>
      <description>HyperCities Map Library footprint · Berlin · 1986</description>
      <TimeSpan><begin>1986-01-01</begin><end>1986-12-31</end></TimeSpan>
      <ExtendedData>
      <Data name="mapId"><value>map:38</value></Data>
      <Data name="place"><value>Berlin</value></Data>
      <Data name="years"><value>1986</value></Data>
      <Data name="sourceRecordId"><value>38</value></Data>
      <Data name="collection"><value>Wende Museum and Archive, Culver City</value></Data>
      <Data name="creator"><value></value></Data>
      <Data name="citation"><value>City Map of Berlin: Capital of the GDR (1986). HyperCities Map Library. Wende Museum and Archive, Culver City.</value></Data>
      <Data name="tileTemplate"><value>https://tiles.ats.ucla.edu/tiles/Berlin_1986/{z}/{x}/{y}.png</value></Data>
      <Data name="groundOverlayTiles"><value>Source XYZ tiles included as KML GroundOverlays at the recorded minimum zoom.</value></Data>
      <Data name="rasterAvailability"><value>Original XYZ tiles, rendered here as KML GroundOverlays at the recorded minimum zoom.</value></Data>
      <Data name="exportScope"><value>Georeferenced footprint, provenance, and a source-tile raster overview at the recorded minimum zoom.</value></Data>
      </ExtendedData>
      <styleUrl>#hypercities-footprint</styleUrl>
      <Polygon><tessellate>1</tessellate><outerBoundaryIs><LinearRing><coordinates>13.34102,52.336523,0 13.719137,52.336523,0 13.719137,52.647767,0 13.34102,52.647767,0 13.34102,52.336523,0</coordinates></LinearRing></outerBoundaryIs></Polygon>
    </Placemark>
    <GroundOverlay>
      <name>City Map of Berlin: Capital of the GDR · raster tile 10/549/335</name>
      <drawOrder>1</drawOrder>
      <Icon><href>https://tiles.ats.ucla.edu/tiles/Berlin_1986/10/549/335.png</href></Icon>
      <LatLonBox>
        <north>52.696361</north>
        <south>52.482780</south>
        <east>13.359375</east>
        <west>13.007813</west>
      </LatLonBox>
    </GroundOverlay>
    <GroundOverlay>
      <name>City Map of Berlin: Capital of the GDR · raster tile 10/550/335</name>
      <drawOrder>1</drawOrder>
      <Icon><href>https://tiles.ats.ucla.edu/tiles/Berlin_1986/10/550/335.png</href></Icon>
      <LatLonBox>
        <north>52.696361</north>
        <south>52.482780</south>
        <east>13.710938</east>
        <west>13.359375</west>
      </LatLonBox>
    </GroundOverlay>
    <GroundOverlay>
      <name>City Map of Berlin: Capital of the GDR · raster tile 10/551/335</name>
      <drawOrder>1</drawOrder>
      <Icon><href>https://tiles.ats.ucla.edu/tiles/Berlin_1986/10/551/335.png</href></Icon>
      <LatLonBox>
        <north>52.696361</north>
        <south>52.482780</south>
        <east>14.062500</east>
        <west>13.710938</west>
      </LatLonBox>
    </GroundOverlay>
    <GroundOverlay>
      <name>City Map of Berlin: Capital of the GDR · raster tile 10/549/336</name>
      <drawOrder>1</drawOrder>
      <Icon><href>https://tiles.ats.ucla.edu/tiles/Berlin_1986/10/549/336.png</href></Icon>
      <LatLonBox>
        <north>52.482780</north>
        <south>52.268157</south>
        <east>13.359375</east>
        <west>13.007813</west>
      </LatLonBox>
    </GroundOverlay>
    <GroundOverlay>
      <name>City Map of Berlin: Capital of the GDR · raster tile 10/550/336</name>
      <drawOrder>1</drawOrder>
      <Icon><href>https://tiles.ats.ucla.edu/tiles/Berlin_1986/10/550/336.png</href></Icon>
      <LatLonBox>
        <north>52.482780</north>
        <south>52.268157</south>
        <east>13.710938</east>
        <west>13.359375</west>
      </LatLonBox>
    </GroundOverlay>
    <GroundOverlay>
      <name>City Map of Berlin: Capital of the GDR · raster tile 10/551/336</name>
      <drawOrder>1</drawOrder>
      <Icon><href>https://tiles.ats.ucla.edu/tiles/Berlin_1986/10/551/336.png</href></Icon>
      <LatLonBox>
        <north>52.482780</north>
        <south>52.268157</south>
        <east>14.062500</east>
        <west>13.710938</west>
      </LatLonBox>
    </GroundOverlay>

  </Document>
</kml>