<?xml version="1.0" encoding="UTF-8"?>
<kml xmlns="http://www.opengis.net/kml/2.2">
  <Document>
    <name>Chicago Community Areas</name>
    <description>Chicago Community Areas, Chicago, 1980–2010. Chicago Community Areas (1980–2010). HyperCities Map Library.</description>
    <Style id="hypercities-footprint">
      <LineStyle><color>ff5e6ad6</color><width>2</width></LineStyle>
      <PolyStyle><color>285e6ad6</color><fill>1</fill><outline>1</outline></PolyStyle>
    </Style>

    <Placemark>
      <name>Chicago Community Areas</name>
      <description>HyperCities Map Library footprint · Chicago · 1980–2010</description>
      <TimeSpan><begin>1980-01-01</begin><end>2010-12-31</end></TimeSpan>
      <ExtendedData>
      <Data name="mapId"><value>map:149</value></Data>
      <Data name="place"><value>Chicago</value></Data>
      <Data name="years"><value>1980–2010</value></Data>
      <Data name="sourceRecordId"><value>149</value></Data>
      <Data name="collection"><value></value></Data>
      <Data name="creator"><value>Map Collection, University of Chicago Library</value></Data>
      <Data name="citation"><value>Chicago Community Areas (1980–2010). HyperCities Map Library.</value></Data>
      <Data name="tileTemplate"><value>https://tiles.ats.ucla.edu/tiles/Chicago/CommunityAreas/Layers/{z}/{x}/{y}.png</value></Data>
      <Data name="groundOverlayTiles"><value>Source XYZ tiles included as KML GroundOverlays at the recorded minimum zoom.</value></Data>
      <Data name="rasterAvailability"><value>Original XYZ tiles, rendered here as KML GroundOverlays at the recorded minimum zoom.</value></Data>
      <Data name="exportScope"><value>Georeferenced footprint, provenance, and a source-tile raster overview at the recorded minimum zoom.</value></Data>
      </ExtendedData>
      <styleUrl>#hypercities-footprint</styleUrl>
      <Polygon><tessellate>1</tessellate><outerBoundaryIs><LinearRing><coordinates>-87.94019,41.644299,0 -87.524002,41.644299,0 -87.524002,42.023098,0 -87.94019,42.023098,0 -87.94019,41.644299,0</coordinates></LinearRing></outerBoundaryIs></Polygon>
    </Placemark>
    <GroundOverlay>
      <name>Chicago Community Areas · raster tile 6/16/23</name>
      <drawOrder>1</drawOrder>
      <Icon><href>https://tiles.ats.ucla.edu/tiles/Chicago/CommunityAreas/Layers/6/16/23.png</href></Icon>
      <LatLonBox>
        <north>45.089036</north>
        <south>40.979898</south>
        <east>-84.375000</east>
        <west>-90.000000</west>
      </LatLonBox>
    </GroundOverlay>

  </Document>
</kml>