<?xml version="1.0" encoding="UTF-8"?>
<kml xmlns="http://www.opengis.net/kml/2.2">
  <Document>
    <name>Downtown Los Angeles</name>
    <description>Downtown Los Angeles, Los Angeles, 1987. Downtown Los Angeles (1987). HyperCities Map Library. UCLA Bruman Map Collection.</description>
    <Style id="hypercities-footprint">
      <LineStyle><color>ff5e6ad6</color><width>2</width></LineStyle>
      <PolyStyle><color>285e6ad6</color><fill>1</fill><outline>1</outline></PolyStyle>
    </Style>

    <Placemark>
      <name>Downtown Los Angeles</name>
      <description>HyperCities Map Library footprint · Los Angeles · 1987</description>
      <TimeSpan><begin>1987-01-01</begin><end>1987-12-31</end></TimeSpan>
      <ExtendedData>
      <Data name="mapId"><value>map:62</value></Data>
      <Data name="place"><value>Los Angeles</value></Data>
      <Data name="years"><value>1987</value></Data>
      <Data name="sourceRecordId"><value>62</value></Data>
      <Data name="collection"><value>UCLA Bruman Map Collection</value></Data>
      <Data name="creator"><value>Automobile Club of Southern California; Selwyn Douglas</value></Data>
      <Data name="citation"><value>Downtown Los Angeles (1987). HyperCities Map Library. UCLA Bruman Map Collection.</value></Data>
      <Data name="tileTemplate"><value>https://tiles.ats.ucla.edu/tiles/Los_Angeles_1987/{z}/{x}/{y}.png</value></Data>
      <Data name="groundOverlayTiles"><value>Source XYZ tiles included as KML GroundOverlays at the recorded minimum zoom.</value></Data>
      <Data name="rasterAvailability"><value>Original XYZ tiles, rendered here as KML GroundOverlays at the recorded minimum zoom.</value></Data>
      <Data name="exportScope"><value>Georeferenced footprint, provenance, and a source-tile raster overview at the recorded minimum zoom.</value></Data>
      </ExtendedData>
      <styleUrl>#hypercities-footprint</styleUrl>
      <Polygon><tessellate>1</tessellate><outerBoundaryIs><LinearRing><coordinates>-118.318306,33.995996,0 -118.212141,33.995996,0 -118.212141,34.089676,0 -118.318306,34.089676,0 -118.318306,33.995996,0</coordinates></LinearRing></outerBoundaryIs></Polygon>
    </Placemark>
    <GroundOverlay>
      <name>Downtown Los Angeles · raster tile 12/701/1634</name>
      <drawOrder>1</drawOrder>
      <Icon><href>https://tiles.ats.ucla.edu/tiles/Los_Angeles_1987/12/701/1634.png</href></Icon>
      <LatLonBox>
        <north>34.161818</north>
        <south>34.089061</south>
        <east>-118.300781</east>
        <west>-118.388672</west>
      </LatLonBox>
    </GroundOverlay>
    <GroundOverlay>
      <name>Downtown Los Angeles · raster tile 12/702/1634</name>
      <drawOrder>1</drawOrder>
      <Icon><href>https://tiles.ats.ucla.edu/tiles/Los_Angeles_1987/12/702/1634.png</href></Icon>
      <LatLonBox>
        <north>34.161818</north>
        <south>34.089061</south>
        <east>-118.212891</east>
        <west>-118.300781</west>
      </LatLonBox>
    </GroundOverlay>
    <GroundOverlay>
      <name>Downtown Los Angeles · raster tile 12/703/1634</name>
      <drawOrder>1</drawOrder>
      <Icon><href>https://tiles.ats.ucla.edu/tiles/Los_Angeles_1987/12/703/1634.png</href></Icon>
      <LatLonBox>
        <north>34.161818</north>
        <south>34.089061</south>
        <east>-118.125000</east>
        <west>-118.212891</west>
      </LatLonBox>
    </GroundOverlay>
    <GroundOverlay>
      <name>Downtown Los Angeles · raster tile 12/701/1635</name>
      <drawOrder>1</drawOrder>
      <Icon><href>https://tiles.ats.ucla.edu/tiles/Los_Angeles_1987/12/701/1635.png</href></Icon>
      <LatLonBox>
        <north>34.089061</north>
        <south>34.016242</south>
        <east>-118.300781</east>
        <west>-118.388672</west>
      </LatLonBox>
    </GroundOverlay>
    <GroundOverlay>
      <name>Downtown Los Angeles · raster tile 12/702/1635</name>
      <drawOrder>1</drawOrder>
      <Icon><href>https://tiles.ats.ucla.edu/tiles/Los_Angeles_1987/12/702/1635.png</href></Icon>
      <LatLonBox>
        <north>34.089061</north>
        <south>34.016242</south>
        <east>-118.212891</east>
        <west>-118.300781</west>
      </LatLonBox>
    </GroundOverlay>
    <GroundOverlay>
      <name>Downtown Los Angeles · raster tile 12/703/1635</name>
      <drawOrder>1</drawOrder>
      <Icon><href>https://tiles.ats.ucla.edu/tiles/Los_Angeles_1987/12/703/1635.png</href></Icon>
      <LatLonBox>
        <north>34.089061</north>
        <south>34.016242</south>
        <east>-118.125000</east>
        <west>-118.212891</west>
      </LatLonBox>
    </GroundOverlay>
    <GroundOverlay>
      <name>Downtown Los Angeles · raster tile 12/701/1636</name>
      <drawOrder>1</drawOrder>
      <Icon><href>https://tiles.ats.ucla.edu/tiles/Los_Angeles_1987/12/701/1636.png</href></Icon>
      <LatLonBox>
        <north>34.016242</north>
        <south>33.943360</south>
        <east>-118.300781</east>
        <west>-118.388672</west>
      </LatLonBox>
    </GroundOverlay>
    <GroundOverlay>
      <name>Downtown Los Angeles · raster tile 12/702/1636</name>
      <drawOrder>1</drawOrder>
      <Icon><href>https://tiles.ats.ucla.edu/tiles/Los_Angeles_1987/12/702/1636.png</href></Icon>
      <LatLonBox>
        <north>34.016242</north>
        <south>33.943360</south>
        <east>-118.212891</east>
        <west>-118.300781</west>
      </LatLonBox>
    </GroundOverlay>
    <GroundOverlay>
      <name>Downtown Los Angeles · raster tile 12/703/1636</name>
      <drawOrder>1</drawOrder>
      <Icon><href>https://tiles.ats.ucla.edu/tiles/Los_Angeles_1987/12/703/1636.png</href></Icon>
      <LatLonBox>
        <north>34.016242</north>
        <south>33.943360</south>
        <east>-118.125000</east>
        <west>-118.212891</west>
      </LatLonBox>
    </GroundOverlay>

  </Document>
</kml>