<?xml version="1.0" encoding="UTF-8"?>
<kml xmlns="http://www.opengis.net/kml/2.2">
  <Document>
    <name>US Dept. of Agriculture National Forest Region 3 Showing Main Highways</name>
    <description>US Dept. of Agriculture National Forest Region 3 Showing Main Highways, Kayenta, Arizona, 1934–1940. US Dept. of Agriculture National Forest Region 3 Showing Main Highways (1934–1940). HyperCities Map Library. UCLA Map Collections.</description>
    <Style id="hypercities-footprint">
      <LineStyle><color>ff5e6ad6</color><width>2</width></LineStyle>
      <PolyStyle><color>285e6ad6</color><fill>1</fill><outline>1</outline></PolyStyle>
    </Style>

    <Placemark>
      <name>US Dept. of Agriculture National Forest Region 3 Showing Main Highways</name>
      <description>HyperCities Map Library footprint · Kayenta, Arizona · 1934–1940</description>
      <TimeSpan><begin>1934-01-01</begin><end>1940-12-31</end></TimeSpan>
      <ExtendedData>
      <Data name="mapId"><value>map:449</value></Data>
      <Data name="place"><value>Kayenta, Arizona</value></Data>
      <Data name="years"><value>1934–1940</value></Data>
      <Data name="sourceRecordId"><value>449</value></Data>
      <Data name="collection"><value>UCLA Map Collections</value></Data>
      <Data name="creator"><value>F.A. Silcox Forester</value></Data>
      <Data name="citation"><value>US Dept. of Agriculture National Forest Region 3 Showing Main Highways (1934–1940). HyperCities Map Library. UCLA Map Collections.</value></Data>
      <Data name="tileTemplate"><value>https://tiles.ats.ucla.edu/tiles/usfs_roadmap_1934/{z}/{x}/{y}.png</value></Data>
      <Data name="groundOverlayTiles"><value>Source XYZ tiles included as KML GroundOverlays at the recorded minimum zoom.</value></Data>
      <Data name="rasterAvailability"><value>Original XYZ tiles, rendered here as KML GroundOverlays at the recorded minimum zoom.</value></Data>
      <Data name="exportScope"><value>Georeferenced footprint, provenance, and a source-tile raster overview at the recorded minimum zoom.</value></Data>
      </ExtendedData>
      <styleUrl>#hypercities-footprint</styleUrl>
      <Polygon><tessellate>1</tessellate><outerBoundaryIs><LinearRing><coordinates>-115.71032,30.537338,0 -102.253427,30.537338,0 -102.253427,37.416601,0 -115.71032,37.416601,0 -115.71032,30.537338,0</coordinates></LinearRing></outerBoundaryIs></Polygon>
    </Placemark>
    <GroundOverlay>
      <name>US Dept. of Agriculture National Forest Region 3 Showing Main Highways · raster tile 5/5/12</name>
      <drawOrder>1</drawOrder>
      <Icon><href>https://tiles.ats.ucla.edu/tiles/usfs_roadmap_1934/5/5/12.png</href></Icon>
      <LatLonBox>
        <north>40.979898</north>
        <south>31.952162</south>
        <east>-112.500000</east>
        <west>-123.750000</west>
      </LatLonBox>
    </GroundOverlay>
    <GroundOverlay>
      <name>US Dept. of Agriculture National Forest Region 3 Showing Main Highways · raster tile 5/6/12</name>
      <drawOrder>1</drawOrder>
      <Icon><href>https://tiles.ats.ucla.edu/tiles/usfs_roadmap_1934/5/6/12.png</href></Icon>
      <LatLonBox>
        <north>40.979898</north>
        <south>31.952162</south>
        <east>-101.250000</east>
        <west>-112.500000</west>
      </LatLonBox>
    </GroundOverlay>
    <GroundOverlay>
      <name>US Dept. of Agriculture National Forest Region 3 Showing Main Highways · raster tile 5/5/13</name>
      <drawOrder>1</drawOrder>
      <Icon><href>https://tiles.ats.ucla.edu/tiles/usfs_roadmap_1934/5/5/13.png</href></Icon>
      <LatLonBox>
        <north>31.952162</north>
        <south>21.943046</south>
        <east>-112.500000</east>
        <west>-123.750000</west>
      </LatLonBox>
    </GroundOverlay>
    <GroundOverlay>
      <name>US Dept. of Agriculture National Forest Region 3 Showing Main Highways · raster tile 5/6/13</name>
      <drawOrder>1</drawOrder>
      <Icon><href>https://tiles.ats.ucla.edu/tiles/usfs_roadmap_1934/5/6/13.png</href></Icon>
      <LatLonBox>
        <north>31.952162</north>
        <south>21.943046</south>
        <east>-101.250000</east>
        <west>-112.500000</west>
      </LatLonBox>
    </GroundOverlay>

  </Document>
</kml>