<?xml version="1.0" encoding="UTF-8"?>
<kml xmlns="http://www.opengis.net/kml/2.2">
  <Document>
    <name>Map of seoul (1946)</name>
    <description>Map of seoul (1946), Seoul, 1946. Map of seoul (1946) (1946). HyperCities Map Library.</description>
    <Style id="hypercities-footprint">
      <LineStyle><color>ff5e6ad6</color><width>2</width></LineStyle>
      <PolyStyle><color>285e6ad6</color><fill>1</fill><outline>1</outline></PolyStyle>
    </Style>

    <Placemark>
      <name>Map of seoul (1946)</name>
      <description>HyperCities Map Library footprint · Seoul · 1946</description>
      <TimeSpan><begin>1946-01-01</begin><end>1946-12-31</end></TimeSpan>
      <ExtendedData>
      <Data name="mapId"><value>map:167</value></Data>
      <Data name="place"><value>Seoul</value></Data>
      <Data name="years"><value>1946</value></Data>
      <Data name="sourceRecordId"><value>167</value></Data>
      <Data name="collection"><value></value></Data>
      <Data name="creator"><value></value></Data>
      <Data name="citation"><value>Map of seoul (1946) (1946). HyperCities Map Library.</value></Data>
      <Data name="tileTemplate"><value>https://tiles.ats.ucla.edu/tiles/seoul_1946/{z}/{x}/{y}.png</value></Data>
      <Data name="groundOverlayTiles"><value>Source XYZ tiles included as KML GroundOverlays at the recorded minimum zoom.</value></Data>
      <Data name="rasterAvailability"><value>Original XYZ tiles, rendered here as KML GroundOverlays at the recorded minimum zoom.</value></Data>
      <Data name="exportScope"><value>Georeferenced footprint, provenance, and a source-tile raster overview at the recorded minimum zoom.</value></Data>
      </ExtendedData>
      <styleUrl>#hypercities-footprint</styleUrl>
      <Polygon><tessellate>1</tessellate><outerBoundaryIs><LinearRing><coordinates>126.907534,37.499673,0 127.045784,37.499673,0 127.045784,37.592194,0 126.907534,37.592194,0 126.907534,37.499673,0</coordinates></LinearRing></outerBoundaryIs></Polygon>
    </Placemark>
    <GroundOverlay>
      <name>Map of seoul (1946) · raster tile 12/3491/1585</name>
      <drawOrder>1</drawOrder>
      <Icon><href>https://tiles.ats.ucla.edu/tiles/seoul_1946/12/3491/1585.png</href></Icon>
      <LatLonBox>
        <north>37.649034</north>
        <south>37.579413</south>
        <east>126.914063</east>
        <west>126.826172</west>
      </LatLonBox>
    </GroundOverlay>
    <GroundOverlay>
      <name>Map of seoul (1946) · raster tile 12/3492/1585</name>
      <drawOrder>1</drawOrder>
      <Icon><href>https://tiles.ats.ucla.edu/tiles/seoul_1946/12/3492/1585.png</href></Icon>
      <LatLonBox>
        <north>37.649034</north>
        <south>37.579413</south>
        <east>127.001953</east>
        <west>126.914063</west>
      </LatLonBox>
    </GroundOverlay>
    <GroundOverlay>
      <name>Map of seoul (1946) · raster tile 12/3493/1585</name>
      <drawOrder>1</drawOrder>
      <Icon><href>https://tiles.ats.ucla.edu/tiles/seoul_1946/12/3493/1585.png</href></Icon>
      <LatLonBox>
        <north>37.649034</north>
        <south>37.579413</south>
        <east>127.089844</east>
        <west>127.001953</west>
      </LatLonBox>
    </GroundOverlay>
    <GroundOverlay>
      <name>Map of seoul (1946) · raster tile 12/3491/1586</name>
      <drawOrder>1</drawOrder>
      <Icon><href>https://tiles.ats.ucla.edu/tiles/seoul_1946/12/3491/1586.png</href></Icon>
      <LatLonBox>
        <north>37.579413</north>
        <south>37.509726</south>
        <east>126.914063</east>
        <west>126.826172</west>
      </LatLonBox>
    </GroundOverlay>
    <GroundOverlay>
      <name>Map of seoul (1946) · raster tile 12/3492/1586</name>
      <drawOrder>1</drawOrder>
      <Icon><href>https://tiles.ats.ucla.edu/tiles/seoul_1946/12/3492/1586.png</href></Icon>
      <LatLonBox>
        <north>37.579413</north>
        <south>37.509726</south>
        <east>127.001953</east>
        <west>126.914063</west>
      </LatLonBox>
    </GroundOverlay>
    <GroundOverlay>
      <name>Map of seoul (1946) · raster tile 12/3493/1586</name>
      <drawOrder>1</drawOrder>
      <Icon><href>https://tiles.ats.ucla.edu/tiles/seoul_1946/12/3493/1586.png</href></Icon>
      <LatLonBox>
        <north>37.579413</north>
        <south>37.509726</south>
        <east>127.089844</east>
        <west>127.001953</west>
      </LatLonBox>
    </GroundOverlay>
    <GroundOverlay>
      <name>Map of seoul (1946) · raster tile 12/3491/1587</name>
      <drawOrder>1</drawOrder>
      <Icon><href>https://tiles.ats.ucla.edu/tiles/seoul_1946/12/3491/1587.png</href></Icon>
      <LatLonBox>
        <north>37.509726</north>
        <south>37.439974</south>
        <east>126.914063</east>
        <west>126.826172</west>
      </LatLonBox>
    </GroundOverlay>
    <GroundOverlay>
      <name>Map of seoul (1946) · raster tile 12/3492/1587</name>
      <drawOrder>1</drawOrder>
      <Icon><href>https://tiles.ats.ucla.edu/tiles/seoul_1946/12/3492/1587.png</href></Icon>
      <LatLonBox>
        <north>37.509726</north>
        <south>37.439974</south>
        <east>127.001953</east>
        <west>126.914063</west>
      </LatLonBox>
    </GroundOverlay>
    <GroundOverlay>
      <name>Map of seoul (1946) · raster tile 12/3493/1587</name>
      <drawOrder>1</drawOrder>
      <Icon><href>https://tiles.ats.ucla.edu/tiles/seoul_1946/12/3493/1587.png</href></Icon>
      <LatLonBox>
        <north>37.509726</north>
        <south>37.439974</south>
        <east>127.089844</east>
        <west>127.001953</west>
      </LatLonBox>
    </GroundOverlay>

  </Document>
</kml>