<?xml version="1.0" encoding="UTF-8"?>
<kml xmlns="http://www.opengis.net/kml/2.2">
  <Document>
    <name>US Territories</name>
    <description>US Territories, Chicago, 1840. US Territories (1840). HyperCities Map Library.</description>
    <Style id="hypercities-footprint">
      <LineStyle><color>ff5e6ad6</color><width>2</width></LineStyle>
      <PolyStyle><color>285e6ad6</color><fill>1</fill><outline>1</outline></PolyStyle>
    </Style>

    <Placemark>
      <name>US Territories</name>
      <description>HyperCities Map Library footprint · Chicago · 1840</description>
      <TimeSpan><begin>1840-01-01</begin><end>1840-12-31</end></TimeSpan>
      <ExtendedData>
      <Data name="mapId"><value>map:288</value></Data>
      <Data name="place"><value>Chicago</value></Data>
      <Data name="years"><value>1840</value></Data>
      <Data name="sourceRecordId"><value>288</value></Data>
      <Data name="collection"><value></value></Data>
      <Data name="creator"><value></value></Data>
      <Data name="citation"><value>US Territories (1840). HyperCities Map Library.</value></Data>
      <Data name="tileTemplate"><value>https://tiles.ats.ucla.edu/tiles/US_territories_1840/{z}/{x}/{y}.png</value></Data>
      <Data name="groundOverlayTiles"><value>Source XYZ tiles included as KML GroundOverlays at the recorded minimum zoom.</value></Data>
      <Data name="rasterAvailability"><value>Original XYZ tiles, rendered here as KML GroundOverlays at the recorded minimum zoom.</value></Data>
      <Data name="exportScope"><value>Georeferenced footprint, provenance, and a source-tile raster overview at the recorded minimum zoom.</value></Data>
      </ExtendedData>
      <styleUrl>#hypercities-footprint</styleUrl>
      <Polygon><tessellate>1</tessellate><outerBoundaryIs><LinearRing><coordinates>-170.135697,-8.858835,0 -59.244988,-8.858835,0 -59.244988,51.933006,0 -170.135697,51.933006,0 -170.135697,-8.858835,0</coordinates></LinearRing></outerBoundaryIs></Polygon>
    </Placemark>
    <GroundOverlay>
      <name>US Territories · raster tile 1/0/0</name>
      <drawOrder>1</drawOrder>
      <Icon><href>https://tiles.ats.ucla.edu/tiles/US_territories_1840/1/0/0.png</href></Icon>
      <LatLonBox>
        <north>85.051129</north>
        <south>0.000000</south>
        <east>0.000000</east>
        <west>-180.000000</west>
      </LatLonBox>
    </GroundOverlay>
    <GroundOverlay>
      <name>US Territories · raster tile 1/0/1</name>
      <drawOrder>1</drawOrder>
      <Icon><href>https://tiles.ats.ucla.edu/tiles/US_territories_1840/1/0/1.png</href></Icon>
      <LatLonBox>
        <north>0.000000</north>
        <south>-85.051129</south>
        <east>0.000000</east>
        <west>-180.000000</west>
      </LatLonBox>
    </GroundOverlay>

  </Document>
</kml>