<?xml version="1.0" encoding="UTF-8"?>
<kml xmlns="http://www.opengis.net/kml/2.2">
  <Document>
    <name>International Space Station</name>
    <description>International Space Station, Los Angeles, 2003. International Space Station (2003). HyperCities Map Library.</description>
    <Style id="hypercities-footprint">
      <LineStyle><color>ff5e6ad6</color><width>2</width></LineStyle>
      <PolyStyle><color>285e6ad6</color><fill>1</fill><outline>1</outline></PolyStyle>
    </Style>

    <Placemark>
      <name>International Space Station</name>
      <description>HyperCities Map Library footprint · Los Angeles · 2003</description>
      <TimeSpan><begin>2003-01-01</begin><end>2003-12-31</end></TimeSpan>
      <ExtendedData>
      <Data name="mapId"><value>map:240</value></Data>
      <Data name="place"><value>Los Angeles</value></Data>
      <Data name="years"><value>2003</value></Data>
      <Data name="sourceRecordId"><value>240</value></Data>
      <Data name="collection"><value></value></Data>
      <Data name="creator"><value>International Space Station Imagery</value></Data>
      <Data name="citation"><value>International Space Station (2003). HyperCities Map Library.</value></Data>
      <Data name="tileTemplate"><value>https://tiles.ats.ucla.edu/tiles/LA_Intl_Space_Station_2011_final/{z}/{x}/{y}.png</value></Data>
      <Data name="groundOverlayTiles"><value>Source XYZ tiles included as KML GroundOverlays at the recorded minimum zoom.</value></Data>
      <Data name="rasterAvailability"><value>Original XYZ tiles, rendered here as KML GroundOverlays at the recorded minimum zoom.</value></Data>
      <Data name="exportScope"><value>Georeferenced footprint, provenance, and a source-tile raster overview at the recorded minimum zoom.</value></Data>
      </ExtendedData>
      <styleUrl>#hypercities-footprint</styleUrl>
      <Polygon><tessellate>1</tessellate><outerBoundaryIs><LinearRing><coordinates>-118.805537,33.136636,0 -117.295086,33.136636,0 -117.295086,34.523413,0 -118.805537,34.523413,0 -118.805537,33.136636,0</coordinates></LinearRing></outerBoundaryIs></Polygon>
    </Placemark>
    <GroundOverlay>
      <name>International Space Station · raster tile 8/43/101</name>
      <drawOrder>1</drawOrder>
      <Icon><href>https://tiles.ats.ucla.edu/tiles/LA_Intl_Space_Station_2011_final/8/43/101.png</href></Icon>
      <LatLonBox>
        <north>35.460670</north>
        <south>34.307144</south>
        <east>-118.125000</east>
        <west>-119.531250</west>
      </LatLonBox>
    </GroundOverlay>
    <GroundOverlay>
      <name>International Space Station · raster tile 8/44/101</name>
      <drawOrder>1</drawOrder>
      <Icon><href>https://tiles.ats.ucla.edu/tiles/LA_Intl_Space_Station_2011_final/8/44/101.png</href></Icon>
      <LatLonBox>
        <north>35.460670</north>
        <south>34.307144</south>
        <east>-116.718750</east>
        <west>-118.125000</west>
      </LatLonBox>
    </GroundOverlay>
    <GroundOverlay>
      <name>International Space Station · raster tile 8/43/102</name>
      <drawOrder>1</drawOrder>
      <Icon><href>https://tiles.ats.ucla.edu/tiles/LA_Intl_Space_Station_2011_final/8/43/102.png</href></Icon>
      <LatLonBox>
        <north>34.307144</north>
        <south>33.137551</south>
        <east>-118.125000</east>
        <west>-119.531250</west>
      </LatLonBox>
    </GroundOverlay>
    <GroundOverlay>
      <name>International Space Station · raster tile 8/44/102</name>
      <drawOrder>1</drawOrder>
      <Icon><href>https://tiles.ats.ucla.edu/tiles/LA_Intl_Space_Station_2011_final/8/44/102.png</href></Icon>
      <LatLonBox>
        <north>34.307144</north>
        <south>33.137551</south>
        <east>-116.718750</east>
        <west>-118.125000</west>
      </LatLonBox>
    </GroundOverlay>
    <GroundOverlay>
      <name>International Space Station · raster tile 8/43/103</name>
      <drawOrder>1</drawOrder>
      <Icon><href>https://tiles.ats.ucla.edu/tiles/LA_Intl_Space_Station_2011_final/8/43/103.png</href></Icon>
      <LatLonBox>
        <north>33.137551</north>
        <south>31.952162</south>
        <east>-118.125000</east>
        <west>-119.531250</west>
      </LatLonBox>
    </GroundOverlay>
    <GroundOverlay>
      <name>International Space Station · raster tile 8/44/103</name>
      <drawOrder>1</drawOrder>
      <Icon><href>https://tiles.ats.ucla.edu/tiles/LA_Intl_Space_Station_2011_final/8/44/103.png</href></Icon>
      <LatLonBox>
        <north>33.137551</north>
        <south>31.952162</south>
        <east>-116.718750</east>
        <west>-118.125000</west>
      </LatLonBox>
    </GroundOverlay>

  </Document>
</kml>