<?xml version="1.0" encoding="UTF-8"?>
<kml xmlns="http://www.opengis.net/kml/2.2">
  <Document>
    <name>Miami SW 8th Street</name>
    <description>Miami SW 8th Street, Miami, 1951. Miami SW 8th Street (1951). HyperCities Map Library.</description>
    <Style id="hypercities-footprint">
      <LineStyle><color>ff5e6ad6</color><width>2</width></LineStyle>
      <PolyStyle><color>285e6ad6</color><fill>1</fill><outline>1</outline></PolyStyle>
    </Style>

    <Placemark>
      <name>Miami SW 8th Street</name>
      <description>HyperCities Map Library footprint · Miami · 1951</description>
      <TimeSpan><begin>1951-01-01</begin><end>1951-12-31</end></TimeSpan>
      <ExtendedData>
      <Data name="mapId"><value>map:420</value></Data>
      <Data name="place"><value>Miami</value></Data>
      <Data name="years"><value>1951</value></Data>
      <Data name="sourceRecordId"><value>420</value></Data>
      <Data name="collection"><value></value></Data>
      <Data name="creator"><value></value></Data>
      <Data name="citation"><value>Miami SW 8th Street (1951). HyperCities Map Library.</value></Data>
      <Data name="tileTemplate"><value>https://tiles.ats.ucla.edu/tiles/1951_Miami_SW_8th_St_0177S/{z}/{x}/{y}.png</value></Data>
      <Data name="groundOverlayTiles"><value>Source XYZ tiles included as KML GroundOverlays at the recorded minimum zoom.</value></Data>
      <Data name="rasterAvailability"><value>Original XYZ tiles, rendered here as KML GroundOverlays at the recorded minimum zoom.</value></Data>
      <Data name="exportScope"><value>Georeferenced footprint, provenance, and a source-tile raster overview at the recorded minimum zoom.</value></Data>
      </ExtendedData>
      <styleUrl>#hypercities-footprint</styleUrl>
      <Polygon><tessellate>1</tessellate><outerBoundaryIs><LinearRing><coordinates>-80.221678,25.760315,0 -80.215284,25.760315,0 -80.215284,25.766067,0 -80.221678,25.766067,0 -80.221678,25.760315,0</coordinates></LinearRing></outerBoundaryIs></Polygon>
    </Placemark>
    <GroundOverlay>
      <name>Miami SW 8th Street · raster tile 16/18164/27910</name>
      <drawOrder>1</drawOrder>
      <Icon><href>https://tiles.ats.ucla.edu/tiles/1951_Miami_SW_8th_St_0177S/16/18164/27910.png</href></Icon>
      <LatLonBox>
        <north>25.770214</north>
        <south>25.765267</south>
        <east>-80.216675</east>
        <west>-80.222168</west>
      </LatLonBox>
    </GroundOverlay>
    <GroundOverlay>
      <name>Miami SW 8th Street · raster tile 16/18165/27910</name>
      <drawOrder>1</drawOrder>
      <Icon><href>https://tiles.ats.ucla.edu/tiles/1951_Miami_SW_8th_St_0177S/16/18165/27910.png</href></Icon>
      <LatLonBox>
        <north>25.770214</north>
        <south>25.765267</south>
        <east>-80.211182</east>
        <west>-80.216675</west>
      </LatLonBox>
    </GroundOverlay>
    <GroundOverlay>
      <name>Miami SW 8th Street · raster tile 16/18164/27911</name>
      <drawOrder>1</drawOrder>
      <Icon><href>https://tiles.ats.ucla.edu/tiles/1951_Miami_SW_8th_St_0177S/16/18164/27911.png</href></Icon>
      <LatLonBox>
        <north>25.765267</north>
        <south>25.760320</south>
        <east>-80.216675</east>
        <west>-80.222168</west>
      </LatLonBox>
    </GroundOverlay>
    <GroundOverlay>
      <name>Miami SW 8th Street · raster tile 16/18165/27911</name>
      <drawOrder>1</drawOrder>
      <Icon><href>https://tiles.ats.ucla.edu/tiles/1951_Miami_SW_8th_St_0177S/16/18165/27911.png</href></Icon>
      <LatLonBox>
        <north>25.765267</north>
        <south>25.760320</south>
        <east>-80.211182</east>
        <west>-80.216675</west>
      </LatLonBox>
    </GroundOverlay>
    <GroundOverlay>
      <name>Miami SW 8th Street · raster tile 16/18164/27912</name>
      <drawOrder>1</drawOrder>
      <Icon><href>https://tiles.ats.ucla.edu/tiles/1951_Miami_SW_8th_St_0177S/16/18164/27912.png</href></Icon>
      <LatLonBox>
        <north>25.760320</north>
        <south>25.755372</south>
        <east>-80.216675</east>
        <west>-80.222168</west>
      </LatLonBox>
    </GroundOverlay>
    <GroundOverlay>
      <name>Miami SW 8th Street · raster tile 16/18165/27912</name>
      <drawOrder>1</drawOrder>
      <Icon><href>https://tiles.ats.ucla.edu/tiles/1951_Miami_SW_8th_St_0177S/16/18165/27912.png</href></Icon>
      <LatLonBox>
        <north>25.760320</north>
        <south>25.755372</south>
        <east>-80.211182</east>
        <west>-80.216675</west>
      </LatLonBox>
    </GroundOverlay>

  </Document>
</kml>