<?xml version="1.0" encoding="UTF-8"?>
<kml xmlns="http://www.opengis.net/kml/2.2">
  <Document>
    <name>Indian Tribes, Cultures, and Languages</name>
    <description>Indian Tribes, Cultures, and Languages, Los Angeles, 1670–1730. Indian Tribes, Cultures, and Languages (1670–1730). HyperCities Map Library. Perry-Castañeda Library Map Collection.</description>
    <Style id="hypercities-footprint">
      <LineStyle><color>ff5e6ad6</color><width>2</width></LineStyle>
      <PolyStyle><color>285e6ad6</color><fill>1</fill><outline>1</outline></PolyStyle>
    </Style>

    <Placemark>
      <name>Indian Tribes, Cultures, and Languages</name>
      <description>HyperCities Map Library footprint · Los Angeles · 1670–1730</description>
      <TimeSpan><begin>1670-01-01</begin><end>1730-12-31</end></TimeSpan>
      <ExtendedData>
      <Data name="mapId"><value>map:260</value></Data>
      <Data name="place"><value>Los Angeles</value></Data>
      <Data name="years"><value>1670–1730</value></Data>
      <Data name="sourceRecordId"><value>260</value></Data>
      <Data name="collection"><value>Perry-Castañeda Library Map Collection</value></Data>
      <Data name="creator"><value>William C. Sturtevant </value></Data>
      <Data name="citation"><value>Indian Tribes, Cultures, and Languages (1670–1730). HyperCities Map Library. Perry-Castañeda Library Map Collection.</value></Data>
      <Data name="tileTemplate"><value>https://tiles.ats.ucla.edu/tiles/National_Atlas_1970/{z}/{x}/{y}.png</value></Data>
      <Data name="groundOverlayTiles"><value>Source XYZ tiles included as KML GroundOverlays at the recorded minimum zoom.</value></Data>
      <Data name="rasterAvailability"><value>Original XYZ tiles, rendered here as KML GroundOverlays at the recorded minimum zoom.</value></Data>
      <Data name="exportScope"><value>Georeferenced footprint, provenance, and a source-tile raster overview at the recorded minimum zoom.</value></Data>
      </ExtendedData>
      <styleUrl>#hypercities-footprint</styleUrl>
      <Polygon><tessellate>1</tessellate><outerBoundaryIs><LinearRing><coordinates>-133.018098,18.611473,0 -58.966202,18.611473,0 -58.966202,53.840569,0 -133.018098,53.840569,0 -133.018098,18.611473,0</coordinates></LinearRing></outerBoundaryIs></Polygon>
    </Placemark>
    <GroundOverlay>
      <name>Indian Tribes, Cultures, and Languages · raster tile 2/0/1</name>
      <drawOrder>1</drawOrder>
      <Icon><href>https://tiles.ats.ucla.edu/tiles/National_Atlas_1970/2/0/1.png</href></Icon>
      <LatLonBox>
        <north>66.513260</north>
        <south>0.000000</south>
        <east>-90.000000</east>
        <west>-180.000000</west>
      </LatLonBox>
    </GroundOverlay>
    <GroundOverlay>
      <name>Indian Tribes, Cultures, and Languages · raster tile 2/1/1</name>
      <drawOrder>1</drawOrder>
      <Icon><href>https://tiles.ats.ucla.edu/tiles/National_Atlas_1970/2/1/1.png</href></Icon>
      <LatLonBox>
        <north>66.513260</north>
        <south>0.000000</south>
        <east>0.000000</east>
        <west>-90.000000</west>
      </LatLonBox>
    </GroundOverlay>

  </Document>
</kml>