<?xml version="1.0" encoding="UTF-8"?>
<kml xmlns="http://www.opengis.net/kml/2.2">
  <Document>
    <name>New Map of Downtown Los Angeles</name>
    <description>New Map of Downtown Los Angeles, Los Angeles, 1960. New Map of Downtown Los Angeles (1960). HyperCities Map Library. UCLA Bruman Map Collection.</description>
    <Style id="hypercities-footprint">
      <LineStyle><color>ff5e6ad6</color><width>2</width></LineStyle>
      <PolyStyle><color>285e6ad6</color><fill>1</fill><outline>1</outline></PolyStyle>
    </Style>

    <Placemark>
      <name>New Map of Downtown Los Angeles</name>
      <description>HyperCities Map Library footprint · Los Angeles · 1960</description>
      <TimeSpan><begin>1960-01-01</begin><end>1960-12-31</end></TimeSpan>
      <ExtendedData>
      <Data name="mapId"><value>map:67</value></Data>
      <Data name="place"><value>Los Angeles</value></Data>
      <Data name="years"><value>1960</value></Data>
      <Data name="sourceRecordId"><value>67</value></Data>
      <Data name="collection"><value>UCLA Bruman Map Collection</value></Data>
      <Data name="creator"><value>Thomas Bros. Maps</value></Data>
      <Data name="citation"><value>New Map of Downtown Los Angeles (1960). HyperCities Map Library. UCLA Bruman Map Collection.</value></Data>
      <Data name="tileTemplate"><value>https://tiles.ats.ucla.edu/tiles/Los_Angeles_1960/{z}/{x}/{y}.png</value></Data>
      <Data name="groundOverlayTiles"><value>Source XYZ tiles included as KML GroundOverlays at the recorded minimum zoom.</value></Data>
      <Data name="rasterAvailability"><value>Original XYZ tiles, rendered here as KML GroundOverlays at the recorded minimum zoom.</value></Data>
      <Data name="exportScope"><value>Georeferenced footprint, provenance, and a source-tile raster overview at the recorded minimum zoom.</value></Data>
      </ExtendedData>
      <styleUrl>#hypercities-footprint</styleUrl>
      <Polygon><tessellate>1</tessellate><outerBoundaryIs><LinearRing><coordinates>-118.272521,34.030572,0 -118.2315,34.030572,0 -118.2315,34.067614,0 -118.272521,34.067614,0 -118.272521,34.030572,0</coordinates></LinearRing></outerBoundaryIs></Polygon>
    </Placemark>
    <GroundOverlay>
      <name>New Map of Downtown Los Angeles · raster tile 13/1404/3270</name>
      <drawOrder>1</drawOrder>
      <Icon><href>https://tiles.ats.ucla.edu/tiles/Los_Angeles_1960/13/1404/3270.png</href></Icon>
      <LatLonBox>
        <north>34.089061</north>
        <south>34.052659</south>
        <east>-118.256836</east>
        <west>-118.300781</west>
      </LatLonBox>
    </GroundOverlay>
    <GroundOverlay>
      <name>New Map of Downtown Los Angeles · raster tile 13/1405/3270</name>
      <drawOrder>1</drawOrder>
      <Icon><href>https://tiles.ats.ucla.edu/tiles/Los_Angeles_1960/13/1405/3270.png</href></Icon>
      <LatLonBox>
        <north>34.089061</north>
        <south>34.052659</south>
        <east>-118.212891</east>
        <west>-118.256836</west>
      </LatLonBox>
    </GroundOverlay>
    <GroundOverlay>
      <name>New Map of Downtown Los Angeles · raster tile 13/1404/3271</name>
      <drawOrder>1</drawOrder>
      <Icon><href>https://tiles.ats.ucla.edu/tiles/Los_Angeles_1960/13/1404/3271.png</href></Icon>
      <LatLonBox>
        <north>34.052659</north>
        <south>34.016242</south>
        <east>-118.256836</east>
        <west>-118.300781</west>
      </LatLonBox>
    </GroundOverlay>
    <GroundOverlay>
      <name>New Map of Downtown Los Angeles · raster tile 13/1405/3271</name>
      <drawOrder>1</drawOrder>
      <Icon><href>https://tiles.ats.ucla.edu/tiles/Los_Angeles_1960/13/1405/3271.png</href></Icon>
      <LatLonBox>
        <north>34.052659</north>
        <south>34.016242</south>
        <east>-118.212891</east>
        <west>-118.256836</west>
      </LatLonBox>
    </GroundOverlay>

  </Document>
</kml>