<?xml version="1.0" encoding="UTF-8"?>
<kml xmlns="http://www.opengis.net/kml/2.2">
  <Document>
    <name>Mauritius Map of Germany</name>
    <description>Mauritius Map of Germany, Berlin, 1659. Mauritius Map of Germany (1659). HyperCities Map Library.</description>
    <Style id="hypercities-footprint">
      <LineStyle><color>ff5e6ad6</color><width>2</width></LineStyle>
      <PolyStyle><color>285e6ad6</color><fill>1</fill><outline>1</outline></PolyStyle>
    </Style>

    <Placemark>
      <name>Mauritius Map of Germany</name>
      <description>HyperCities Map Library footprint · Berlin · 1659</description>
      <TimeSpan><begin>1659-01-01</begin><end>1659-12-31</end></TimeSpan>
      <ExtendedData>
      <Data name="mapId"><value>map:396</value></Data>
      <Data name="place"><value>Berlin</value></Data>
      <Data name="years"><value>1659</value></Data>
      <Data name="sourceRecordId"><value>396</value></Data>
      <Data name="collection"><value></value></Data>
      <Data name="creator"><value></value></Data>
      <Data name="citation"><value>Mauritius Map of Germany (1659). HyperCities Map Library.</value></Data>
      <Data name="tileTemplate"><value>https://tiles.ats.ucla.edu/tiles/1659_Mauritius_Map_of_Germany_Final/{z}/{x}/{y}.png</value></Data>
      <Data name="groundOverlayTiles"><value>Source XYZ tiles included as KML GroundOverlays at the recorded minimum zoom.</value></Data>
      <Data name="rasterAvailability"><value>Original XYZ tiles, rendered here as KML GroundOverlays at the recorded minimum zoom.</value></Data>
      <Data name="exportScope"><value>Georeferenced footprint, provenance, and a source-tile raster overview at the recorded minimum zoom.</value></Data>
      </ExtendedData>
      <styleUrl>#hypercities-footprint</styleUrl>
      <Polygon><tessellate>1</tessellate><outerBoundaryIs><LinearRing><coordinates>-4.790871,43.643749,0 29.368834,43.643749,0 29.368834,59.689674,0 -4.790871,59.689674,0 -4.790871,43.643749,0</coordinates></LinearRing></outerBoundaryIs></Polygon>
    </Placemark>
    <GroundOverlay>
      <name>Mauritius Map of Germany · raster tile 3/3/2</name>
      <drawOrder>1</drawOrder>
      <Icon><href>https://tiles.ats.ucla.edu/tiles/1659_Mauritius_Map_of_Germany_Final/3/3/2.png</href></Icon>
      <LatLonBox>
        <north>66.513260</north>
        <south>40.979898</south>
        <east>0.000000</east>
        <west>-45.000000</west>
      </LatLonBox>
    </GroundOverlay>
    <GroundOverlay>
      <name>Mauritius Map of Germany · raster tile 3/4/2</name>
      <drawOrder>1</drawOrder>
      <Icon><href>https://tiles.ats.ucla.edu/tiles/1659_Mauritius_Map_of_Germany_Final/3/4/2.png</href></Icon>
      <LatLonBox>
        <north>66.513260</north>
        <south>40.979898</south>
        <east>45.000000</east>
        <west>0.000000</west>
      </LatLonBox>
    </GroundOverlay>

  </Document>
</kml>