<?xml version="1.0" encoding="UTF-8"?>
<kml xmlns="http://www.opengis.net/kml/2.2">
  <Document>
    <name>Residential Security Map-- Los Angeles and Vicinity</name>
    <description>Residential Security Map-- Los Angeles and Vicinity, Los Angeles, 1939. Residential Security Map-- Los Angeles and Vicinity (1939). HyperCities Map Library.</description>
    <Style id="hypercities-footprint">
      <LineStyle><color>ff5e6ad6</color><width>2</width></LineStyle>
      <PolyStyle><color>285e6ad6</color><fill>1</fill><outline>1</outline></PolyStyle>
    </Style>

    <Placemark>
      <name>Residential Security Map-- Los Angeles and Vicinity</name>
      <description>HyperCities Map Library footprint · Los Angeles · 1939</description>
      <TimeSpan><begin>1939-01-01</begin><end>1939-12-31</end></TimeSpan>
      <ExtendedData>
      <Data name="mapId"><value>map:153</value></Data>
      <Data name="place"><value>Los Angeles</value></Data>
      <Data name="years"><value>1939</value></Data>
      <Data name="sourceRecordId"><value>153</value></Data>
      <Data name="collection"><value></value></Data>
      <Data name="creator"><value>Division of Research and Statistics, Federal Home-Loan Bank Board</value></Data>
      <Data name="citation"><value>Residential Security Map-- Los Angeles and Vicinity (1939). HyperCities Map Library.</value></Data>
      <Data name="tileTemplate"><value>https://tiles.ats.ucla.edu/tiles/LosAngeles_1939_Redlining4/{z}/{x}/{y}.png</value></Data>
      <Data name="groundOverlayTiles"><value>Source XYZ tiles included as KML GroundOverlays at the recorded minimum zoom.</value></Data>
      <Data name="rasterAvailability"><value>Original XYZ tiles, rendered here as KML GroundOverlays at the recorded minimum zoom.</value></Data>
      <Data name="exportScope"><value>Georeferenced footprint, provenance, and a source-tile raster overview at the recorded minimum zoom.</value></Data>
      </ExtendedData>
      <styleUrl>#hypercities-footprint</styleUrl>
      <Polygon><tessellate>1</tessellate><outerBoundaryIs><LinearRing><coordinates>-118.542248,33.689476,0 -118.138505,33.689476,0 -118.138505,33.931863,0 -118.542248,33.931863,0 -118.542248,33.689476,0</coordinates></LinearRing></outerBoundaryIs></Polygon>
    </Placemark>
    <GroundOverlay>
      <name>Residential Security Map-- Los Angeles and Vicinity · raster tile 10/174/409</name>
      <drawOrder>1</drawOrder>
      <Icon><href>https://tiles.ats.ucla.edu/tiles/LosAngeles_1939_Redlining4/10/174/409.png</href></Icon>
      <LatLonBox>
        <north>34.016242</north>
        <south>33.724340</south>
        <east>-118.476563</east>
        <west>-118.828125</west>
      </LatLonBox>
    </GroundOverlay>
    <GroundOverlay>
      <name>Residential Security Map-- Los Angeles and Vicinity · raster tile 10/175/409</name>
      <drawOrder>1</drawOrder>
      <Icon><href>https://tiles.ats.ucla.edu/tiles/LosAngeles_1939_Redlining4/10/175/409.png</href></Icon>
      <LatLonBox>
        <north>34.016242</north>
        <south>33.724340</south>
        <east>-118.125000</east>
        <west>-118.476563</west>
      </LatLonBox>
    </GroundOverlay>
    <GroundOverlay>
      <name>Residential Security Map-- Los Angeles and Vicinity · raster tile 10/174/410</name>
      <drawOrder>1</drawOrder>
      <Icon><href>https://tiles.ats.ucla.edu/tiles/LosAngeles_1939_Redlining4/10/174/410.png</href></Icon>
      <LatLonBox>
        <north>33.724340</north>
        <south>33.431441</south>
        <east>-118.476563</east>
        <west>-118.828125</west>
      </LatLonBox>
    </GroundOverlay>
    <GroundOverlay>
      <name>Residential Security Map-- Los Angeles and Vicinity · raster tile 10/175/410</name>
      <drawOrder>1</drawOrder>
      <Icon><href>https://tiles.ats.ucla.edu/tiles/LosAngeles_1939_Redlining4/10/175/410.png</href></Icon>
      <LatLonBox>
        <north>33.724340</north>
        <south>33.431441</south>
        <east>-118.125000</east>
        <west>-118.476563</west>
      </LatLonBox>
    </GroundOverlay>

  </Document>
</kml>