<?xml version="1.0" encoding="UTF-8"?>
<kml xmlns="http://www.opengis.net/kml/2.2">
  <Document>
    <name>Map of G4361 (C813)</name>
    <description>Map of G4361 (C813), Los Angeles, 1888. Map of G4361 (C813) (1888). HyperCities Map Library.</description>
    <Style id="hypercities-footprint">
      <LineStyle><color>ff5e6ad6</color><width>2</width></LineStyle>
      <PolyStyle><color>285e6ad6</color><fill>1</fill><outline>1</outline></PolyStyle>
    </Style>

    <Placemark>
      <name>Map of G4361 (C813)</name>
      <description>HyperCities Map Library footprint · Los Angeles · 1888</description>
      <TimeSpan><begin>1888-01-01</begin><end>1888-12-31</end></TimeSpan>
      <ExtendedData>
      <Data name="mapId"><value>map:221</value></Data>
      <Data name="place"><value>Los Angeles</value></Data>
      <Data name="years"><value>1888</value></Data>
      <Data name="sourceRecordId"><value>221</value></Data>
      <Data name="collection"><value></value></Data>
      <Data name="creator"><value></value></Data>
      <Data name="citation"><value>Map of G4361 (C813) (1888). HyperCities Map Library.</value></Data>
      <Data name="tileTemplate"><value>https://tiles.ats.ucla.edu/tiles/G4361_C813_NS_1888_a1_final/{z}/{x}/{y}.png</value></Data>
      <Data name="groundOverlayTiles"><value>Source XYZ tiles included as KML GroundOverlays at the recorded minimum zoom.</value></Data>
      <Data name="rasterAvailability"><value>Original XYZ tiles, rendered here as KML GroundOverlays at the recorded minimum zoom.</value></Data>
      <Data name="exportScope"><value>Georeferenced footprint, provenance, and a source-tile raster overview at the recorded minimum zoom.</value></Data>
      </ExtendedData>
      <styleUrl>#hypercities-footprint</styleUrl>
      <Polygon><tessellate>1</tessellate><outerBoundaryIs><LinearRing><coordinates>-125.142066,31.652078,0 -112.919539,31.652078,0 -112.919539,42.460087,0 -125.142066,42.460087,0 -125.142066,31.652078,0</coordinates></LinearRing></outerBoundaryIs></Polygon>
    </Placemark>
    <GroundOverlay>
      <name>Map of G4361 (C813) · raster tile 4/2/5</name>
      <drawOrder>1</drawOrder>
      <Icon><href>https://tiles.ats.ucla.edu/tiles/G4361_C813_NS_1888_a1_final/4/2/5.png</href></Icon>
      <LatLonBox>
        <north>55.776573</north>
        <south>40.979898</south>
        <east>-112.500000</east>
        <west>-135.000000</west>
      </LatLonBox>
    </GroundOverlay>
    <GroundOverlay>
      <name>Map of G4361 (C813) · raster tile 4/2/6</name>
      <drawOrder>1</drawOrder>
      <Icon><href>https://tiles.ats.ucla.edu/tiles/G4361_C813_NS_1888_a1_final/4/2/6.png</href></Icon>
      <LatLonBox>
        <north>40.979898</north>
        <south>21.943046</south>
        <east>-112.500000</east>
        <west>-135.000000</west>
      </LatLonBox>
    </GroundOverlay>

  </Document>
</kml>