<?xml version="1.0" encoding="UTF-8"?>
<kml xmlns="http://www.opengis.net/kml/2.2">
  <Document>
    <name>Grundriss von Berlin von neuem aufgenommen und mit Genehmigung der Königl. Academie der Wissenschaften</name>
    <description>Grundriss von Berlin von neuem aufgenommen und mit Genehmigung der Königl. Academie der Wissenschaften, Berlin, 1811. Grundriss von Berlin von neuem aufgenommen und mit Genehmigung der Königl. Academie der Wissenschaften (1811). HyperCities Map Library.</description>
    <Style id="hypercities-footprint">
      <LineStyle><color>ff5e6ad6</color><width>2</width></LineStyle>
      <PolyStyle><color>285e6ad6</color><fill>1</fill><outline>1</outline></PolyStyle>
    </Style>

    <Placemark>
      <name>Grundriss von Berlin von neuem aufgenommen und mit Genehmigung der Königl. Academie der Wissenschaften</name>
      <description>HyperCities Map Library footprint · Berlin · 1811</description>
      <TimeSpan><begin>1811-01-01</begin><end>1811-12-31</end></TimeSpan>
      <ExtendedData>
      <Data name="mapId"><value>map:27</value></Data>
      <Data name="place"><value>Berlin</value></Data>
      <Data name="years"><value>1811</value></Data>
      <Data name="sourceRecordId"><value>27</value></Data>
      <Data name="collection"><value></value></Data>
      <Data name="creator"><value></value></Data>
      <Data name="citation"><value>Grundriss von Berlin von neuem aufgenommen und mit Genehmigung der Königl. Academie der Wissenschaften (1811). HyperCities Map Library.</value></Data>
      <Data name="tileTemplate"><value>https://tiles.ats.ucla.edu/tiles/Berlin_1811/{z}/{x}/{y}.png</value></Data>
      <Data name="groundOverlayTiles"><value>Source XYZ tiles included as KML GroundOverlays at the recorded minimum zoom.</value></Data>
      <Data name="rasterAvailability"><value>Original XYZ tiles, rendered here as KML GroundOverlays at the recorded minimum zoom.</value></Data>
      <Data name="exportScope"><value>Georeferenced footprint, provenance, and a source-tile raster overview at the recorded minimum zoom.</value></Data>
      </ExtendedData>
      <styleUrl>#hypercities-footprint</styleUrl>
      <Polygon><tessellate>1</tessellate><outerBoundaryIs><LinearRing><coordinates>13.365027,52.494485,0 13.452734,52.494485,0 13.452734,52.533767,0 13.365027,52.533767,0 13.365027,52.494485,0</coordinates></LinearRing></outerBoundaryIs></Polygon>
    </Placemark>
    <GroundOverlay>
      <name>Grundriss von Berlin von neuem aufgenommen und mit Genehmigung der Königl. Academie der Wissenschaften · raster tile 10/550/335</name>
      <drawOrder>1</drawOrder>
      <Icon><href>https://tiles.ats.ucla.edu/tiles/Berlin_1811/10/550/335.png</href></Icon>
      <LatLonBox>
        <north>52.696361</north>
        <south>52.482780</south>
        <east>13.710938</east>
        <west>13.359375</west>
      </LatLonBox>
    </GroundOverlay>

  </Document>
</kml>