<?xml version="1.0" encoding="UTF-8"?>
<kml xmlns="http://www.opengis.net/kml/2.2">
  <Document>
    <name>Map of LA Sunset Boulevard</name>
    <description>Map of LA Sunset Boulevard, Los Angeles, 1920. Map of LA Sunset Boulevard (1920). HyperCities Map Library.</description>
    <Style id="hypercities-footprint">
      <LineStyle><color>ff5e6ad6</color><width>2</width></LineStyle>
      <PolyStyle><color>285e6ad6</color><fill>1</fill><outline>1</outline></PolyStyle>
    </Style>

    <Placemark>
      <name>Map of LA Sunset Boulevard</name>
      <description>HyperCities Map Library footprint · Los Angeles · 1920</description>
      <TimeSpan><begin>1920-01-01</begin><end>1920-12-31</end></TimeSpan>
      <ExtendedData>
      <Data name="mapId"><value>map:464</value></Data>
      <Data name="place"><value>Los Angeles</value></Data>
      <Data name="years"><value>1920</value></Data>
      <Data name="sourceRecordId"><value>464</value></Data>
      <Data name="collection"><value></value></Data>
      <Data name="creator"><value></value></Data>
      <Data name="citation"><value>Map of LA Sunset Boulevard (1920). HyperCities Map Library.</value></Data>
      <Data name="tileTemplate"><value>https://tiles.ats.ucla.edu/tiles/LA_1920_USGS_SunsetBlvd_geo/{z}/{x}/{y}.png</value></Data>
      <Data name="groundOverlayTiles"><value>Source XYZ tiles included as KML GroundOverlays at the recorded minimum zoom.</value></Data>
      <Data name="rasterAvailability"><value>Original XYZ tiles, rendered here as KML GroundOverlays at the recorded minimum zoom.</value></Data>
      <Data name="exportScope"><value>Georeferenced footprint, provenance, and a source-tile raster overview at the recorded minimum zoom.</value></Data>
      </ExtendedData>
      <styleUrl>#hypercities-footprint</styleUrl>
      <Polygon><tessellate>1</tessellate><outerBoundaryIs><LinearRing><coordinates>-118.599692,33.931142,0 -118.10044,33.931142,0 -118.10044,34.121957,0 -118.599692,34.121957,0 -118.599692,33.931142,0</coordinates></LinearRing></outerBoundaryIs></Polygon>
    </Placemark>
    <GroundOverlay>
      <name>Map of LA Sunset Boulevard · raster tile 10/174/408</name>
      <drawOrder>1</drawOrder>
      <Icon><href>https://tiles.ats.ucla.edu/tiles/LA_1920_USGS_SunsetBlvd_geo/10/174/408.png</href></Icon>
      <LatLonBox>
        <north>34.307144</north>
        <south>34.016242</south>
        <east>-118.476563</east>
        <west>-118.828125</west>
      </LatLonBox>
    </GroundOverlay>
    <GroundOverlay>
      <name>Map of LA Sunset Boulevard · raster tile 10/175/408</name>
      <drawOrder>1</drawOrder>
      <Icon><href>https://tiles.ats.ucla.edu/tiles/LA_1920_USGS_SunsetBlvd_geo/10/175/408.png</href></Icon>
      <LatLonBox>
        <north>34.307144</north>
        <south>34.016242</south>
        <east>-118.125000</east>
        <west>-118.476563</west>
      </LatLonBox>
    </GroundOverlay>
    <GroundOverlay>
      <name>Map of LA Sunset Boulevard · raster tile 10/176/408</name>
      <drawOrder>1</drawOrder>
      <Icon><href>https://tiles.ats.ucla.edu/tiles/LA_1920_USGS_SunsetBlvd_geo/10/176/408.png</href></Icon>
      <LatLonBox>
        <north>34.307144</north>
        <south>34.016242</south>
        <east>-117.773438</east>
        <west>-118.125000</west>
      </LatLonBox>
    </GroundOverlay>
    <GroundOverlay>
      <name>Map of LA Sunset Boulevard · raster tile 10/174/409</name>
      <drawOrder>1</drawOrder>
      <Icon><href>https://tiles.ats.ucla.edu/tiles/LA_1920_USGS_SunsetBlvd_geo/10/174/409.png</href></Icon>
      <LatLonBox>
        <north>34.016242</north>
        <south>33.724340</south>
        <east>-118.476563</east>
        <west>-118.828125</west>
      </LatLonBox>
    </GroundOverlay>
    <GroundOverlay>
      <name>Map of LA Sunset Boulevard · raster tile 10/175/409</name>
      <drawOrder>1</drawOrder>
      <Icon><href>https://tiles.ats.ucla.edu/tiles/LA_1920_USGS_SunsetBlvd_geo/10/175/409.png</href></Icon>
      <LatLonBox>
        <north>34.016242</north>
        <south>33.724340</south>
        <east>-118.125000</east>
        <west>-118.476563</west>
      </LatLonBox>
    </GroundOverlay>
    <GroundOverlay>
      <name>Map of LA Sunset Boulevard · raster tile 10/176/409</name>
      <drawOrder>1</drawOrder>
      <Icon><href>https://tiles.ats.ucla.edu/tiles/LA_1920_USGS_SunsetBlvd_geo/10/176/409.png</href></Icon>
      <LatLonBox>
        <north>34.016242</north>
        <south>33.724340</south>
        <east>-117.773438</east>
        <west>-118.125000</west>
      </LatLonBox>
    </GroundOverlay>

  </Document>
</kml>