<?xml version="1.0" encoding="UTF-8"?>
<kml xmlns="http://www.opengis.net/kml/2.2">
  <Document>
    <name>Wilshire as Sunset</name>
    <description>Wilshire as Sunset, Los Angeles, 1887. Wilshire as Sunset (1887). HyperCities Map Library.</description>
    <Style id="hypercities-footprint">
      <LineStyle><color>ff5e6ad6</color><width>2</width></LineStyle>
      <PolyStyle><color>285e6ad6</color><fill>1</fill><outline>1</outline></PolyStyle>
    </Style>

    <Placemark>
      <name>Wilshire as Sunset</name>
      <description>HyperCities Map Library footprint · Los Angeles · 1887</description>
      <TimeSpan><begin>1887-01-01</begin><end>1887-12-31</end></TimeSpan>
      <ExtendedData>
      <Data name="mapId"><value>map:470</value></Data>
      <Data name="place"><value>Los Angeles</value></Data>
      <Data name="years"><value>1887</value></Data>
      <Data name="sourceRecordId"><value>470</value></Data>
      <Data name="collection"><value></value></Data>
      <Data name="creator"><value></value></Data>
      <Data name="citation"><value>Wilshire as Sunset (1887). HyperCities Map Library.</value></Data>
      <Data name="tileTemplate"><value>https://tiles.ats.ucla.edu/tiles/LA_1887_WilshireAsSunset_Final/{z}/{x}/{y}.png</value></Data>
      <Data name="groundOverlayTiles"><value>Source XYZ tiles included as KML GroundOverlays at the recorded minimum zoom.</value></Data>
      <Data name="rasterAvailability"><value>Original XYZ tiles, rendered here as KML GroundOverlays at the recorded minimum zoom.</value></Data>
      <Data name="exportScope"><value>Georeferenced footprint, provenance, and a source-tile raster overview at the recorded minimum zoom.</value></Data>
      </ExtendedData>
      <styleUrl>#hypercities-footprint</styleUrl>
      <Polygon><tessellate>1</tessellate><outerBoundaryIs><LinearRing><coordinates>-118.474606,34.034015,0 -118.39635,34.034015,0 -118.39635,34.101337,0 -118.474606,34.101337,0 -118.474606,34.034015,0</coordinates></LinearRing></outerBoundaryIs></Polygon>
    </Placemark>
    <GroundOverlay>
      <name>Wilshire as Sunset · raster tile 12/700/1634</name>
      <drawOrder>1</drawOrder>
      <Icon><href>https://tiles.ats.ucla.edu/tiles/LA_1887_WilshireAsSunset_Final/12/700/1634.png</href></Icon>
      <LatLonBox>
        <north>34.161818</north>
        <south>34.089061</south>
        <east>-118.388672</east>
        <west>-118.476563</west>
      </LatLonBox>
    </GroundOverlay>
    <GroundOverlay>
      <name>Wilshire as Sunset · raster tile 12/700/1635</name>
      <drawOrder>1</drawOrder>
      <Icon><href>https://tiles.ats.ucla.edu/tiles/LA_1887_WilshireAsSunset_Final/12/700/1635.png</href></Icon>
      <LatLonBox>
        <north>34.089061</north>
        <south>34.016242</south>
        <east>-118.388672</east>
        <west>-118.476563</west>
      </LatLonBox>
    </GroundOverlay>

  </Document>
</kml>