<?xml version="1.0" encoding="UTF-8"?>
<kml xmlns="http://www.opengis.net/kml/2.2">
  <Document>
    <name>Colton&apos;s New York City, Brooklyn, Jersey City, Hoboken Etc.</name>
    <description>Colton&apos;s New York City, Brooklyn, Jersey City, Hoboken Etc., New York, 1887. Colton&apos;s New York City, Brooklyn, Jersey City, Hoboken Etc. (1887). HyperCities Map Library.</description>
    <Style id="hypercities-footprint">
      <LineStyle><color>ff5e6ad6</color><width>2</width></LineStyle>
      <PolyStyle><color>285e6ad6</color><fill>1</fill><outline>1</outline></PolyStyle>
    </Style>

    <Placemark>
      <name>Colton&apos;s New York City, Brooklyn, Jersey City, Hoboken Etc.</name>
      <description>HyperCities Map Library footprint · New York · 1887</description>
      <TimeSpan><begin>1887-01-01</begin><end>1887-12-31</end></TimeSpan>
      <ExtendedData>
      <Data name="mapId"><value>map:85</value></Data>
      <Data name="place"><value>New York</value></Data>
      <Data name="years"><value>1887</value></Data>
      <Data name="sourceRecordId"><value>85</value></Data>
      <Data name="collection"><value></value></Data>
      <Data name="creator"><value></value></Data>
      <Data name="citation"><value>Colton&apos;s New York City, Brooklyn, Jersey City, Hoboken Etc. (1887). HyperCities Map Library.</value></Data>
      <Data name="tileTemplate"><value>https://tiles.ats.ucla.edu/tiles/NewYork/1887/{z}/{x}/{y}.png</value></Data>
      <Data name="groundOverlayTiles"><value>Source XYZ tiles included as KML GroundOverlays at the recorded minimum zoom.</value></Data>
      <Data name="rasterAvailability"><value>Original XYZ tiles, rendered here as KML GroundOverlays at the recorded minimum zoom.</value></Data>
      <Data name="exportScope"><value>Georeferenced footprint, provenance, and a source-tile raster overview at the recorded minimum zoom.</value></Data>
      </ExtendedData>
      <styleUrl>#hypercities-footprint</styleUrl>
      <Polygon><tessellate>1</tessellate><outerBoundaryIs><LinearRing><coordinates>-74.063708,40.646487,0 -73.907558,40.646487,0 -73.907558,40.817632,0 -74.063708,40.817632,0 -74.063708,40.646487,0</coordinates></LinearRing></outerBoundaryIs></Polygon>
    </Placemark>
    <GroundOverlay>
      <name>Colton&apos;s New York City, Brooklyn, Jersey City, Hoboken Etc. · raster tile 11/602/769</name>
      <drawOrder>1</drawOrder>
      <Icon><href>https://tiles.ats.ucla.edu/tiles/NewYork/1887/11/602/769.png</href></Icon>
      <LatLonBox>
        <north>40.847060</north>
        <south>40.713956</south>
        <east>-74.003906</east>
        <west>-74.179688</west>
      </LatLonBox>
    </GroundOverlay>
    <GroundOverlay>
      <name>Colton&apos;s New York City, Brooklyn, Jersey City, Hoboken Etc. · raster tile 11/603/769</name>
      <drawOrder>1</drawOrder>
      <Icon><href>https://tiles.ats.ucla.edu/tiles/NewYork/1887/11/603/769.png</href></Icon>
      <LatLonBox>
        <north>40.847060</north>
        <south>40.713956</south>
        <east>-73.828125</east>
        <west>-74.003906</west>
      </LatLonBox>
    </GroundOverlay>
    <GroundOverlay>
      <name>Colton&apos;s New York City, Brooklyn, Jersey City, Hoboken Etc. · raster tile 11/602/770</name>
      <drawOrder>1</drawOrder>
      <Icon><href>https://tiles.ats.ucla.edu/tiles/NewYork/1887/11/602/770.png</href></Icon>
      <LatLonBox>
        <north>40.713956</north>
        <south>40.580585</south>
        <east>-74.003906</east>
        <west>-74.179688</west>
      </LatLonBox>
    </GroundOverlay>
    <GroundOverlay>
      <name>Colton&apos;s New York City, Brooklyn, Jersey City, Hoboken Etc. · raster tile 11/603/770</name>
      <drawOrder>1</drawOrder>
      <Icon><href>https://tiles.ats.ucla.edu/tiles/NewYork/1887/11/603/770.png</href></Icon>
      <LatLonBox>
        <north>40.713956</north>
        <south>40.580585</south>
        <east>-73.828125</east>
        <west>-74.003906</west>
      </LatLonBox>
    </GroundOverlay>

  </Document>
</kml>