<?xml version="1.0" encoding="UTF-8"?>
<kml xmlns="http://www.opengis.net/kml/2.2">
  <Document>
    <name>Astronomically Detailed Bus &amp; Subway Map (Queens)</name>
    <description>Astronomically Detailed Bus &amp; Subway Map (Queens), New York, 2007. Astronomically Detailed Bus &amp; Subway Map (Queens) (2007). HyperCities Map Library.</description>
    <Style id="hypercities-footprint">
      <LineStyle><color>ff5e6ad6</color><width>2</width></LineStyle>
      <PolyStyle><color>285e6ad6</color><fill>1</fill><outline>1</outline></PolyStyle>
    </Style>

    <Placemark>
      <name>Astronomically Detailed Bus &amp; Subway Map (Queens)</name>
      <description>HyperCities Map Library footprint · New York · 2007</description>
      <TimeSpan><begin>2007-01-01</begin><end>2007-12-31</end></TimeSpan>
      <ExtendedData>
      <Data name="mapId"><value>map:98</value></Data>
      <Data name="place"><value>New York</value></Data>
      <Data name="years"><value>2007</value></Data>
      <Data name="sourceRecordId"><value>98</value></Data>
      <Data name="collection"><value></value></Data>
      <Data name="creator"><value></value></Data>
      <Data name="citation"><value>Astronomically Detailed Bus &amp; Subway Map (Queens) (2007). HyperCities Map Library.</value></Data>
      <Data name="tileTemplate"><value>https://tiles.ats.ucla.edu/tiles/NewYork_2007_Queens/{z}/{x}/{y}.png</value></Data>
      <Data name="groundOverlayTiles"><value>Source XYZ tiles included as KML GroundOverlays at the recorded minimum zoom.</value></Data>
      <Data name="rasterAvailability"><value>Original XYZ tiles, rendered here as KML GroundOverlays at the recorded minimum zoom.</value></Data>
      <Data name="exportScope"><value>Georeferenced footprint, provenance, and a source-tile raster overview at the recorded minimum zoom.</value></Data>
      </ExtendedData>
      <styleUrl>#hypercities-footprint</styleUrl>
      <Polygon><tessellate>1</tessellate><outerBoundaryIs><LinearRing><coordinates>-73.965917,40.599759,0 -73.700218,40.599759,0 -73.700218,40.810567,0 -73.965917,40.810567,0 -73.965917,40.599759,0</coordinates></LinearRing></outerBoundaryIs></Polygon>
    </Placemark>
    <GroundOverlay>
      <name>Astronomically Detailed Bus &amp; Subway Map (Queens) · raster tile 10/301/384</name>
      <drawOrder>1</drawOrder>
      <Icon><href>https://tiles.ats.ucla.edu/tiles/NewYork_2007_Queens/10/301/384.png</href></Icon>
      <LatLonBox>
        <north>40.979898</north>
        <south>40.713956</south>
        <east>-73.828125</east>
        <west>-74.179688</west>
      </LatLonBox>
    </GroundOverlay>
    <GroundOverlay>
      <name>Astronomically Detailed Bus &amp; Subway Map (Queens) · raster tile 10/302/384</name>
      <drawOrder>1</drawOrder>
      <Icon><href>https://tiles.ats.ucla.edu/tiles/NewYork_2007_Queens/10/302/384.png</href></Icon>
      <LatLonBox>
        <north>40.979898</north>
        <south>40.713956</south>
        <east>-73.476563</east>
        <west>-73.828125</west>
      </LatLonBox>
    </GroundOverlay>
    <GroundOverlay>
      <name>Astronomically Detailed Bus &amp; Subway Map (Queens) · raster tile 10/301/385</name>
      <drawOrder>1</drawOrder>
      <Icon><href>https://tiles.ats.ucla.edu/tiles/NewYork_2007_Queens/10/301/385.png</href></Icon>
      <LatLonBox>
        <north>40.713956</north>
        <south>40.446947</south>
        <east>-73.828125</east>
        <west>-74.179688</west>
      </LatLonBox>
    </GroundOverlay>
    <GroundOverlay>
      <name>Astronomically Detailed Bus &amp; Subway Map (Queens) · raster tile 10/302/385</name>
      <drawOrder>1</drawOrder>
      <Icon><href>https://tiles.ats.ucla.edu/tiles/NewYork_2007_Queens/10/302/385.png</href></Icon>
      <LatLonBox>
        <north>40.713956</north>
        <south>40.446947</south>
        <east>-73.476563</east>
        <west>-73.828125</west>
      </LatLonBox>
    </GroundOverlay>

  </Document>
</kml>