<?xml version="1.0" encoding="UTF-8"?>
<kml xmlns="http://www.opengis.net/kml/2.2">
  <Document>
    <name>Plano del perimetro central de la Ciudad de Mexico</name>
    <description>Plano del perimetro central de la Ciudad de Mexico, Mexico City, 1883. Plano del perimetro central de la Ciudad de Mexico (1883). HyperCities Map Library.</description>
    <Style id="hypercities-footprint">
      <LineStyle><color>ff5e6ad6</color><width>2</width></LineStyle>
      <PolyStyle><color>285e6ad6</color><fill>1</fill><outline>1</outline></PolyStyle>
    </Style>

    <Placemark>
      <name>Plano del perimetro central de la Ciudad de Mexico</name>
      <description>HyperCities Map Library footprint · Mexico City · 1883</description>
      <TimeSpan><begin>1883-01-01</begin><end>1883-12-31</end></TimeSpan>
      <ExtendedData>
      <Data name="mapId"><value>map:230</value></Data>
      <Data name="place"><value>Mexico City</value></Data>
      <Data name="years"><value>1883</value></Data>
      <Data name="sourceRecordId"><value>230</value></Data>
      <Data name="collection"><value></value></Data>
      <Data name="creator"><value>Julio Popper Ferry</value></Data>
      <Data name="citation"><value>Plano del perimetro central de la Ciudad de Mexico (1883). HyperCities Map Library.</value></Data>
      <Data name="tileTemplate"><value>https://tiles.ats.ucla.edu/tiles/G4414_M6_1883_P67_19981_final/{z}/{x}/{y}.png</value></Data>
      <Data name="groundOverlayTiles"><value>Source XYZ tiles included as KML GroundOverlays at the recorded minimum zoom.</value></Data>
      <Data name="rasterAvailability"><value>Original XYZ tiles, rendered here as KML GroundOverlays at the recorded minimum zoom.</value></Data>
      <Data name="exportScope"><value>Georeferenced footprint, provenance, and a source-tile raster overview at the recorded minimum zoom.</value></Data>
      </ExtendedData>
      <styleUrl>#hypercities-footprint</styleUrl>
      <Polygon><tessellate>1</tessellate><outerBoundaryIs><LinearRing><coordinates>-99.144876,19.426312,0 -99.127196,19.426312,0 -99.127196,19.439208,0 -99.144876,19.439208,0 -99.144876,19.426312,0</coordinates></LinearRing></outerBoundaryIs></Polygon>
    </Placemark>
    <GroundOverlay>
      <name>Plano del perimetro central de la Ciudad de Mexico · raster tile 14/3679/7289</name>
      <drawOrder>1</drawOrder>
      <Icon><href>https://tiles.ats.ucla.edu/tiles/G4414_M6_1883_P67_19981_final/14/3679/7289.png</href></Icon>
      <LatLonBox>
        <north>19.456234</north>
        <south>19.435514</south>
        <east>-99.140625</east>
        <west>-99.162598</west>
      </LatLonBox>
    </GroundOverlay>
    <GroundOverlay>
      <name>Plano del perimetro central de la Ciudad de Mexico · raster tile 14/3680/7289</name>
      <drawOrder>1</drawOrder>
      <Icon><href>https://tiles.ats.ucla.edu/tiles/G4414_M6_1883_P67_19981_final/14/3680/7289.png</href></Icon>
      <LatLonBox>
        <north>19.456234</north>
        <south>19.435514</south>
        <east>-99.118652</east>
        <west>-99.140625</west>
      </LatLonBox>
    </GroundOverlay>
    <GroundOverlay>
      <name>Plano del perimetro central de la Ciudad de Mexico · raster tile 14/3679/7290</name>
      <drawOrder>1</drawOrder>
      <Icon><href>https://tiles.ats.ucla.edu/tiles/G4414_M6_1883_P67_19981_final/14/3679/7290.png</href></Icon>
      <LatLonBox>
        <north>19.435514</north>
        <south>19.414792</south>
        <east>-99.140625</east>
        <west>-99.162598</west>
      </LatLonBox>
    </GroundOverlay>
    <GroundOverlay>
      <name>Plano del perimetro central de la Ciudad de Mexico · raster tile 14/3680/7290</name>
      <drawOrder>1</drawOrder>
      <Icon><href>https://tiles.ats.ucla.edu/tiles/G4414_M6_1883_P67_19981_final/14/3680/7290.png</href></Icon>
      <LatLonBox>
        <north>19.435514</north>
        <south>19.414792</south>
        <east>-99.118652</east>
        <west>-99.140625</west>
      </LatLonBox>
    </GroundOverlay>

  </Document>
</kml>