<?xml version="1.0" encoding="UTF-8"?>
<kml xmlns="http://www.opengis.net/kml/2.2">
  <Document>
    <name>Rittau</name>
    <description>Rittau, Tokyo, 1880. Rittau (1880). HyperCities Map Library.</description>
    <Style id="hypercities-footprint">
      <LineStyle><color>ff5e6ad6</color><width>2</width></LineStyle>
      <PolyStyle><color>285e6ad6</color><fill>1</fill><outline>1</outline></PolyStyle>
    </Style>

    <Placemark>
      <name>Rittau</name>
      <description>HyperCities Map Library footprint · Tokyo · 1880</description>
      <TimeSpan><begin>1880-01-01</begin><end>1880-12-31</end></TimeSpan>
      <ExtendedData>
      <Data name="mapId"><value>map:249</value></Data>
      <Data name="place"><value>Tokyo</value></Data>
      <Data name="years"><value>1880</value></Data>
      <Data name="sourceRecordId"><value>249</value></Data>
      <Data name="collection"><value></value></Data>
      <Data name="creator"><value></value></Data>
      <Data name="citation"><value>Rittau (1880). HyperCities Map Library.</value></Data>
      <Data name="tileTemplate"><value>https://tiles.ats.ucla.edu/tiles/G7960_2/{z}/{x}/{y}.png</value></Data>
      <Data name="groundOverlayTiles"><value>Source XYZ tiles included as KML GroundOverlays at the recorded minimum zoom.</value></Data>
      <Data name="rasterAvailability"><value>Original XYZ tiles, rendered here as KML GroundOverlays at the recorded minimum zoom.</value></Data>
      <Data name="exportScope"><value>Georeferenced footprint, provenance, and a source-tile raster overview at the recorded minimum zoom.</value></Data>
      </ExtendedData>
      <styleUrl>#hypercities-footprint</styleUrl>
      <Polygon><tessellate>1</tessellate><outerBoundaryIs><LinearRing><coordinates>123.993629,28.341985,0 148.195514,28.341985,0 148.195514,47.76032,0 123.993629,47.76032,0 123.993629,28.341985,0</coordinates></LinearRing></outerBoundaryIs></Polygon>
    </Placemark>
    <GroundOverlay>
      <name>Rittau · raster tile 4/13/5</name>
      <drawOrder>1</drawOrder>
      <Icon><href>https://tiles.ats.ucla.edu/tiles/G7960_2/4/13/5.png</href></Icon>
      <LatLonBox>
        <north>55.776573</north>
        <south>40.979898</south>
        <east>135.000000</east>
        <west>112.500000</west>
      </LatLonBox>
    </GroundOverlay>
    <GroundOverlay>
      <name>Rittau · raster tile 4/14/5</name>
      <drawOrder>1</drawOrder>
      <Icon><href>https://tiles.ats.ucla.edu/tiles/G7960_2/4/14/5.png</href></Icon>
      <LatLonBox>
        <north>55.776573</north>
        <south>40.979898</south>
        <east>157.500000</east>
        <west>135.000000</west>
      </LatLonBox>
    </GroundOverlay>
    <GroundOverlay>
      <name>Rittau · raster tile 4/13/6</name>
      <drawOrder>1</drawOrder>
      <Icon><href>https://tiles.ats.ucla.edu/tiles/G7960_2/4/13/6.png</href></Icon>
      <LatLonBox>
        <north>40.979898</north>
        <south>21.943046</south>
        <east>135.000000</east>
        <west>112.500000</west>
      </LatLonBox>
    </GroundOverlay>
    <GroundOverlay>
      <name>Rittau · raster tile 4/14/6</name>
      <drawOrder>1</drawOrder>
      <Icon><href>https://tiles.ats.ucla.edu/tiles/G7960_2/4/14/6.png</href></Icon>
      <LatLonBox>
        <north>40.979898</north>
        <south>21.943046</south>
        <east>157.500000</east>
        <west>135.000000</west>
      </LatLonBox>
    </GroundOverlay>

  </Document>
</kml>