<?xml version="1.0" encoding="UTF-8"?>
<kml xmlns="http://www.opengis.net/kml/2.2">
  <Document>
    <name>Dube</name>
    <description>Dube, Soweto-Johannesburg, 1963. Dube (1963). HyperCities Map Library.</description>
    <Style id="hypercities-footprint">
      <LineStyle><color>ff5e6ad6</color><width>2</width></LineStyle>
      <PolyStyle><color>285e6ad6</color><fill>1</fill><outline>1</outline></PolyStyle>
    </Style>

    <Placemark>
      <name>Dube</name>
      <description>HyperCities Map Library footprint · Soweto-Johannesburg · 1963</description>
      <TimeSpan><begin>1963-01-01</begin><end>1963-12-31</end></TimeSpan>
      <ExtendedData>
      <Data name="mapId"><value>map:411</value></Data>
      <Data name="place"><value>Soweto-Johannesburg</value></Data>
      <Data name="years"><value>1963</value></Data>
      <Data name="sourceRecordId"><value>411</value></Data>
      <Data name="collection"><value></value></Data>
      <Data name="creator"><value></value></Data>
      <Data name="citation"><value>Dube (1963). HyperCities Map Library.</value></Data>
      <Data name="tileTemplate"><value>https://tiles.ats.ucla.edu/tiles/Dube_1963/{z}/{x}/{y}.png</value></Data>
      <Data name="groundOverlayTiles"><value>Source XYZ tiles included as KML GroundOverlays at the recorded minimum zoom.</value></Data>
      <Data name="rasterAvailability"><value>Original XYZ tiles, rendered here as KML GroundOverlays at the recorded minimum zoom.</value></Data>
      <Data name="exportScope"><value>Georeferenced footprint, provenance, and a source-tile raster overview at the recorded minimum zoom.</value></Data>
      </ExtendedData>
      <styleUrl>#hypercities-footprint</styleUrl>
      <Polygon><tessellate>1</tessellate><outerBoundaryIs><LinearRing><coordinates>27.884483,-26.231566,0 27.889874,-26.231566,0 27.889874,-26.227645,0 27.884483,-26.227645,0 27.884483,-26.231566,0</coordinates></LinearRing></outerBoundaryIs></Polygon>
    </Placemark>
    <GroundOverlay>
      <name>Dube · raster tile 16/37844/37718</name>
      <drawOrder>1</drawOrder>
      <Icon><href>https://tiles.ats.ucla.edu/tiles/Dube_1963/16/37844/37718.png</href></Icon>
      <LatLonBox>
        <north>-26.224447</north>
        <south>-26.229375</south>
        <east>27.888794</east>
        <west>27.883301</west>
      </LatLonBox>
    </GroundOverlay>
    <GroundOverlay>
      <name>Dube · raster tile 16/37845/37718</name>
      <drawOrder>1</drawOrder>
      <Icon><href>https://tiles.ats.ucla.edu/tiles/Dube_1963/16/37845/37718.png</href></Icon>
      <LatLonBox>
        <north>-26.224447</north>
        <south>-26.229375</south>
        <east>27.894287</east>
        <west>27.888794</west>
      </LatLonBox>
    </GroundOverlay>
    <GroundOverlay>
      <name>Dube · raster tile 16/37844/37719</name>
      <drawOrder>1</drawOrder>
      <Icon><href>https://tiles.ats.ucla.edu/tiles/Dube_1963/16/37844/37719.png</href></Icon>
      <LatLonBox>
        <north>-26.229375</north>
        <south>-26.234302</south>
        <east>27.888794</east>
        <west>27.883301</west>
      </LatLonBox>
    </GroundOverlay>
    <GroundOverlay>
      <name>Dube · raster tile 16/37845/37719</name>
      <drawOrder>1</drawOrder>
      <Icon><href>https://tiles.ats.ucla.edu/tiles/Dube_1963/16/37845/37719.png</href></Icon>
      <LatLonBox>
        <north>-26.229375</north>
        <south>-26.234302</south>
        <east>27.894287</east>
        <west>27.888794</west>
      </LatLonBox>
    </GroundOverlay>

  </Document>
</kml>