<?xml version="1.0" encoding="UTF-8"?>
<kml xmlns="http://www.opengis.net/kml/2.2">
  <Document>
    <name>Map of Aegaron (0244)</name>
    <description>Map of Aegaron (0244), Tehran, 2012. Map of Aegaron (0244) (2012). HyperCities Map Library.</description>
    <Style id="hypercities-footprint">
      <LineStyle><color>ff5e6ad6</color><width>2</width></LineStyle>
      <PolyStyle><color>285e6ad6</color><fill>1</fill><outline>1</outline></PolyStyle>
    </Style>

    <Placemark>
      <name>Map of Aegaron (0244)</name>
      <description>HyperCities Map Library footprint · Tehran · 2012</description>
      <TimeSpan><begin>2012-01-01</begin><end>2012-12-31</end></TimeSpan>
      <ExtendedData>
      <Data name="mapId"><value>map:476</value></Data>
      <Data name="place"><value>Tehran</value></Data>
      <Data name="years"><value>2012</value></Data>
      <Data name="sourceRecordId"><value>476</value></Data>
      <Data name="collection"><value></value></Data>
      <Data name="creator"><value></value></Data>
      <Data name="citation"><value>Map of Aegaron (0244) (2012). HyperCities Map Library.</value></Data>
      <Data name="tileTemplate"><value>https://tiles.ats.ucla.edu/tiles/Aegaron_0244/{z}/{x}/{y}.png</value></Data>
      <Data name="groundOverlayTiles"><value>Source XYZ tiles included as KML GroundOverlays at the recorded minimum zoom.</value></Data>
      <Data name="rasterAvailability"><value>Original XYZ tiles, rendered here as KML GroundOverlays at the recorded minimum zoom.</value></Data>
      <Data name="exportScope"><value>Georeferenced footprint, provenance, and a source-tile raster overview at the recorded minimum zoom.</value></Data>
      </ExtendedData>
      <styleUrl>#hypercities-footprint</styleUrl>
      <Polygon><tessellate>1</tessellate><outerBoundaryIs><LinearRing><coordinates>31.509733,30.572439,0 31.510928,30.572439,0 31.510928,30.573533,0 31.509733,30.573533,0 31.509733,30.572439,0</coordinates></LinearRing></outerBoundaryIs></Polygon>
    </Placemark>
    <GroundOverlay>
      <name>Map of Aegaron (0244) · raster tile 18/154016/107670</name>
      <drawOrder>1</drawOrder>
      <Icon><href>https://tiles.ats.ucla.edu/tiles/Aegaron_0244/18/154016/107670.png</href></Icon>
      <LatLonBox>
        <north>30.574085</north>
        <south>30.572903</south>
        <east>31.510162</east>
        <west>31.508789</west>
      </LatLonBox>
    </GroundOverlay>
    <GroundOverlay>
      <name>Map of Aegaron (0244) · raster tile 18/154017/107670</name>
      <drawOrder>1</drawOrder>
      <Icon><href>https://tiles.ats.ucla.edu/tiles/Aegaron_0244/18/154017/107670.png</href></Icon>
      <LatLonBox>
        <north>30.574085</north>
        <south>30.572903</south>
        <east>31.511536</east>
        <west>31.510162</west>
      </LatLonBox>
    </GroundOverlay>
    <GroundOverlay>
      <name>Map of Aegaron (0244) · raster tile 18/154016/107671</name>
      <drawOrder>1</drawOrder>
      <Icon><href>https://tiles.ats.ucla.edu/tiles/Aegaron_0244/18/154016/107671.png</href></Icon>
      <LatLonBox>
        <north>30.572903</north>
        <south>30.571721</south>
        <east>31.510162</east>
        <west>31.508789</west>
      </LatLonBox>
    </GroundOverlay>
    <GroundOverlay>
      <name>Map of Aegaron (0244) · raster tile 18/154017/107671</name>
      <drawOrder>1</drawOrder>
      <Icon><href>https://tiles.ats.ucla.edu/tiles/Aegaron_0244/18/154017/107671.png</href></Icon>
      <LatLonBox>
        <north>30.572903</north>
        <south>30.571721</south>
        <east>31.511536</east>
        <west>31.510162</west>
      </LatLonBox>
    </GroundOverlay>

  </Document>
</kml>