<?xml version="1.0" encoding="UTF-8"?>
<kml xmlns="http://www.opengis.net/kml/2.2">
  <Document>
    <name>Palace Site Plan</name>
    <description>Palace Site Plan, Berlin, 1580. Palace Site Plan (1580). HyperCities Map Library.</description>
    <Style id="hypercities-footprint">
      <LineStyle><color>ff5e6ad6</color><width>2</width></LineStyle>
      <PolyStyle><color>285e6ad6</color><fill>1</fill><outline>1</outline></PolyStyle>
    </Style>

    <Placemark>
      <name>Palace Site Plan</name>
      <description>HyperCities Map Library footprint · Berlin · 1580</description>
      <TimeSpan><begin>1580-01-01</begin><end>1580-12-31</end></TimeSpan>
      <ExtendedData>
      <Data name="mapId"><value>map:405</value></Data>
      <Data name="place"><value>Berlin</value></Data>
      <Data name="years"><value>1580</value></Data>
      <Data name="sourceRecordId"><value>405</value></Data>
      <Data name="collection"><value></value></Data>
      <Data name="creator"><value></value></Data>
      <Data name="citation"><value>Palace Site Plan (1580). HyperCities Map Library.</value></Data>
      <Data name="tileTemplate"><value>https://tiles.ats.ucla.edu/tiles/1580_Palace_Site_Plan_Final/{z}/{x}/{y}.png</value></Data>
      <Data name="groundOverlayTiles"><value>Source XYZ tiles included as KML GroundOverlays at the recorded minimum zoom.</value></Data>
      <Data name="rasterAvailability"><value>Original XYZ tiles, rendered here as KML GroundOverlays at the recorded minimum zoom.</value></Data>
      <Data name="exportScope"><value>Georeferenced footprint, provenance, and a source-tile raster overview at the recorded minimum zoom.</value></Data>
      </ExtendedData>
      <styleUrl>#hypercities-footprint</styleUrl>
      <Polygon><tessellate>1</tessellate><outerBoundaryIs><LinearRing><coordinates>13.400255,52.516451,0 13.403927,52.516451,0 13.403927,52.518953,0 13.400255,52.518953,0 13.400255,52.516451,0</coordinates></LinearRing></outerBoundaryIs></Polygon>
    </Placemark>
    <GroundOverlay>
      <name>Palace Site Plan · raster tile 17/70414/42986</name>
      <drawOrder>1</drawOrder>
      <Icon><href>https://tiles.ats.ucla.edu/tiles/1580_Palace_Site_Plan_Final/17/70414/42986.png</href></Icon>
      <LatLonBox>
        <north>52.519564</north>
        <south>52.517892</south>
        <east>13.400574</east>
        <west>13.397827</west>
      </LatLonBox>
    </GroundOverlay>
    <GroundOverlay>
      <name>Palace Site Plan · raster tile 17/70415/42986</name>
      <drawOrder>1</drawOrder>
      <Icon><href>https://tiles.ats.ucla.edu/tiles/1580_Palace_Site_Plan_Final/17/70415/42986.png</href></Icon>
      <LatLonBox>
        <north>52.519564</north>
        <south>52.517892</south>
        <east>13.403320</east>
        <west>13.400574</west>
      </LatLonBox>
    </GroundOverlay>
    <GroundOverlay>
      <name>Palace Site Plan · raster tile 17/70416/42986</name>
      <drawOrder>1</drawOrder>
      <Icon><href>https://tiles.ats.ucla.edu/tiles/1580_Palace_Site_Plan_Final/17/70416/42986.png</href></Icon>
      <LatLonBox>
        <north>52.519564</north>
        <south>52.517892</south>
        <east>13.406067</east>
        <west>13.403320</west>
      </LatLonBox>
    </GroundOverlay>
    <GroundOverlay>
      <name>Palace Site Plan · raster tile 17/70414/42987</name>
      <drawOrder>1</drawOrder>
      <Icon><href>https://tiles.ats.ucla.edu/tiles/1580_Palace_Site_Plan_Final/17/70414/42987.png</href></Icon>
      <LatLonBox>
        <north>52.517892</north>
        <south>52.516221</south>
        <east>13.400574</east>
        <west>13.397827</west>
      </LatLonBox>
    </GroundOverlay>
    <GroundOverlay>
      <name>Palace Site Plan · raster tile 17/70415/42987</name>
      <drawOrder>1</drawOrder>
      <Icon><href>https://tiles.ats.ucla.edu/tiles/1580_Palace_Site_Plan_Final/17/70415/42987.png</href></Icon>
      <LatLonBox>
        <north>52.517892</north>
        <south>52.516221</south>
        <east>13.403320</east>
        <west>13.400574</west>
      </LatLonBox>
    </GroundOverlay>
    <GroundOverlay>
      <name>Palace Site Plan · raster tile 17/70416/42987</name>
      <drawOrder>1</drawOrder>
      <Icon><href>https://tiles.ats.ucla.edu/tiles/1580_Palace_Site_Plan_Final/17/70416/42987.png</href></Icon>
      <LatLonBox>
        <north>52.517892</north>
        <south>52.516221</south>
        <east>13.406067</east>
        <west>13.403320</west>
      </LatLonBox>
    </GroundOverlay>

  </Document>
</kml>