<?xml version="1.0" encoding="UTF-8"?>
<kml xmlns="http://www.opengis.net/kml/2.2">
  <Document>
    <name>Map of Saigon (1954)</name>
    <description>Map of Saigon (1954), Saigon, 1954. Map of Saigon (1954) (1954). HyperCities Map Library.</description>
    <Style id="hypercities-footprint">
      <LineStyle><color>ff5e6ad6</color><width>2</width></LineStyle>
      <PolyStyle><color>285e6ad6</color><fill>1</fill><outline>1</outline></PolyStyle>
    </Style>

    <Placemark>
      <name>Map of Saigon (1954)</name>
      <description>HyperCities Map Library footprint · Saigon · 1954</description>
      <TimeSpan><begin>1954-01-01</begin><end>1954-12-31</end></TimeSpan>
      <ExtendedData>
      <Data name="mapId"><value>map:171</value></Data>
      <Data name="place"><value>Saigon</value></Data>
      <Data name="years"><value>1954</value></Data>
      <Data name="sourceRecordId"><value>171</value></Data>
      <Data name="collection"><value></value></Data>
      <Data name="creator"><value></value></Data>
      <Data name="citation"><value>Map of Saigon (1954) (1954). HyperCities Map Library.</value></Data>
      <Data name="tileTemplate"><value>https://tiles.ats.ucla.edu/tiles/Saigon_1954/{z}/{x}/{y}.png</value></Data>
      <Data name="groundOverlayTiles"><value>Source XYZ tiles included as KML GroundOverlays at the recorded minimum zoom.</value></Data>
      <Data name="rasterAvailability"><value>Original XYZ tiles, rendered here as KML GroundOverlays at the recorded minimum zoom.</value></Data>
      <Data name="exportScope"><value>Georeferenced footprint, provenance, and a source-tile raster overview at the recorded minimum zoom.</value></Data>
      </ExtendedData>
      <styleUrl>#hypercities-footprint</styleUrl>
      <Polygon><tessellate>1</tessellate><outerBoundaryIs><LinearRing><coordinates>106.623383,10.723838,0 106.730621,10.723838,0 106.730621,10.797581,0 106.623383,10.797581,0 106.623383,10.723838,0</coordinates></LinearRing></outerBoundaryIs></Polygon>
    </Placemark>
    <GroundOverlay>
      <name>Map of Saigon (1954) · raster tile 11/1630/962</name>
      <drawOrder>1</drawOrder>
      <Icon><href>https://tiles.ats.ucla.edu/tiles/Saigon_1954/11/1630/962.png</href></Icon>
      <LatLonBox>
        <north>10.833306</north>
        <south>10.660608</south>
        <east>106.699219</east>
        <west>106.523438</west>
      </LatLonBox>
    </GroundOverlay>
    <GroundOverlay>
      <name>Map of Saigon (1954) · raster tile 11/1631/962</name>
      <drawOrder>1</drawOrder>
      <Icon><href>https://tiles.ats.ucla.edu/tiles/Saigon_1954/11/1631/962.png</href></Icon>
      <LatLonBox>
        <north>10.833306</north>
        <south>10.660608</south>
        <east>106.875000</east>
        <west>106.699219</west>
      </LatLonBox>
    </GroundOverlay>

  </Document>
</kml>