<?xml version="1.0" encoding="UTF-8"?>
<kml xmlns="http://www.opengis.net/kml/2.2">
  <Document>
    <name>Map of the Ancient City of Rome</name>
    <description>Map of the Ancient City of Rome, Rome, 1840. Map of the Ancient City of Rome (1840). HyperCities Map Library.</description>
    <Style id="hypercities-footprint">
      <LineStyle><color>ff5e6ad6</color><width>2</width></LineStyle>
      <PolyStyle><color>285e6ad6</color><fill>1</fill><outline>1</outline></PolyStyle>
    </Style>

    <Placemark>
      <name>Map of the Ancient City of Rome</name>
      <description>HyperCities Map Library footprint · Rome · 1840</description>
      <TimeSpan><begin>1840-01-01</begin><end>1840-12-31</end></TimeSpan>
      <ExtendedData>
      <Data name="mapId"><value>map:121</value></Data>
      <Data name="place"><value>Rome</value></Data>
      <Data name="years"><value>1840</value></Data>
      <Data name="sourceRecordId"><value>121</value></Data>
      <Data name="collection"><value></value></Data>
      <Data name="creator"><value>Gio. Batta Agretti</value></Data>
      <Data name="citation"><value>Map of the Ancient City of Rome (1840). HyperCities Map Library.</value></Data>
      <Data name="tileTemplate"><value>https://tiles.ats.ucla.edu/tiles/Rome_1840_Agretti&amp;Visconti/{z}/{x}/{y}.png</value></Data>
      <Data name="groundOverlayTiles"><value>Source XYZ tiles included as KML GroundOverlays at the recorded minimum zoom.</value></Data>
      <Data name="rasterAvailability"><value>Original XYZ tiles, rendered here as KML GroundOverlays at the recorded minimum zoom.</value></Data>
      <Data name="exportScope"><value>Georeferenced footprint, provenance, and a source-tile raster overview at the recorded minimum zoom.</value></Data>
      </ExtendedData>
      <styleUrl>#hypercities-footprint</styleUrl>
      <Polygon><tessellate>1</tessellate><outerBoundaryIs><LinearRing><coordinates>12.426469,41.863565,0 12.538758,41.863565,0 12.538758,41.927595,0 12.426469,41.927595,0 12.426469,41.863565,0</coordinates></LinearRing></outerBoundaryIs></Polygon>
    </Placemark>
    <GroundOverlay>
      <name>Map of the Ancient City of Rome · raster tile 12/2189/1521</name>
      <drawOrder>1</drawOrder>
      <Icon><href>https://tiles.ats.ucla.edu/tiles/Rome_1840_Agretti&amp;Visconti/12/2189/1521.png</href></Icon>
      <LatLonBox>
        <north>41.967659</north>
        <south>41.902277</south>
        <east>12.480469</east>
        <west>12.392578</west>
      </LatLonBox>
    </GroundOverlay>
    <GroundOverlay>
      <name>Map of the Ancient City of Rome · raster tile 12/2190/1521</name>
      <drawOrder>1</drawOrder>
      <Icon><href>https://tiles.ats.ucla.edu/tiles/Rome_1840_Agretti&amp;Visconti/12/2190/1521.png</href></Icon>
      <LatLonBox>
        <north>41.967659</north>
        <south>41.902277</south>
        <east>12.568359</east>
        <west>12.480469</west>
      </LatLonBox>
    </GroundOverlay>
    <GroundOverlay>
      <name>Map of the Ancient City of Rome · raster tile 12/2189/1522</name>
      <drawOrder>1</drawOrder>
      <Icon><href>https://tiles.ats.ucla.edu/tiles/Rome_1840_Agretti&amp;Visconti/12/2189/1522.png</href></Icon>
      <LatLonBox>
        <north>41.902277</north>
        <south>41.836828</south>
        <east>12.480469</east>
        <west>12.392578</west>
      </LatLonBox>
    </GroundOverlay>
    <GroundOverlay>
      <name>Map of the Ancient City of Rome · raster tile 12/2190/1522</name>
      <drawOrder>1</drawOrder>
      <Icon><href>https://tiles.ats.ucla.edu/tiles/Rome_1840_Agretti&amp;Visconti/12/2190/1522.png</href></Icon>
      <LatLonBox>
        <north>41.902277</north>
        <south>41.836828</south>
        <east>12.568359</east>
        <west>12.480469</west>
      </LatLonBox>
    </GroundOverlay>

  </Document>
</kml>