<?xml version="1.0" encoding="UTF-8"?>
<kml xmlns="http://www.opengis.net/kml/2.2">
  <Document>
    <name>Plan of Jaffa</name>
    <description>Plan of Jaffa, Tel Aviv, 1918. Plan of Jaffa (1918). HyperCities Map Library.</description>
    <Style id="hypercities-footprint">
      <LineStyle><color>ff5e6ad6</color><width>2</width></LineStyle>
      <PolyStyle><color>285e6ad6</color><fill>1</fill><outline>1</outline></PolyStyle>
    </Style>

    <Placemark>
      <name>Plan of Jaffa</name>
      <description>HyperCities Map Library footprint · Tel Aviv · 1918</description>
      <TimeSpan><begin>1918-01-01</begin><end>1918-12-31</end></TimeSpan>
      <ExtendedData>
      <Data name="mapId"><value>map:72</value></Data>
      <Data name="place"><value>Tel Aviv</value></Data>
      <Data name="years"><value>1918</value></Data>
      <Data name="sourceRecordId"><value>72</value></Data>
      <Data name="collection"><value></value></Data>
      <Data name="creator"><value></value></Data>
      <Data name="citation"><value>Plan of Jaffa (1918). HyperCities Map Library.</value></Data>
      <Data name="tileTemplate"><value>https://tiles.ats.ucla.edu/tiles/Tel_Aviv_1918/{z}/{x}/{y}.png</value></Data>
      <Data name="groundOverlayTiles"><value>Source XYZ tiles included as KML GroundOverlays at the recorded minimum zoom.</value></Data>
      <Data name="rasterAvailability"><value>Original XYZ tiles, rendered here as KML GroundOverlays at the recorded minimum zoom.</value></Data>
      <Data name="exportScope"><value>Georeferenced footprint, provenance, and a source-tile raster overview at the recorded minimum zoom.</value></Data>
      </ExtendedData>
      <styleUrl>#hypercities-footprint</styleUrl>
      <Polygon><tessellate>1</tessellate><outerBoundaryIs><LinearRing><coordinates>34.740024,32.038385,0 34.783554,32.038385,0 34.783554,32.072765,0 34.740024,32.072765,0 34.740024,32.038385,0</coordinates></LinearRing></outerBoundaryIs></Polygon>
    </Placemark>
    <GroundOverlay>
      <name>Plan of Jaffa · raster tile 13/4886/3324</name>
      <drawOrder>1</drawOrder>
      <Icon><href>https://tiles.ats.ucla.edu/tiles/Tel_Aviv_1918/13/4886/3324.png</href></Icon>
      <LatLonBox>
        <north>32.101190</north>
        <south>32.063956</south>
        <east>34.760742</east>
        <west>34.716797</west>
      </LatLonBox>
    </GroundOverlay>
    <GroundOverlay>
      <name>Plan of Jaffa · raster tile 13/4887/3324</name>
      <drawOrder>1</drawOrder>
      <Icon><href>https://tiles.ats.ucla.edu/tiles/Tel_Aviv_1918/13/4887/3324.png</href></Icon>
      <LatLonBox>
        <north>32.101190</north>
        <south>32.063956</south>
        <east>34.804688</east>
        <west>34.760742</west>
      </LatLonBox>
    </GroundOverlay>
    <GroundOverlay>
      <name>Plan of Jaffa · raster tile 13/4886/3325</name>
      <drawOrder>1</drawOrder>
      <Icon><href>https://tiles.ats.ucla.edu/tiles/Tel_Aviv_1918/13/4886/3325.png</href></Icon>
      <LatLonBox>
        <north>32.063956</north>
        <south>32.026706</south>
        <east>34.760742</east>
        <west>34.716797</west>
      </LatLonBox>
    </GroundOverlay>
    <GroundOverlay>
      <name>Plan of Jaffa · raster tile 13/4887/3325</name>
      <drawOrder>1</drawOrder>
      <Icon><href>https://tiles.ats.ucla.edu/tiles/Tel_Aviv_1918/13/4887/3325.png</href></Icon>
      <LatLonBox>
        <north>32.063956</north>
        <south>32.026706</south>
        <east>34.804688</east>
        <west>34.760742</west>
      </LatLonBox>
    </GroundOverlay>

  </Document>
</kml>