<?xml version="1.0" encoding="UTF-8"?>
<kml xmlns="http://www.opengis.net/kml/2.2">
  <Document>
    <name>Map of Horizon City Replat 22_2</name>
    <description>Map of Horizon City Replat 22_2, El Paso, 1964. Map of Horizon City Replat 22_2 (1964). HyperCities Map Library.</description>
    <Style id="hypercities-footprint">
      <LineStyle><color>ff5e6ad6</color><width>2</width></LineStyle>
      <PolyStyle><color>285e6ad6</color><fill>1</fill><outline>1</outline></PolyStyle>
    </Style>

    <Placemark>
      <name>Map of Horizon City Replat 22_2</name>
      <description>HyperCities Map Library footprint · El Paso · 1964</description>
      <TimeSpan><begin>1964-01-01</begin><end>1964-12-31</end></TimeSpan>
      <ExtendedData>
      <Data name="mapId"><value>map:489</value></Data>
      <Data name="place"><value>El Paso</value></Data>
      <Data name="years"><value>1964</value></Data>
      <Data name="sourceRecordId"><value>489</value></Data>
      <Data name="collection"><value></value></Data>
      <Data name="creator"><value></value></Data>
      <Data name="citation"><value>Map of Horizon City Replat 22_2 (1964). HyperCities Map Library.</value></Data>
      <Data name="tileTemplate"><value>https://tiles.ats.ucla.edu/tiles/HorizonCityReplat_1964_RectifiedMap_22_2/{z}/{x}/{y}.png</value></Data>
      <Data name="groundOverlayTiles"><value>Source XYZ tiles included as KML GroundOverlays at the recorded minimum zoom.</value></Data>
      <Data name="rasterAvailability"><value>Original XYZ tiles, rendered here as KML GroundOverlays at the recorded minimum zoom.</value></Data>
      <Data name="exportScope"><value>Georeferenced footprint, provenance, and a source-tile raster overview at the recorded minimum zoom.</value></Data>
      </ExtendedData>
      <styleUrl>#hypercities-footprint</styleUrl>
      <Polygon><tessellate>1</tessellate><outerBoundaryIs><LinearRing><coordinates>-106.096924,31.689632,0 -106.08743,31.689632,0 -106.08743,31.701343,0 -106.096924,31.701343,0 -106.096924,31.689632,0</coordinates></LinearRing></outerBoundaryIs></Polygon>
    </Placemark>
    <GroundOverlay>
      <name>Map of Horizon City Replat 22_2 · raster tile 15/6726/13338</name>
      <drawOrder>1</drawOrder>
      <Icon><href>https://tiles.ats.ucla.edu/tiles/HorizonCityReplat_1964_RectifiedMap_22_2/15/6726/13338.png</href></Icon>
      <LatLonBox>
        <north>31.709476</north>
        <south>31.700130</south>
        <east>-106.094971</east>
        <west>-106.105957</west>
      </LatLonBox>
    </GroundOverlay>
    <GroundOverlay>
      <name>Map of Horizon City Replat 22_2 · raster tile 15/6727/13338</name>
      <drawOrder>1</drawOrder>
      <Icon><href>https://tiles.ats.ucla.edu/tiles/HorizonCityReplat_1964_RectifiedMap_22_2/15/6727/13338.png</href></Icon>
      <LatLonBox>
        <north>31.709476</north>
        <south>31.700130</south>
        <east>-106.083984</east>
        <west>-106.094971</west>
      </LatLonBox>
    </GroundOverlay>
    <GroundOverlay>
      <name>Map of Horizon City Replat 22_2 · raster tile 15/6726/13339</name>
      <drawOrder>1</drawOrder>
      <Icon><href>https://tiles.ats.ucla.edu/tiles/HorizonCityReplat_1964_RectifiedMap_22_2/15/6726/13339.png</href></Icon>
      <LatLonBox>
        <north>31.700130</north>
        <south>31.690782</south>
        <east>-106.094971</east>
        <west>-106.105957</west>
      </LatLonBox>
    </GroundOverlay>
    <GroundOverlay>
      <name>Map of Horizon City Replat 22_2 · raster tile 15/6727/13339</name>
      <drawOrder>1</drawOrder>
      <Icon><href>https://tiles.ats.ucla.edu/tiles/HorizonCityReplat_1964_RectifiedMap_22_2/15/6727/13339.png</href></Icon>
      <LatLonBox>
        <north>31.700130</north>
        <south>31.690782</south>
        <east>-106.083984</east>
        <west>-106.094971</west>
      </LatLonBox>
    </GroundOverlay>
    <GroundOverlay>
      <name>Map of Horizon City Replat 22_2 · raster tile 15/6726/13340</name>
      <drawOrder>1</drawOrder>
      <Icon><href>https://tiles.ats.ucla.edu/tiles/HorizonCityReplat_1964_RectifiedMap_22_2/15/6726/13340.png</href></Icon>
      <LatLonBox>
        <north>31.690782</north>
        <south>31.681433</south>
        <east>-106.094971</east>
        <west>-106.105957</west>
      </LatLonBox>
    </GroundOverlay>
    <GroundOverlay>
      <name>Map of Horizon City Replat 22_2 · raster tile 15/6727/13340</name>
      <drawOrder>1</drawOrder>
      <Icon><href>https://tiles.ats.ucla.edu/tiles/HorizonCityReplat_1964_RectifiedMap_22_2/15/6727/13340.png</href></Icon>
      <LatLonBox>
        <north>31.690782</north>
        <south>31.681433</south>
        <east>-106.083984</east>
        <west>-106.094971</west>
      </LatLonBox>
    </GroundOverlay>

  </Document>
</kml>