<?xml version="1.0" encoding="UTF-8"?>
<kml xmlns="http://www.opengis.net/kml/2.2">
  <Document>
    <name>Miami 2</name>
    <description>Miami 2, Miami, 1951. Miami 2 (1951). HyperCities Map Library.</description>
    <Style id="hypercities-footprint">
      <LineStyle><color>ff5e6ad6</color><width>2</width></LineStyle>
      <PolyStyle><color>285e6ad6</color><fill>1</fill><outline>1</outline></PolyStyle>
    </Style>

    <Placemark>
      <name>Miami 2</name>
      <description>HyperCities Map Library footprint · Miami · 1951</description>
      <TimeSpan><begin>1951-01-01</begin><end>1951-12-31</end></TimeSpan>
      <ExtendedData>
      <Data name="mapId"><value>map:430</value></Data>
      <Data name="place"><value>Miami</value></Data>
      <Data name="years"><value>1951</value></Data>
      <Data name="sourceRecordId"><value>430</value></Data>
      <Data name="collection"><value></value></Data>
      <Data name="creator"><value></value></Data>
      <Data name="citation"><value>Miami 2 (1951). HyperCities Map Library.</value></Data>
      <Data name="tileTemplate"><value>https://tiles.ats.ucla.edu/tiles/1951_Miami_2_0363S/{z}/{x}/{y}.png</value></Data>
      <Data name="groundOverlayTiles"><value>Source XYZ tiles included as KML GroundOverlays at the recorded minimum zoom.</value></Data>
      <Data name="rasterAvailability"><value>Original XYZ tiles, rendered here as KML GroundOverlays at the recorded minimum zoom.</value></Data>
      <Data name="exportScope"><value>Georeferenced footprint, provenance, and a source-tile raster overview at the recorded minimum zoom.</value></Data>
      </ExtendedData>
      <styleUrl>#hypercities-footprint</styleUrl>
      <Polygon><tessellate>1</tessellate><outerBoundaryIs><LinearRing><coordinates>-80.284112,25.819885,0 -80.276626,25.819885,0 -80.276626,25.827752,0 -80.284112,25.827752,0 -80.284112,25.819885,0</coordinates></LinearRing></outerBoundaryIs></Polygon>
    </Placemark>
    <GroundOverlay>
      <name>Miami 2 · raster tile 16/18152/27898</name>
      <drawOrder>1</drawOrder>
      <Icon><href>https://tiles.ats.ucla.edu/tiles/1951_Miami_2_0363S/16/18152/27898.png</href></Icon>
      <LatLonBox>
        <north>25.829561</north>
        <south>25.824617</south>
        <east>-80.282593</east>
        <west>-80.288086</west>
      </LatLonBox>
    </GroundOverlay>
    <GroundOverlay>
      <name>Miami 2 · raster tile 16/18153/27898</name>
      <drawOrder>1</drawOrder>
      <Icon><href>https://tiles.ats.ucla.edu/tiles/1951_Miami_2_0363S/16/18153/27898.png</href></Icon>
      <LatLonBox>
        <north>25.829561</north>
        <south>25.824617</south>
        <east>-80.277100</east>
        <west>-80.282593</west>
      </LatLonBox>
    </GroundOverlay>
    <GroundOverlay>
      <name>Miami 2 · raster tile 16/18154/27898</name>
      <drawOrder>1</drawOrder>
      <Icon><href>https://tiles.ats.ucla.edu/tiles/1951_Miami_2_0363S/16/18154/27898.png</href></Icon>
      <LatLonBox>
        <north>25.829561</north>
        <south>25.824617</south>
        <east>-80.271606</east>
        <west>-80.277100</west>
      </LatLonBox>
    </GroundOverlay>
    <GroundOverlay>
      <name>Miami 2 · raster tile 16/18152/27899</name>
      <drawOrder>1</drawOrder>
      <Icon><href>https://tiles.ats.ucla.edu/tiles/1951_Miami_2_0363S/16/18152/27899.png</href></Icon>
      <LatLonBox>
        <north>25.824617</north>
        <south>25.819672</south>
        <east>-80.282593</east>
        <west>-80.288086</west>
      </LatLonBox>
    </GroundOverlay>
    <GroundOverlay>
      <name>Miami 2 · raster tile 16/18153/27899</name>
      <drawOrder>1</drawOrder>
      <Icon><href>https://tiles.ats.ucla.edu/tiles/1951_Miami_2_0363S/16/18153/27899.png</href></Icon>
      <LatLonBox>
        <north>25.824617</north>
        <south>25.819672</south>
        <east>-80.277100</east>
        <west>-80.282593</west>
      </LatLonBox>
    </GroundOverlay>
    <GroundOverlay>
      <name>Miami 2 · raster tile 16/18154/27899</name>
      <drawOrder>1</drawOrder>
      <Icon><href>https://tiles.ats.ucla.edu/tiles/1951_Miami_2_0363S/16/18154/27899.png</href></Icon>
      <LatLonBox>
        <north>25.824617</north>
        <south>25.819672</south>
        <east>-80.271606</east>
        <west>-80.277100</west>
      </LatLonBox>
    </GroundOverlay>

  </Document>
</kml>