<?xml version="1.0" encoding="UTF-8"?>
<kml xmlns="http://www.opengis.net/kml/2.2">
  <Document>
    <name>Railroad Map of Dakota Territory</name>
    <description>Railroad Map of Dakota Territory, Los Angeles, 1886–1892. Railroad Map of Dakota Territory (1886–1892). HyperCities Map Library.</description>
    <Style id="hypercities-footprint">
      <LineStyle><color>ff5e6ad6</color><width>2</width></LineStyle>
      <PolyStyle><color>285e6ad6</color><fill>1</fill><outline>1</outline></PolyStyle>
    </Style>

    <Placemark>
      <name>Railroad Map of Dakota Territory</name>
      <description>HyperCities Map Library footprint · Los Angeles · 1886–1892</description>
      <TimeSpan><begin>1886-01-01</begin><end>1892-12-31</end></TimeSpan>
      <ExtendedData>
      <Data name="mapId"><value>map:272</value></Data>
      <Data name="place"><value>Los Angeles</value></Data>
      <Data name="years"><value>1886–1892</value></Data>
      <Data name="sourceRecordId"><value>272</value></Data>
      <Data name="collection"><value></value></Data>
      <Data name="creator"><value>Railroad Commissioners</value></Data>
      <Data name="citation"><value>Railroad Map of Dakota Territory (1886–1892). HyperCities Map Library.</value></Data>
      <Data name="tileTemplate"><value>https://tiles.ats.ucla.edu/tiles/US_Railroad_1886/{z}/{x}/{y}.png</value></Data>
      <Data name="groundOverlayTiles"><value>Source XYZ tiles included as KML GroundOverlays at the recorded minimum zoom.</value></Data>
      <Data name="rasterAvailability"><value>Original XYZ tiles, rendered here as KML GroundOverlays at the recorded minimum zoom.</value></Data>
      <Data name="exportScope"><value>Georeferenced footprint, provenance, and a source-tile raster overview at the recorded minimum zoom.</value></Data>
      </ExtendedData>
      <styleUrl>#hypercities-footprint</styleUrl>
      <Polygon><tessellate>1</tessellate><outerBoundaryIs><LinearRing><coordinates>-105.531189,41.855922,0 -95.341042,41.855922,0 -95.341042,49.728361,0 -105.531189,49.728361,0 -105.531189,41.855922,0</coordinates></LinearRing></outerBoundaryIs></Polygon>
    </Placemark>
    <GroundOverlay>
      <name>Railroad Map of Dakota Territory · raster tile 5/6/10</name>
      <drawOrder>1</drawOrder>
      <Icon><href>https://tiles.ats.ucla.edu/tiles/US_Railroad_1886/5/6/10.png</href></Icon>
      <LatLonBox>
        <north>55.776573</north>
        <south>48.922499</south>
        <east>-101.250000</east>
        <west>-112.500000</west>
      </LatLonBox>
    </GroundOverlay>
    <GroundOverlay>
      <name>Railroad Map of Dakota Territory · raster tile 5/7/10</name>
      <drawOrder>1</drawOrder>
      <Icon><href>https://tiles.ats.ucla.edu/tiles/US_Railroad_1886/5/7/10.png</href></Icon>
      <LatLonBox>
        <north>55.776573</north>
        <south>48.922499</south>
        <east>-90.000000</east>
        <west>-101.250000</west>
      </LatLonBox>
    </GroundOverlay>
    <GroundOverlay>
      <name>Railroad Map of Dakota Territory · raster tile 5/6/11</name>
      <drawOrder>1</drawOrder>
      <Icon><href>https://tiles.ats.ucla.edu/tiles/US_Railroad_1886/5/6/11.png</href></Icon>
      <LatLonBox>
        <north>48.922499</north>
        <south>40.979898</south>
        <east>-101.250000</east>
        <west>-112.500000</west>
      </LatLonBox>
    </GroundOverlay>
    <GroundOverlay>
      <name>Railroad Map of Dakota Territory · raster tile 5/7/11</name>
      <drawOrder>1</drawOrder>
      <Icon><href>https://tiles.ats.ucla.edu/tiles/US_Railroad_1886/5/7/11.png</href></Icon>
      <LatLonBox>
        <north>48.922499</north>
        <south>40.979898</south>
        <east>-90.000000</east>
        <west>-101.250000</west>
      </LatLonBox>
    </GroundOverlay>

  </Document>
</kml>