<?xml version="1.0" encoding="UTF-8"?>
<kml xmlns="http://www.opengis.net/kml/2.2">
  <Document>
    <name>The princely residence city Berlin at the death of Frederick William the Great in the year 1688</name>
    <description>The princely residence city Berlin at the death of Frederick William the Great in the year 1688, Berlin, 1688. The princely residence city Berlin at the death of Frederick William the Great in the year 1688 (1688). HyperCities Map Library.</description>
    <Style id="hypercities-footprint">
      <LineStyle><color>ff5e6ad6</color><width>2</width></LineStyle>
      <PolyStyle><color>285e6ad6</color><fill>1</fill><outline>1</outline></PolyStyle>
    </Style>

    <Placemark>
      <name>The princely residence city Berlin at the death of Frederick William the Great in the year 1688</name>
      <description>HyperCities Map Library footprint · Berlin · 1688</description>
      <TimeSpan><begin>1688-01-01</begin><end>1688-12-31</end></TimeSpan>
      <ExtendedData>
      <Data name="mapId"><value>map:19</value></Data>
      <Data name="place"><value>Berlin</value></Data>
      <Data name="years"><value>1688</value></Data>
      <Data name="sourceRecordId"><value>19</value></Data>
      <Data name="collection"><value></value></Data>
      <Data name="creator"><value>J.M.F. Schmidt and F.W. Kliewer</value></Data>
      <Data name="citation"><value>The princely residence city Berlin at the death of Frederick William the Great in the year 1688 (1688). HyperCities Map Library.</value></Data>
      <Data name="tileTemplate"><value>https://dev.cdh.ucla.edu/hypermedia/tiles/1688/{z}/{x}/{y}.png</value></Data>
      <Data name="groundOverlayTiles"><value>Source XYZ tiles included as KML GroundOverlays at the recorded minimum zoom.</value></Data>
      <Data name="rasterAvailability"><value>Original XYZ tiles, rendered here as KML GroundOverlays at the recorded minimum zoom.</value></Data>
      <Data name="exportScope"><value>Georeferenced footprint, provenance, and a source-tile raster overview at the recorded minimum zoom.</value></Data>
      </ExtendedData>
      <styleUrl>#hypercities-footprint</styleUrl>
      <Polygon><tessellate>1</tessellate><outerBoundaryIs><LinearRing><coordinates>13.391891,52.508868,0 13.418146,52.508868,0 13.418146,52.526054,0 13.391891,52.526054,0 13.391891,52.508868,0</coordinates></LinearRing></outerBoundaryIs></Polygon>
    </Placemark>
    <GroundOverlay>
      <name>The princely residence city Berlin at the death of Frederick William the Great in the year 1688 · raster tile 12/2200/1343</name>
      <drawOrder>1</drawOrder>
      <Icon><href>https://dev.cdh.ucla.edu/hypermedia/tiles/1688/12/2200/1343.png</href></Icon>
      <LatLonBox>
        <north>52.536273</north>
        <south>52.482780</south>
        <east>13.447266</east>
        <west>13.359375</west>
      </LatLonBox>
    </GroundOverlay>

  </Document>
</kml>