<?xml version="1.0" encoding="UTF-8"?>
<kml xmlns="http://www.opengis.net/kml/2.2">
  <Document>
    <name>New-York City &amp; County Map with Vicinity entire Brooklyn Williamsburgh Jersey City &amp;c.</name>
    <description>New-York City &amp; County Map with Vicinity entire Brooklyn Williamsburgh Jersey City &amp;c., New York, 1854. New-York City &amp; County Map with Vicinity entire Brooklyn Williamsburgh Jersey City &amp;c. (1854). HyperCities Map Library. UCLA Bruman Map Collection.</description>
    <Style id="hypercities-footprint">
      <LineStyle><color>ff5e6ad6</color><width>2</width></LineStyle>
      <PolyStyle><color>285e6ad6</color><fill>1</fill><outline>1</outline></PolyStyle>
    </Style>

    <Placemark>
      <name>New-York City &amp; County Map with Vicinity entire Brooklyn Williamsburgh Jersey City &amp;c.</name>
      <description>HyperCities Map Library footprint · New York · 1854</description>
      <TimeSpan><begin>1854-01-01</begin><end>1854-12-31</end></TimeSpan>
      <ExtendedData>
      <Data name="mapId"><value>map:81</value></Data>
      <Data name="place"><value>New York</value></Data>
      <Data name="years"><value>1854</value></Data>
      <Data name="sourceRecordId"><value>81</value></Data>
      <Data name="collection"><value>UCLA Bruman Map Collection</value></Data>
      <Data name="creator"><value>CH&quot;s Magnus 12. Frankfurt Street New-York</value></Data>
      <Data name="citation"><value>New-York City &amp; County Map with Vicinity entire Brooklyn Williamsburgh Jersey City &amp;c. (1854). HyperCities Map Library. UCLA Bruman Map Collection.</value></Data>
      <Data name="tileTemplate"><value>https://tiles.ats.ucla.edu/tiles/NewYork_1854/{z}/{x}/{y}.png</value></Data>
      <Data name="groundOverlayTiles"><value>Source XYZ tiles included as KML GroundOverlays at the recorded minimum zoom.</value></Data>
      <Data name="rasterAvailability"><value>Original XYZ tiles, rendered here as KML GroundOverlays at the recorded minimum zoom.</value></Data>
      <Data name="exportScope"><value>Georeferenced footprint, provenance, and a source-tile raster overview at the recorded minimum zoom.</value></Data>
      </ExtendedData>
      <styleUrl>#hypercities-footprint</styleUrl>
      <Polygon><tessellate>1</tessellate><outerBoundaryIs><LinearRing><coordinates>-74.143821,40.593009,0 -73.774485,40.593009,0 -73.774485,40.929419,0 -74.143821,40.929419,0 -74.143821,40.593009,0</coordinates></LinearRing></outerBoundaryIs></Polygon>
    </Placemark>
    <GroundOverlay>
      <name>New-York City &amp; County Map with Vicinity entire Brooklyn Williamsburgh Jersey City &amp;c. · raster tile 10/301/384</name>
      <drawOrder>1</drawOrder>
      <Icon><href>https://tiles.ats.ucla.edu/tiles/NewYork_1854/10/301/384.png</href></Icon>
      <LatLonBox>
        <north>40.979898</north>
        <south>40.713956</south>
        <east>-73.828125</east>
        <west>-74.179688</west>
      </LatLonBox>
    </GroundOverlay>
    <GroundOverlay>
      <name>New-York City &amp; County Map with Vicinity entire Brooklyn Williamsburgh Jersey City &amp;c. · raster tile 10/302/384</name>
      <drawOrder>1</drawOrder>
      <Icon><href>https://tiles.ats.ucla.edu/tiles/NewYork_1854/10/302/384.png</href></Icon>
      <LatLonBox>
        <north>40.979898</north>
        <south>40.713956</south>
        <east>-73.476563</east>
        <west>-73.828125</west>
      </LatLonBox>
    </GroundOverlay>
    <GroundOverlay>
      <name>New-York City &amp; County Map with Vicinity entire Brooklyn Williamsburgh Jersey City &amp;c. · raster tile 10/301/385</name>
      <drawOrder>1</drawOrder>
      <Icon><href>https://tiles.ats.ucla.edu/tiles/NewYork_1854/10/301/385.png</href></Icon>
      <LatLonBox>
        <north>40.713956</north>
        <south>40.446947</south>
        <east>-73.828125</east>
        <west>-74.179688</west>
      </LatLonBox>
    </GroundOverlay>
    <GroundOverlay>
      <name>New-York City &amp; County Map with Vicinity entire Brooklyn Williamsburgh Jersey City &amp;c. · raster tile 10/302/385</name>
      <drawOrder>1</drawOrder>
      <Icon><href>https://tiles.ats.ucla.edu/tiles/NewYork_1854/10/302/385.png</href></Icon>
      <LatLonBox>
        <north>40.713956</north>
        <south>40.446947</south>
        <east>-73.476563</east>
        <west>-73.828125</west>
      </LatLonBox>
    </GroundOverlay>

  </Document>
</kml>