<?xml version="1.0" encoding="UTF-8"?>
<kml xmlns="http://www.opengis.net/kml/2.2">
  <Document>
    <name>City of New York</name>
    <description>City of New York, New York, 1838. City of New York (1838). HyperCities Map Library.</description>
    <Style id="hypercities-footprint">
      <LineStyle><color>ff5e6ad6</color><width>2</width></LineStyle>
      <PolyStyle><color>285e6ad6</color><fill>1</fill><outline>1</outline></PolyStyle>
    </Style>

    <Placemark>
      <name>City of New York</name>
      <description>HyperCities Map Library footprint · New York · 1838</description>
      <TimeSpan><begin>1838-01-01</begin><end>1838-12-31</end></TimeSpan>
      <ExtendedData>
      <Data name="mapId"><value>map:77</value></Data>
      <Data name="place"><value>New York</value></Data>
      <Data name="years"><value>1838</value></Data>
      <Data name="sourceRecordId"><value>77</value></Data>
      <Data name="collection"><value></value></Data>
      <Data name="creator"><value></value></Data>
      <Data name="citation"><value>City of New York (1838). HyperCities Map Library.</value></Data>
      <Data name="tileTemplate"><value>https://tiles.ats.ucla.edu/tiles/NewYork_1838/{z}/{x}/{y}.png</value></Data>
      <Data name="groundOverlayTiles"><value>Source XYZ tiles included as KML GroundOverlays at the recorded minimum zoom.</value></Data>
      <Data name="rasterAvailability"><value>Original XYZ tiles, rendered here as KML GroundOverlays at the recorded minimum zoom.</value></Data>
      <Data name="exportScope"><value>Georeferenced footprint, provenance, and a source-tile raster overview at the recorded minimum zoom.</value></Data>
      </ExtendedData>
      <styleUrl>#hypercities-footprint</styleUrl>
      <Polygon><tessellate>1</tessellate><outerBoundaryIs><LinearRing><coordinates>-74.021921,40.68861,0 -73.956099,40.68861,0 -73.956099,40.749541,0 -74.021921,40.749541,0 -74.021921,40.68861,0</coordinates></LinearRing></outerBoundaryIs></Polygon>
    </Placemark>
    <GroundOverlay>
      <name>City of New York · raster tile 12/1205/1539</name>
      <drawOrder>1</drawOrder>
      <Icon><href>https://tiles.ats.ucla.edu/tiles/NewYork_1838/12/1205/1539.png</href></Icon>
      <LatLonBox>
        <north>40.780541</north>
        <south>40.713956</south>
        <east>-74.003906</east>
        <west>-74.091797</west>
      </LatLonBox>
    </GroundOverlay>
    <GroundOverlay>
      <name>City of New York · raster tile 12/1206/1539</name>
      <drawOrder>1</drawOrder>
      <Icon><href>https://tiles.ats.ucla.edu/tiles/NewYork_1838/12/1206/1539.png</href></Icon>
      <LatLonBox>
        <north>40.780541</north>
        <south>40.713956</south>
        <east>-73.916016</east>
        <west>-74.003906</west>
      </LatLonBox>
    </GroundOverlay>
    <GroundOverlay>
      <name>City of New York · raster tile 12/1205/1540</name>
      <drawOrder>1</drawOrder>
      <Icon><href>https://tiles.ats.ucla.edu/tiles/NewYork_1838/12/1205/1540.png</href></Icon>
      <LatLonBox>
        <north>40.713956</north>
        <south>40.647304</south>
        <east>-74.003906</east>
        <west>-74.091797</west>
      </LatLonBox>
    </GroundOverlay>
    <GroundOverlay>
      <name>City of New York · raster tile 12/1206/1540</name>
      <drawOrder>1</drawOrder>
      <Icon><href>https://tiles.ats.ucla.edu/tiles/NewYork_1838/12/1206/1540.png</href></Icon>
      <LatLonBox>
        <north>40.713956</north>
        <south>40.647304</south>
        <east>-73.916016</east>
        <west>-74.003906</west>
      </LatLonBox>
    </GroundOverlay>

  </Document>
</kml>