<?xml version="1.0" encoding="UTF-8"?>
<kml xmlns="http://www.opengis.net/kml/2.2">
  <Document>
    <name>Diepkloof</name>
    <description>Diepkloof, Soweto-Johannesburg, 1961. Diepkloof (1961). HyperCities Map Library.</description>
    <Style id="hypercities-footprint">
      <LineStyle><color>ff5e6ad6</color><width>2</width></LineStyle>
      <PolyStyle><color>285e6ad6</color><fill>1</fill><outline>1</outline></PolyStyle>
    </Style>

    <Placemark>
      <name>Diepkloof</name>
      <description>HyperCities Map Library footprint · Soweto-Johannesburg · 1961</description>
      <TimeSpan><begin>1961-01-01</begin><end>1961-12-31</end></TimeSpan>
      <ExtendedData>
      <Data name="mapId"><value>map:412</value></Data>
      <Data name="place"><value>Soweto-Johannesburg</value></Data>
      <Data name="years"><value>1961</value></Data>
      <Data name="sourceRecordId"><value>412</value></Data>
      <Data name="collection"><value></value></Data>
      <Data name="creator"><value></value></Data>
      <Data name="citation"><value>Diepkloof (1961). HyperCities Map Library.</value></Data>
      <Data name="tileTemplate"><value>https://tiles.ats.ucla.edu/tiles/Diepkloof_1961/{z}/{x}/{y}.png</value></Data>
      <Data name="groundOverlayTiles"><value>Source XYZ tiles included as KML GroundOverlays at the recorded minimum zoom.</value></Data>
      <Data name="rasterAvailability"><value>Original XYZ tiles, rendered here as KML GroundOverlays at the recorded minimum zoom.</value></Data>
      <Data name="exportScope"><value>Georeferenced footprint, provenance, and a source-tile raster overview at the recorded minimum zoom.</value></Data>
      </ExtendedData>
      <styleUrl>#hypercities-footprint</styleUrl>
      <Polygon><tessellate>1</tessellate><outerBoundaryIs><LinearRing><coordinates>27.925583,-26.273258,0 27.982808,-26.273258,0 27.982808,-26.224764,0 27.925583,-26.224764,0 27.925583,-26.273258,0</coordinates></LinearRing></outerBoundaryIs></Polygon>
    </Placemark>
    <GroundOverlay>
      <name>Diepkloof · raster tile 13/4731/4714</name>
      <drawOrder>1</drawOrder>
      <Icon><href>https://tiles.ats.ucla.edu/tiles/Diepkloof_1961/13/4731/4714.png</href></Icon>
      <LatLonBox>
        <north>-26.194877</north>
        <south>-26.234302</south>
        <east>27.949219</east>
        <west>27.905273</west>
      </LatLonBox>
    </GroundOverlay>
    <GroundOverlay>
      <name>Diepkloof · raster tile 13/4732/4714</name>
      <drawOrder>1</drawOrder>
      <Icon><href>https://tiles.ats.ucla.edu/tiles/Diepkloof_1961/13/4732/4714.png</href></Icon>
      <LatLonBox>
        <north>-26.194877</north>
        <south>-26.234302</south>
        <east>27.993164</east>
        <west>27.949219</west>
      </LatLonBox>
    </GroundOverlay>
    <GroundOverlay>
      <name>Diepkloof · raster tile 13/4731/4715</name>
      <drawOrder>1</drawOrder>
      <Icon><href>https://tiles.ats.ucla.edu/tiles/Diepkloof_1961/13/4731/4715.png</href></Icon>
      <LatLonBox>
        <north>-26.234302</north>
        <south>-26.273714</south>
        <east>27.949219</east>
        <west>27.905273</west>
      </LatLonBox>
    </GroundOverlay>
    <GroundOverlay>
      <name>Diepkloof · raster tile 13/4732/4715</name>
      <drawOrder>1</drawOrder>
      <Icon><href>https://tiles.ats.ucla.edu/tiles/Diepkloof_1961/13/4732/4715.png</href></Icon>
      <LatLonBox>
        <north>-26.234302</north>
        <south>-26.273714</south>
        <east>27.993164</east>
        <west>27.949219</west>
      </LatLonBox>
    </GroundOverlay>

  </Document>
</kml>