<?xml version="1.0" encoding="UTF-8"?>
<kml xmlns="http://www.opengis.net/kml/2.2">
  <Document>
    <name>Map of London</name>
    <description>Map of London, London, 1924. Map of London (1924). HyperCities Map Library.</description>
    <Style id="hypercities-footprint">
      <LineStyle><color>ff5e6ad6</color><width>2</width></LineStyle>
      <PolyStyle><color>285e6ad6</color><fill>1</fill><outline>1</outline></PolyStyle>
    </Style>

    <Placemark>
      <name>Map of London</name>
      <description>HyperCities Map Library footprint · London · 1924</description>
      <TimeSpan><begin>1924-01-01</begin><end>1924-12-31</end></TimeSpan>
      <ExtendedData>
      <Data name="mapId"><value>map:455</value></Data>
      <Data name="place"><value>London</value></Data>
      <Data name="years"><value>1924</value></Data>
      <Data name="sourceRecordId"><value>455</value></Data>
      <Data name="collection"><value></value></Data>
      <Data name="creator"><value></value></Data>
      <Data name="citation"><value>Map of London (1924). HyperCities Map Library.</value></Data>
      <Data name="tileTemplate"><value>https://tiles.ats.ucla.edu/tiles/London_1924/{z}/{x}/{y}.png</value></Data>
      <Data name="groundOverlayTiles"><value>Source XYZ tiles included as KML GroundOverlays at the recorded minimum zoom.</value></Data>
      <Data name="rasterAvailability"><value>Original XYZ tiles, rendered here as KML GroundOverlays at the recorded minimum zoom.</value></Data>
      <Data name="exportScope"><value>Georeferenced footprint, provenance, and a source-tile raster overview at the recorded minimum zoom.</value></Data>
      </ExtendedData>
      <styleUrl>#hypercities-footprint</styleUrl>
      <Polygon><tessellate>1</tessellate><outerBoundaryIs><LinearRing><coordinates>-0.219282,51.456858,0 -0.033634,51.456858,0 -0.033634,51.549698,0 -0.219282,51.549698,0 -0.219282,51.456858,0</coordinates></LinearRing></outerBoundaryIs></Polygon>
    </Placemark>
    <GroundOverlay>
      <name>Map of London · raster tile 11/1022/680</name>
      <drawOrder>1</drawOrder>
      <Icon><href>https://tiles.ats.ucla.edu/tiles/London_1924/11/1022/680.png</href></Icon>
      <LatLonBox>
        <north>51.618017</north>
        <south>51.508742</south>
        <east>-0.175781</east>
        <west>-0.351563</west>
      </LatLonBox>
    </GroundOverlay>
    <GroundOverlay>
      <name>Map of London · raster tile 11/1023/680</name>
      <drawOrder>1</drawOrder>
      <Icon><href>https://tiles.ats.ucla.edu/tiles/London_1924/11/1023/680.png</href></Icon>
      <LatLonBox>
        <north>51.618017</north>
        <south>51.508742</south>
        <east>0.000000</east>
        <west>-0.175781</west>
      </LatLonBox>
    </GroundOverlay>
    <GroundOverlay>
      <name>Map of London · raster tile 11/1022/681</name>
      <drawOrder>1</drawOrder>
      <Icon><href>https://tiles.ats.ucla.edu/tiles/London_1924/11/1022/681.png</href></Icon>
      <LatLonBox>
        <north>51.508742</north>
        <south>51.399206</south>
        <east>-0.175781</east>
        <west>-0.351563</west>
      </LatLonBox>
    </GroundOverlay>
    <GroundOverlay>
      <name>Map of London · raster tile 11/1023/681</name>
      <drawOrder>1</drawOrder>
      <Icon><href>https://tiles.ats.ucla.edu/tiles/London_1924/11/1023/681.png</href></Icon>
      <LatLonBox>
        <north>51.508742</north>
        <south>51.399206</south>
        <east>0.000000</east>
        <west>-0.175781</west>
      </LatLonBox>
    </GroundOverlay>

  </Document>
</kml>