<?xml version="1.0" encoding="UTF-8"?>
<kml xmlns="http://www.opengis.net/kml/2.2">
  <Document>
    <name>Yamato</name>
    <description>Yamato, Tokyo, 1696. Yamato (1696). HyperCities Map Library.</description>
    <Style id="hypercities-footprint">
      <LineStyle><color>ff5e6ad6</color><width>2</width></LineStyle>
      <PolyStyle><color>285e6ad6</color><fill>1</fill><outline>1</outline></PolyStyle>
    </Style>

    <Placemark>
      <name>Yamato</name>
      <description>HyperCities Map Library footprint · Tokyo · 1696</description>
      <TimeSpan><begin>1696-01-01</begin><end>1696-12-31</end></TimeSpan>
      <ExtendedData>
      <Data name="mapId"><value>map:458</value></Data>
      <Data name="place"><value>Tokyo</value></Data>
      <Data name="years"><value>1696</value></Data>
      <Data name="sourceRecordId"><value>458</value></Data>
      <Data name="collection"><value></value></Data>
      <Data name="creator"><value></value></Data>
      <Data name="citation"><value>Yamato (1696). HyperCities Map Library.</value></Data>
      <Data name="tileTemplate"><value>https://tiles.ats.ucla.edu/tiles/yamato_japan_1696/{z}/{x}/{y}.png</value></Data>
      <Data name="groundOverlayTiles"><value>Source XYZ tiles included as KML GroundOverlays at the recorded minimum zoom.</value></Data>
      <Data name="rasterAvailability"><value>Original XYZ tiles, rendered here as KML GroundOverlays at the recorded minimum zoom.</value></Data>
      <Data name="exportScope"><value>Georeferenced footprint, provenance, and a source-tile raster overview at the recorded minimum zoom.</value></Data>
      </ExtendedData>
      <styleUrl>#hypercities-footprint</styleUrl>
      <Polygon><tessellate>1</tessellate><outerBoundaryIs><LinearRing><coordinates>135.496198,33.818354,0 136.299928,33.818354,0 136.299928,34.777067,0 135.496198,34.777067,0 135.496198,33.818354,0</coordinates></LinearRing></outerBoundaryIs></Polygon>
    </Placemark>
    <GroundOverlay>
      <name>Yamato · raster tile 9/448/203</name>
      <drawOrder>1</drawOrder>
      <Icon><href>https://tiles.ats.ucla.edu/tiles/yamato_japan_1696/9/448/203.png</href></Icon>
      <LatLonBox>
        <north>34.885931</north>
        <south>34.307144</south>
        <east>135.703125</east>
        <west>135.000000</west>
      </LatLonBox>
    </GroundOverlay>
    <GroundOverlay>
      <name>Yamato · raster tile 9/449/203</name>
      <drawOrder>1</drawOrder>
      <Icon><href>https://tiles.ats.ucla.edu/tiles/yamato_japan_1696/9/449/203.png</href></Icon>
      <LatLonBox>
        <north>34.885931</north>
        <south>34.307144</south>
        <east>136.406250</east>
        <west>135.703125</west>
      </LatLonBox>
    </GroundOverlay>
    <GroundOverlay>
      <name>Yamato · raster tile 9/448/204</name>
      <drawOrder>1</drawOrder>
      <Icon><href>https://tiles.ats.ucla.edu/tiles/yamato_japan_1696/9/448/204.png</href></Icon>
      <LatLonBox>
        <north>34.307144</north>
        <south>33.724340</south>
        <east>135.703125</east>
        <west>135.000000</west>
      </LatLonBox>
    </GroundOverlay>
    <GroundOverlay>
      <name>Yamato · raster tile 9/449/204</name>
      <drawOrder>1</drawOrder>
      <Icon><href>https://tiles.ats.ucla.edu/tiles/yamato_japan_1696/9/449/204.png</href></Icon>
      <LatLonBox>
        <north>34.307144</north>
        <south>33.724340</south>
        <east>136.406250</east>
        <west>135.703125</west>
      </LatLonBox>
    </GroundOverlay>

  </Document>
</kml>