<?xml version="1.0" encoding="UTF-8"?>
<kml xmlns="http://www.opengis.net/kml/2.2">
  <Document>
    <name>Map of Staten Island, {Motanucke, Monocknong, Aquehonga, Eghquaous, Staaten Elant}</name>
    <description>Map of Staten Island, {Motanucke, Monocknong, Aquehonga, Eghquaous, Staaten Elant}, New York, 1896. Map of Staten Island, {Motanucke, Monocknong, Aquehonga, Eghquaous, Staaten Elant} (1896). HyperCities Map Library.</description>
    <Style id="hypercities-footprint">
      <LineStyle><color>ff5e6ad6</color><width>2</width></LineStyle>
      <PolyStyle><color>285e6ad6</color><fill>1</fill><outline>1</outline></PolyStyle>
    </Style>

    <Placemark>
      <name>Map of Staten Island, {Motanucke, Monocknong, Aquehonga, Eghquaous, Staaten Elant}</name>
      <description>HyperCities Map Library footprint · New York · 1896</description>
      <TimeSpan><begin>1896-01-01</begin><end>1896-12-31</end></TimeSpan>
      <ExtendedData>
      <Data name="mapId"><value>map:88</value></Data>
      <Data name="place"><value>New York</value></Data>
      <Data name="years"><value>1896</value></Data>
      <Data name="sourceRecordId"><value>88</value></Data>
      <Data name="collection"><value></value></Data>
      <Data name="creator"><value>Charles W. Leng</value></Data>
      <Data name="citation"><value>Map of Staten Island, {Motanucke, Monocknong, Aquehonga, Eghquaous, Staaten Elant} (1896). HyperCities Map Library.</value></Data>
      <Data name="tileTemplate"><value>https://tiles.ats.ucla.edu/tiles/NewYork_1896_Staten/{z}/{x}/{y}.png</value></Data>
      <Data name="groundOverlayTiles"><value>Source XYZ tiles included as KML GroundOverlays at the recorded minimum zoom.</value></Data>
      <Data name="rasterAvailability"><value>Original XYZ tiles, rendered here as KML GroundOverlays at the recorded minimum zoom.</value></Data>
      <Data name="exportScope"><value>Georeferenced footprint, provenance, and a source-tile raster overview at the recorded minimum zoom.</value></Data>
      </ExtendedData>
      <styleUrl>#hypercities-footprint</styleUrl>
      <Polygon><tessellate>1</tessellate><outerBoundaryIs><LinearRing><coordinates>-74.331686,40.443611,0 -73.988544,40.443611,0 -73.988544,40.70612,0 -74.331686,40.70612,0 -74.331686,40.443611,0</coordinates></LinearRing></outerBoundaryIs></Polygon>
    </Placemark>
    <GroundOverlay>
      <name>Map of Staten Island, {Motanucke, Monocknong, Aquehonga, Eghquaous, Staaten Elant} · raster tile 10/300/385</name>
      <drawOrder>1</drawOrder>
      <Icon><href>https://tiles.ats.ucla.edu/tiles/NewYork_1896_Staten/10/300/385.png</href></Icon>
      <LatLonBox>
        <north>40.713956</north>
        <south>40.446947</south>
        <east>-74.179688</east>
        <west>-74.531250</west>
      </LatLonBox>
    </GroundOverlay>
    <GroundOverlay>
      <name>Map of Staten Island, {Motanucke, Monocknong, Aquehonga, Eghquaous, Staaten Elant} · raster tile 10/301/385</name>
      <drawOrder>1</drawOrder>
      <Icon><href>https://tiles.ats.ucla.edu/tiles/NewYork_1896_Staten/10/301/385.png</href></Icon>
      <LatLonBox>
        <north>40.713956</north>
        <south>40.446947</south>
        <east>-73.828125</east>
        <west>-74.179688</west>
      </LatLonBox>
    </GroundOverlay>
    <GroundOverlay>
      <name>Map of Staten Island, {Motanucke, Monocknong, Aquehonga, Eghquaous, Staaten Elant} · raster tile 10/300/386</name>
      <drawOrder>1</drawOrder>
      <Icon><href>https://tiles.ats.ucla.edu/tiles/NewYork_1896_Staten/10/300/386.png</href></Icon>
      <LatLonBox>
        <north>40.446947</north>
        <south>40.178873</south>
        <east>-74.179688</east>
        <west>-74.531250</west>
      </LatLonBox>
    </GroundOverlay>
    <GroundOverlay>
      <name>Map of Staten Island, {Motanucke, Monocknong, Aquehonga, Eghquaous, Staaten Elant} · raster tile 10/301/386</name>
      <drawOrder>1</drawOrder>
      <Icon><href>https://tiles.ats.ucla.edu/tiles/NewYork_1896_Staten/10/301/386.png</href></Icon>
      <LatLonBox>
        <north>40.446947</north>
        <south>40.178873</south>
        <east>-73.828125</east>
        <west>-74.179688</west>
      </LatLonBox>
    </GroundOverlay>

  </Document>
</kml>