<?xml version="1.0" encoding="UTF-8"?>
<kml xmlns="http://www.opengis.net/kml/2.2">
  <Document>
    <name>Map of the City of New York showing the original high water line and the location of the different farms and estates</name>
    <description>Map of the City of New York showing the original high water line and the location of the different farms and estates, New York, 1853. Map of the City of New York showing the original high water line and the location of the different farms and estates (1853). HyperCities Map Library.</description>
    <Style id="hypercities-footprint">
      <LineStyle><color>ff5e6ad6</color><width>2</width></LineStyle>
      <PolyStyle><color>285e6ad6</color><fill>1</fill><outline>1</outline></PolyStyle>
    </Style>

    <Placemark>
      <name>Map of the City of New York showing the original high water line and the location of the different farms and estates</name>
      <description>HyperCities Map Library footprint · New York · 1853</description>
      <TimeSpan><begin>1853-01-01</begin><end>1853-12-31</end></TimeSpan>
      <ExtendedData>
      <Data name="mapId"><value>map:102</value></Data>
      <Data name="place"><value>New York</value></Data>
      <Data name="years"><value>1853</value></Data>
      <Data name="sourceRecordId"><value>102</value></Data>
      <Data name="collection"><value></value></Data>
      <Data name="creator"><value>Geo. Hayward</value></Data>
      <Data name="citation"><value>Map of the City of New York showing the original high water line and the location of the different farms and estates (1853). HyperCities Map Library.</value></Data>
      <Data name="tileTemplate"><value>https://tiles.ats.ucla.edu/tiles/NewYork_1853/{z}/{x}/{y}.png</value></Data>
      <Data name="groundOverlayTiles"><value>Source XYZ tiles included as KML GroundOverlays at the recorded minimum zoom.</value></Data>
      <Data name="rasterAvailability"><value>Original XYZ tiles, rendered here as KML GroundOverlays at the recorded minimum zoom.</value></Data>
      <Data name="exportScope"><value>Georeferenced footprint, provenance, and a source-tile raster overview at the recorded minimum zoom.</value></Data>
      </ExtendedData>
      <styleUrl>#hypercities-footprint</styleUrl>
      <Polygon><tessellate>1</tessellate><outerBoundaryIs><LinearRing><coordinates>-74.022192,40.690985,0 -73.957405,40.690985,0 -73.957405,40.759338,0 -74.022192,40.759338,0 -74.022192,40.690985,0</coordinates></LinearRing></outerBoundaryIs></Polygon>
    </Placemark>
    <GroundOverlay>
      <name>Map of the City of New York showing the original high water line and the location of the different farms and estates · raster tile 13/2411/3078</name>
      <drawOrder>1</drawOrder>
      <Icon><href>https://tiles.ats.ucla.edu/tiles/NewYork_1853/13/2411/3078.png</href></Icon>
      <LatLonBox>
        <north>40.780541</north>
        <south>40.747257</south>
        <east>-74.003906</east>
        <west>-74.047852</west>
      </LatLonBox>
    </GroundOverlay>
    <GroundOverlay>
      <name>Map of the City of New York showing the original high water line and the location of the different farms and estates · raster tile 13/2412/3078</name>
      <drawOrder>1</drawOrder>
      <Icon><href>https://tiles.ats.ucla.edu/tiles/NewYork_1853/13/2412/3078.png</href></Icon>
      <LatLonBox>
        <north>40.780541</north>
        <south>40.747257</south>
        <east>-73.959961</east>
        <west>-74.003906</west>
      </LatLonBox>
    </GroundOverlay>
    <GroundOverlay>
      <name>Map of the City of New York showing the original high water line and the location of the different farms and estates · raster tile 13/2413/3078</name>
      <drawOrder>1</drawOrder>
      <Icon><href>https://tiles.ats.ucla.edu/tiles/NewYork_1853/13/2413/3078.png</href></Icon>
      <LatLonBox>
        <north>40.780541</north>
        <south>40.747257</south>
        <east>-73.916016</east>
        <west>-73.959961</west>
      </LatLonBox>
    </GroundOverlay>
    <GroundOverlay>
      <name>Map of the City of New York showing the original high water line and the location of the different farms and estates · raster tile 13/2411/3079</name>
      <drawOrder>1</drawOrder>
      <Icon><href>https://tiles.ats.ucla.edu/tiles/NewYork_1853/13/2411/3079.png</href></Icon>
      <LatLonBox>
        <north>40.747257</north>
        <south>40.713956</south>
        <east>-74.003906</east>
        <west>-74.047852</west>
      </LatLonBox>
    </GroundOverlay>
    <GroundOverlay>
      <name>Map of the City of New York showing the original high water line and the location of the different farms and estates · raster tile 13/2412/3079</name>
      <drawOrder>1</drawOrder>
      <Icon><href>https://tiles.ats.ucla.edu/tiles/NewYork_1853/13/2412/3079.png</href></Icon>
      <LatLonBox>
        <north>40.747257</north>
        <south>40.713956</south>
        <east>-73.959961</east>
        <west>-74.003906</west>
      </LatLonBox>
    </GroundOverlay>
    <GroundOverlay>
      <name>Map of the City of New York showing the original high water line and the location of the different farms and estates · raster tile 13/2413/3079</name>
      <drawOrder>1</drawOrder>
      <Icon><href>https://tiles.ats.ucla.edu/tiles/NewYork_1853/13/2413/3079.png</href></Icon>
      <LatLonBox>
        <north>40.747257</north>
        <south>40.713956</south>
        <east>-73.916016</east>
        <west>-73.959961</west>
      </LatLonBox>
    </GroundOverlay>
    <GroundOverlay>
      <name>Map of the City of New York showing the original high water line and the location of the different farms and estates · raster tile 13/2411/3080</name>
      <drawOrder>1</drawOrder>
      <Icon><href>https://tiles.ats.ucla.edu/tiles/NewYork_1853/13/2411/3080.png</href></Icon>
      <LatLonBox>
        <north>40.713956</north>
        <south>40.680638</south>
        <east>-74.003906</east>
        <west>-74.047852</west>
      </LatLonBox>
    </GroundOverlay>
    <GroundOverlay>
      <name>Map of the City of New York showing the original high water line and the location of the different farms and estates · raster tile 13/2412/3080</name>
      <drawOrder>1</drawOrder>
      <Icon><href>https://tiles.ats.ucla.edu/tiles/NewYork_1853/13/2412/3080.png</href></Icon>
      <LatLonBox>
        <north>40.713956</north>
        <south>40.680638</south>
        <east>-73.959961</east>
        <west>-74.003906</west>
      </LatLonBox>
    </GroundOverlay>
    <GroundOverlay>
      <name>Map of the City of New York showing the original high water line and the location of the different farms and estates · raster tile 13/2413/3080</name>
      <drawOrder>1</drawOrder>
      <Icon><href>https://tiles.ats.ucla.edu/tiles/NewYork_1853/13/2413/3080.png</href></Icon>
      <LatLonBox>
        <north>40.713956</north>
        <south>40.680638</south>
        <east>-73.916016</east>
        <west>-73.959961</west>
      </LatLonBox>
    </GroundOverlay>

  </Document>
</kml>