<?xml version="1.0" encoding="UTF-8"?>
<kml xmlns="http://www.opengis.net/kml/2.2">
  <Document>
    <name>Walter Map Full</name>
    <description>Walter Map Full, Berlin, 1739. Walter Map Full (1739). HyperCities Map Library.</description>
    <Style id="hypercities-footprint">
      <LineStyle><color>ff5e6ad6</color><width>2</width></LineStyle>
      <PolyStyle><color>285e6ad6</color><fill>1</fill><outline>1</outline></PolyStyle>
    </Style>

    <Placemark>
      <name>Walter Map Full</name>
      <description>HyperCities Map Library footprint · Berlin · 1739</description>
      <TimeSpan><begin>1739-01-01</begin><end>1739-12-31</end></TimeSpan>
      <ExtendedData>
      <Data name="mapId"><value>map:397</value></Data>
      <Data name="place"><value>Berlin</value></Data>
      <Data name="years"><value>1739</value></Data>
      <Data name="sourceRecordId"><value>397</value></Data>
      <Data name="collection"><value></value></Data>
      <Data name="creator"><value></value></Data>
      <Data name="citation"><value>Walter Map Full (1739). HyperCities Map Library.</value></Data>
      <Data name="tileTemplate"><value>https://tiles.ats.ucla.edu/tiles/1739_Walter_Map_Full_Final/{z}/{x}/{y}.png</value></Data>
      <Data name="groundOverlayTiles"><value>Source XYZ tiles included as KML GroundOverlays at the recorded minimum zoom.</value></Data>
      <Data name="rasterAvailability"><value>Original XYZ tiles, rendered here as KML GroundOverlays at the recorded minimum zoom.</value></Data>
      <Data name="exportScope"><value>Georeferenced footprint, provenance, and a source-tile raster overview at the recorded minimum zoom.</value></Data>
      </ExtendedData>
      <styleUrl>#hypercities-footprint</styleUrl>
      <Polygon><tessellate>1</tessellate><outerBoundaryIs><LinearRing><coordinates>13.357086,52.491128,0 13.458005,52.491128,0 13.458005,52.545836,0 13.357086,52.545836,0 13.357086,52.491128,0</coordinates></LinearRing></outerBoundaryIs></Polygon>
    </Placemark>
    <GroundOverlay>
      <name>Walter Map Full · raster tile 12/2199/1342</name>
      <drawOrder>1</drawOrder>
      <Icon><href>https://tiles.ats.ucla.edu/tiles/1739_Walter_Map_Full_Final/12/2199/1342.png</href></Icon>
      <LatLonBox>
        <north>52.589701</north>
        <south>52.536273</south>
        <east>13.359375</east>
        <west>13.271484</west>
      </LatLonBox>
    </GroundOverlay>
    <GroundOverlay>
      <name>Walter Map Full · raster tile 12/2200/1342</name>
      <drawOrder>1</drawOrder>
      <Icon><href>https://tiles.ats.ucla.edu/tiles/1739_Walter_Map_Full_Final/12/2200/1342.png</href></Icon>
      <LatLonBox>
        <north>52.589701</north>
        <south>52.536273</south>
        <east>13.447266</east>
        <west>13.359375</west>
      </LatLonBox>
    </GroundOverlay>
    <GroundOverlay>
      <name>Walter Map Full · raster tile 12/2201/1342</name>
      <drawOrder>1</drawOrder>
      <Icon><href>https://tiles.ats.ucla.edu/tiles/1739_Walter_Map_Full_Final/12/2201/1342.png</href></Icon>
      <LatLonBox>
        <north>52.589701</north>
        <south>52.536273</south>
        <east>13.535156</east>
        <west>13.447266</west>
      </LatLonBox>
    </GroundOverlay>
    <GroundOverlay>
      <name>Walter Map Full · raster tile 12/2199/1343</name>
      <drawOrder>1</drawOrder>
      <Icon><href>https://tiles.ats.ucla.edu/tiles/1739_Walter_Map_Full_Final/12/2199/1343.png</href></Icon>
      <LatLonBox>
        <north>52.536273</north>
        <south>52.482780</south>
        <east>13.359375</east>
        <west>13.271484</west>
      </LatLonBox>
    </GroundOverlay>
    <GroundOverlay>
      <name>Walter Map Full · raster tile 12/2200/1343</name>
      <drawOrder>1</drawOrder>
      <Icon><href>https://tiles.ats.ucla.edu/tiles/1739_Walter_Map_Full_Final/12/2200/1343.png</href></Icon>
      <LatLonBox>
        <north>52.536273</north>
        <south>52.482780</south>
        <east>13.447266</east>
        <west>13.359375</west>
      </LatLonBox>
    </GroundOverlay>
    <GroundOverlay>
      <name>Walter Map Full · raster tile 12/2201/1343</name>
      <drawOrder>1</drawOrder>
      <Icon><href>https://tiles.ats.ucla.edu/tiles/1739_Walter_Map_Full_Final/12/2201/1343.png</href></Icon>
      <LatLonBox>
        <north>52.536273</north>
        <south>52.482780</south>
        <east>13.535156</east>
        <west>13.447266</west>
      </LatLonBox>
    </GroundOverlay>

  </Document>
</kml>