<?xml version="1.0" encoding="UTF-8"?>
<kml xmlns="http://www.opengis.net/kml/2.2">
  <Document>
    <name>Map of Tokyo (1930)</name>
    <description>Map of Tokyo (1930), Tokyo, 1930. Map of Tokyo (1930) (1930). HyperCities Map Library.</description>
    <Style id="hypercities-footprint">
      <LineStyle><color>ff5e6ad6</color><width>2</width></LineStyle>
      <PolyStyle><color>285e6ad6</color><fill>1</fill><outline>1</outline></PolyStyle>
    </Style>

    <Placemark>
      <name>Map of Tokyo (1930)</name>
      <description>HyperCities Map Library footprint · Tokyo · 1930</description>
      <TimeSpan><begin>1930-01-01</begin><end>1930-12-31</end></TimeSpan>
      <ExtendedData>
      <Data name="mapId"><value>map:190</value></Data>
      <Data name="place"><value>Tokyo</value></Data>
      <Data name="years"><value>1930</value></Data>
      <Data name="sourceRecordId"><value>190</value></Data>
      <Data name="collection"><value></value></Data>
      <Data name="creator"><value></value></Data>
      <Data name="citation"><value>Map of Tokyo (1930) (1930). HyperCities Map Library.</value></Data>
      <Data name="tileTemplate"><value>https://tiles.ats.ucla.edu/tiles/Tokyo_1930/{z}/{x}/{y}.png</value></Data>
      <Data name="groundOverlayTiles"><value>Source XYZ tiles included as KML GroundOverlays at the recorded minimum zoom.</value></Data>
      <Data name="rasterAvailability"><value>Original XYZ tiles, rendered here as KML GroundOverlays at the recorded minimum zoom.</value></Data>
      <Data name="exportScope"><value>Georeferenced footprint, provenance, and a source-tile raster overview at the recorded minimum zoom.</value></Data>
      </ExtendedData>
      <styleUrl>#hypercities-footprint</styleUrl>
      <Polygon><tessellate>1</tessellate><outerBoundaryIs><LinearRing><coordinates>139.669729,35.590594,0 139.85108,35.590594,0 139.85108,35.777973,0 139.669729,35.777973,0 139.669729,35.590594,0</coordinates></LinearRing></outerBoundaryIs></Polygon>
    </Placemark>
    <GroundOverlay>
      <name>Map of Tokyo (1930) · raster tile 11/1818/805</name>
      <drawOrder>1</drawOrder>
      <Icon><href>https://tiles.ats.ucla.edu/tiles/Tokyo_1930/11/1818/805.png</href></Icon>
      <LatLonBox>
        <north>35.889050</north>
        <south>35.746512</south>
        <east>139.746094</east>
        <west>139.570313</west>
      </LatLonBox>
    </GroundOverlay>
    <GroundOverlay>
      <name>Map of Tokyo (1930) · raster tile 11/1819/805</name>
      <drawOrder>1</drawOrder>
      <Icon><href>https://tiles.ats.ucla.edu/tiles/Tokyo_1930/11/1819/805.png</href></Icon>
      <LatLonBox>
        <north>35.889050</north>
        <south>35.746512</south>
        <east>139.921875</east>
        <west>139.746094</west>
      </LatLonBox>
    </GroundOverlay>
    <GroundOverlay>
      <name>Map of Tokyo (1930) · raster tile 11/1818/806</name>
      <drawOrder>1</drawOrder>
      <Icon><href>https://tiles.ats.ucla.edu/tiles/Tokyo_1930/11/1818/806.png</href></Icon>
      <LatLonBox>
        <north>35.746512</north>
        <south>35.603719</south>
        <east>139.746094</east>
        <west>139.570313</west>
      </LatLonBox>
    </GroundOverlay>
    <GroundOverlay>
      <name>Map of Tokyo (1930) · raster tile 11/1819/806</name>
      <drawOrder>1</drawOrder>
      <Icon><href>https://tiles.ats.ucla.edu/tiles/Tokyo_1930/11/1819/806.png</href></Icon>
      <LatLonBox>
        <north>35.746512</north>
        <south>35.603719</south>
        <east>139.921875</east>
        <west>139.746094</west>
      </LatLonBox>
    </GroundOverlay>
    <GroundOverlay>
      <name>Map of Tokyo (1930) · raster tile 11/1818/807</name>
      <drawOrder>1</drawOrder>
      <Icon><href>https://tiles.ats.ucla.edu/tiles/Tokyo_1930/11/1818/807.png</href></Icon>
      <LatLonBox>
        <north>35.603719</north>
        <south>35.460670</south>
        <east>139.746094</east>
        <west>139.570313</west>
      </LatLonBox>
    </GroundOverlay>
    <GroundOverlay>
      <name>Map of Tokyo (1930) · raster tile 11/1819/807</name>
      <drawOrder>1</drawOrder>
      <Icon><href>https://tiles.ats.ucla.edu/tiles/Tokyo_1930/11/1819/807.png</href></Icon>
      <LatLonBox>
        <north>35.603719</north>
        <south>35.460670</south>
        <east>139.921875</east>
        <west>139.746094</west>
      </LatLonBox>
    </GroundOverlay>

  </Document>
</kml>