<?xml version="1.0" encoding="UTF-8"?>
<kml xmlns="http://www.opengis.net/kml/2.2">
  <Document>
    <name>A Walk With The Dead: Funerary Route</name>
    <description>A Walk With The Dead: Funerary Route, Rome, 211. A Walk With The Dead: Funerary Route (211). HyperCities Map Library.</description>
    <Style id="hypercities-footprint">
      <LineStyle><color>ff5e6ad6</color><width>2</width></LineStyle>
      <PolyStyle><color>285e6ad6</color><fill>1</fill><outline>1</outline></PolyStyle>
    </Style>

    <Placemark>
      <name>A Walk With The Dead: Funerary Route</name>
      <description>HyperCities Map Library footprint · Rome · 211</description>
      <TimeSpan><begin>211-01-01</begin><end>211-12-31</end></TimeSpan>
      <ExtendedData>
      <Data name="mapId"><value>map:206</value></Data>
      <Data name="place"><value>Rome</value></Data>
      <Data name="years"><value>211</value></Data>
      <Data name="sourceRecordId"><value>206</value></Data>
      <Data name="collection"><value></value></Data>
      <Data name="creator"><value></value></Data>
      <Data name="citation"><value>A Walk With The Dead: Funerary Route (211). HyperCities Map Library.</value></Data>
      <Data name="tileTemplate"><value>https://tiles.ats.ucla.edu/tiles/AWalkWithTheDeadFinalGeoref/{z}/{x}/{y}.png</value></Data>
      <Data name="groundOverlayTiles"><value>Source XYZ tiles included as KML GroundOverlays at the recorded minimum zoom.</value></Data>
      <Data name="rasterAvailability"><value>Original XYZ tiles, rendered here as KML GroundOverlays at the recorded minimum zoom.</value></Data>
      <Data name="exportScope"><value>Georeferenced footprint, provenance, and a source-tile raster overview at the recorded minimum zoom.</value></Data>
      </ExtendedData>
      <styleUrl>#hypercities-footprint</styleUrl>
      <Polygon><tessellate>1</tessellate><outerBoundaryIs><LinearRing><coordinates>12.427708,41.820235,0 12.557844,41.820235,0 12.557844,41.907732,0 12.427708,41.907732,0 12.427708,41.820235,0</coordinates></LinearRing></outerBoundaryIs></Polygon>
    </Placemark>
    <GroundOverlay>
      <name>A Walk With The Dead: Funerary Route · raster tile 11/1094/760</name>
      <drawOrder>1</drawOrder>
      <Icon><href>https://tiles.ats.ucla.edu/tiles/AWalkWithTheDeadFinalGeoref/11/1094/760.png</href></Icon>
      <LatLonBox>
        <north>42.032974</north>
        <south>41.902277</south>
        <east>12.480469</east>
        <west>12.304688</west>
      </LatLonBox>
    </GroundOverlay>
    <GroundOverlay>
      <name>A Walk With The Dead: Funerary Route · raster tile 11/1095/760</name>
      <drawOrder>1</drawOrder>
      <Icon><href>https://tiles.ats.ucla.edu/tiles/AWalkWithTheDeadFinalGeoref/11/1095/760.png</href></Icon>
      <LatLonBox>
        <north>42.032974</north>
        <south>41.902277</south>
        <east>12.656250</east>
        <west>12.480469</west>
      </LatLonBox>
    </GroundOverlay>
    <GroundOverlay>
      <name>A Walk With The Dead: Funerary Route · raster tile 11/1094/761</name>
      <drawOrder>1</drawOrder>
      <Icon><href>https://tiles.ats.ucla.edu/tiles/AWalkWithTheDeadFinalGeoref/11/1094/761.png</href></Icon>
      <LatLonBox>
        <north>41.902277</north>
        <south>41.771312</south>
        <east>12.480469</east>
        <west>12.304688</west>
      </LatLonBox>
    </GroundOverlay>
    <GroundOverlay>
      <name>A Walk With The Dead: Funerary Route · raster tile 11/1095/761</name>
      <drawOrder>1</drawOrder>
      <Icon><href>https://tiles.ats.ucla.edu/tiles/AWalkWithTheDeadFinalGeoref/11/1095/761.png</href></Icon>
      <LatLonBox>
        <north>41.902277</north>
        <south>41.771312</south>
        <east>12.656250</east>
        <west>12.480469</west>
      </LatLonBox>
    </GroundOverlay>

  </Document>
</kml>