<?xml version="1.0" encoding="UTF-8"?>
<kml xmlns="http://www.opengis.net/kml/2.2">
  <Document>
    <name>Map of Rome (1763)</name>
    <description>Map of Rome (1763), Rome, 1763. Map of Rome (1763) (1763). HyperCities Map Library.</description>
    <Style id="hypercities-footprint">
      <LineStyle><color>ff5e6ad6</color><width>2</width></LineStyle>
      <PolyStyle><color>285e6ad6</color><fill>1</fill><outline>1</outline></PolyStyle>
    </Style>

    <Placemark>
      <name>Map of Rome (1763)</name>
      <description>HyperCities Map Library footprint · Rome · 1763</description>
      <TimeSpan><begin>1763-01-01</begin><end>1763-12-31</end></TimeSpan>
      <ExtendedData>
      <Data name="mapId"><value>map:133</value></Data>
      <Data name="place"><value>Rome</value></Data>
      <Data name="years"><value>1763</value></Data>
      <Data name="sourceRecordId"><value>133</value></Data>
      <Data name="collection"><value></value></Data>
      <Data name="creator"><value></value></Data>
      <Data name="citation"><value>Map of Rome (1763) (1763). HyperCities Map Library.</value></Data>
      <Data name="tileTemplate"><value>https://tiles.ats.ucla.edu/tiles/Rome_1763_Venuti/{z}/{x}/{y}.png</value></Data>
      <Data name="groundOverlayTiles"><value>Source XYZ tiles included as KML GroundOverlays at the recorded minimum zoom.</value></Data>
      <Data name="rasterAvailability"><value>Original XYZ tiles, rendered here as KML GroundOverlays at the recorded minimum zoom.</value></Data>
      <Data name="exportScope"><value>Georeferenced footprint, provenance, and a source-tile raster overview at the recorded minimum zoom.</value></Data>
      </ExtendedData>
      <styleUrl>#hypercities-footprint</styleUrl>
      <Polygon><tessellate>1</tessellate><outerBoundaryIs><LinearRing><coordinates>12.442504,41.859503,0 12.537563,41.859503,0 12.537563,41.926829,0 12.442504,41.926829,0 12.442504,41.859503,0</coordinates></LinearRing></outerBoundaryIs></Polygon>
    </Placemark>
    <GroundOverlay>
      <name>Map of Rome (1763) · raster tile 11/1094/760</name>
      <drawOrder>1</drawOrder>
      <Icon><href>https://tiles.ats.ucla.edu/tiles/Rome_1763_Venuti/11/1094/760.png</href></Icon>
      <LatLonBox>
        <north>42.032974</north>
        <south>41.902277</south>
        <east>12.480469</east>
        <west>12.304688</west>
      </LatLonBox>
    </GroundOverlay>
    <GroundOverlay>
      <name>Map of Rome (1763) · raster tile 11/1095/760</name>
      <drawOrder>1</drawOrder>
      <Icon><href>https://tiles.ats.ucla.edu/tiles/Rome_1763_Venuti/11/1095/760.png</href></Icon>
      <LatLonBox>
        <north>42.032974</north>
        <south>41.902277</south>
        <east>12.656250</east>
        <west>12.480469</west>
      </LatLonBox>
    </GroundOverlay>
    <GroundOverlay>
      <name>Map of Rome (1763) · raster tile 11/1094/761</name>
      <drawOrder>1</drawOrder>
      <Icon><href>https://tiles.ats.ucla.edu/tiles/Rome_1763_Venuti/11/1094/761.png</href></Icon>
      <LatLonBox>
        <north>41.902277</north>
        <south>41.771312</south>
        <east>12.480469</east>
        <west>12.304688</west>
      </LatLonBox>
    </GroundOverlay>
    <GroundOverlay>
      <name>Map of Rome (1763) · raster tile 11/1095/761</name>
      <drawOrder>1</drawOrder>
      <Icon><href>https://tiles.ats.ucla.edu/tiles/Rome_1763_Venuti/11/1095/761.png</href></Icon>
      <LatLonBox>
        <north>41.902277</north>
        <south>41.771312</south>
        <east>12.656250</east>
        <west>12.480469</west>
      </LatLonBox>
    </GroundOverlay>

  </Document>
</kml>