<?xml version="1.0" encoding="UTF-8"?>
<kml xmlns="http://www.opengis.net/kml/2.2">
  <Document>
    <name>NYC 5 Boroughs Income Distribution Map</name>
    <description>NYC 5 Boroughs Income Distribution Map, New York, 1990. NYC 5 Boroughs Income Distribution Map (1990). HyperCities Map Library. Seymour B. Durst Old York Library and Reading Room at The Graduate Center of The City University of New York.</description>
    <Style id="hypercities-footprint">
      <LineStyle><color>ff5e6ad6</color><width>2</width></LineStyle>
      <PolyStyle><color>285e6ad6</color><fill>1</fill><outline>1</outline></PolyStyle>
    </Style>

    <Placemark>
      <name>NYC 5 Boroughs Income Distribution Map</name>
      <description>HyperCities Map Library footprint · New York · 1990</description>
      <TimeSpan><begin>1990-01-01</begin><end>1990-12-31</end></TimeSpan>
      <ExtendedData>
      <Data name="mapId"><value>map:99</value></Data>
      <Data name="place"><value>New York</value></Data>
      <Data name="years"><value>1990</value></Data>
      <Data name="sourceRecordId"><value>99</value></Data>
      <Data name="collection"><value>Seymour B. Durst Old York Library and Reading Room at The Graduate Center of The City University of New York</value></Data>
      <Data name="creator"><value>Produced by the Cartographic Devision National Geographic Society. National Geographic Magazine, John B. Carver., JR., Chief Cartographer</value></Data>
      <Data name="citation"><value>NYC 5 Boroughs Income Distribution Map (1990). HyperCities Map Library. Seymour B. Durst Old York Library and Reading Room at The Graduate Center of The City University of New York.</value></Data>
      <Data name="tileTemplate"><value>https://tiles.ats.ucla.edu/tiles/NewYork_1990_Income/{z}/{x}/{y}.png</value></Data>
      <Data name="groundOverlayTiles"><value>Source XYZ tiles included as KML GroundOverlays at the recorded minimum zoom.</value></Data>
      <Data name="rasterAvailability"><value>Original XYZ tiles, rendered here as KML GroundOverlays at the recorded minimum zoom.</value></Data>
      <Data name="exportScope"><value>Georeferenced footprint, provenance, and a source-tile raster overview at the recorded minimum zoom.</value></Data>
      </ExtendedData>
      <styleUrl>#hypercities-footprint</styleUrl>
      <Polygon><tessellate>1</tessellate><outerBoundaryIs><LinearRing><coordinates>-74.269207,40.412224,0 -73.687063,40.412224,0 -73.687063,40.921,0 -74.269207,40.921,0 -74.269207,40.412224,0</coordinates></LinearRing></outerBoundaryIs></Polygon>
    </Placemark>
    <GroundOverlay>
      <name>NYC 5 Boroughs Income Distribution Map · raster tile 9/150/192</name>
      <drawOrder>1</drawOrder>
      <Icon><href>https://tiles.ats.ucla.edu/tiles/NewYork_1990_Income/9/150/192.png</href></Icon>
      <LatLonBox>
        <north>40.979898</north>
        <south>40.446947</south>
        <east>-73.828125</east>
        <west>-74.531250</west>
      </LatLonBox>
    </GroundOverlay>
    <GroundOverlay>
      <name>NYC 5 Boroughs Income Distribution Map · raster tile 9/151/192</name>
      <drawOrder>1</drawOrder>
      <Icon><href>https://tiles.ats.ucla.edu/tiles/NewYork_1990_Income/9/151/192.png</href></Icon>
      <LatLonBox>
        <north>40.979898</north>
        <south>40.446947</south>
        <east>-73.125000</east>
        <west>-73.828125</west>
      </LatLonBox>
    </GroundOverlay>
    <GroundOverlay>
      <name>NYC 5 Boroughs Income Distribution Map · raster tile 9/150/193</name>
      <drawOrder>1</drawOrder>
      <Icon><href>https://tiles.ats.ucla.edu/tiles/NewYork_1990_Income/9/150/193.png</href></Icon>
      <LatLonBox>
        <north>40.446947</north>
        <south>39.909736</south>
        <east>-73.828125</east>
        <west>-74.531250</west>
      </LatLonBox>
    </GroundOverlay>
    <GroundOverlay>
      <name>NYC 5 Boroughs Income Distribution Map · raster tile 9/151/193</name>
      <drawOrder>1</drawOrder>
      <Icon><href>https://tiles.ats.ucla.edu/tiles/NewYork_1990_Income/9/151/193.png</href></Icon>
      <LatLonBox>
        <north>40.446947</north>
        <south>39.909736</south>
        <east>-73.125000</east>
        <west>-73.828125</west>
      </LatLonBox>
    </GroundOverlay>

  </Document>
</kml>