<?xml version="1.0" encoding="UTF-8"?>
<kml xmlns="http://www.opengis.net/kml/2.2">
  <Document>
    <name>Heart of Downtown</name>
    <description>Heart of Downtown, Los Angeles, 1925. Heart of Downtown (1925). HyperCities Map Library.</description>
    <Style id="hypercities-footprint">
      <LineStyle><color>ff5e6ad6</color><width>2</width></LineStyle>
      <PolyStyle><color>285e6ad6</color><fill>1</fill><outline>1</outline></PolyStyle>
    </Style>

    <Placemark>
      <name>Heart of Downtown</name>
      <description>HyperCities Map Library footprint · Los Angeles · 1925</description>
      <TimeSpan><begin>1925-01-01</begin><end>1925-12-31</end></TimeSpan>
      <ExtendedData>
      <Data name="mapId"><value>map:468</value></Data>
      <Data name="place"><value>Los Angeles</value></Data>
      <Data name="years"><value>1925</value></Data>
      <Data name="sourceRecordId"><value>468</value></Data>
      <Data name="collection"><value></value></Data>
      <Data name="creator"><value></value></Data>
      <Data name="citation"><value>Heart of Downtown (1925). HyperCities Map Library.</value></Data>
      <Data name="tileTemplate"><value>https://tiles.ats.ucla.edu/tiles/LA_1925_HeartofDowntownFinal/{z}/{x}/{y}.png</value></Data>
      <Data name="groundOverlayTiles"><value>Source XYZ tiles included as KML GroundOverlays at the recorded minimum zoom.</value></Data>
      <Data name="rasterAvailability"><value>Original XYZ tiles, rendered here as KML GroundOverlays at the recorded minimum zoom.</value></Data>
      <Data name="exportScope"><value>Georeferenced footprint, provenance, and a source-tile raster overview at the recorded minimum zoom.</value></Data>
      </ExtendedData>
      <styleUrl>#hypercities-footprint</styleUrl>
      <Polygon><tessellate>1</tessellate><outerBoundaryIs><LinearRing><coordinates>-118.270255,34.029976,0 -118.234123,34.029976,0 -118.234123,34.061789,0 -118.270255,34.061789,0 -118.270255,34.029976,0</coordinates></LinearRing></outerBoundaryIs></Polygon>
    </Placemark>
    <GroundOverlay>
      <name>Heart of Downtown · raster tile 13/1404/3270</name>
      <drawOrder>1</drawOrder>
      <Icon><href>https://tiles.ats.ucla.edu/tiles/LA_1925_HeartofDowntownFinal/13/1404/3270.png</href></Icon>
      <LatLonBox>
        <north>34.089061</north>
        <south>34.052659</south>
        <east>-118.256836</east>
        <west>-118.300781</west>
      </LatLonBox>
    </GroundOverlay>
    <GroundOverlay>
      <name>Heart of Downtown · raster tile 13/1405/3270</name>
      <drawOrder>1</drawOrder>
      <Icon><href>https://tiles.ats.ucla.edu/tiles/LA_1925_HeartofDowntownFinal/13/1405/3270.png</href></Icon>
      <LatLonBox>
        <north>34.089061</north>
        <south>34.052659</south>
        <east>-118.212891</east>
        <west>-118.256836</west>
      </LatLonBox>
    </GroundOverlay>
    <GroundOverlay>
      <name>Heart of Downtown · raster tile 13/1404/3271</name>
      <drawOrder>1</drawOrder>
      <Icon><href>https://tiles.ats.ucla.edu/tiles/LA_1925_HeartofDowntownFinal/13/1404/3271.png</href></Icon>
      <LatLonBox>
        <north>34.052659</north>
        <south>34.016242</south>
        <east>-118.256836</east>
        <west>-118.300781</west>
      </LatLonBox>
    </GroundOverlay>
    <GroundOverlay>
      <name>Heart of Downtown · raster tile 13/1405/3271</name>
      <drawOrder>1</drawOrder>
      <Icon><href>https://tiles.ats.ucla.edu/tiles/LA_1925_HeartofDowntownFinal/13/1405/3271.png</href></Icon>
      <LatLonBox>
        <north>34.052659</north>
        <south>34.016242</south>
        <east>-118.212891</east>
        <west>-118.256836</west>
      </LatLonBox>
    </GroundOverlay>

  </Document>
</kml>