<?xml version="1.0" encoding="UTF-8"?>
<kml xmlns="http://www.opengis.net/kml/2.2">
  <Document>
    <name>Los Angeles</name>
    <description>Los Angeles, Los Angeles, 1923. Los Angeles (1923). HyperCities Map Library.</description>
    <Style id="hypercities-footprint">
      <LineStyle><color>ff5e6ad6</color><width>2</width></LineStyle>
      <PolyStyle><color>285e6ad6</color><fill>1</fill><outline>1</outline></PolyStyle>
    </Style>

    <Placemark>
      <name>Los Angeles</name>
      <description>HyperCities Map Library footprint · Los Angeles · 1923</description>
      <TimeSpan><begin>1923-01-01</begin><end>1923-12-31</end></TimeSpan>
      <ExtendedData>
      <Data name="mapId"><value>map:342</value></Data>
      <Data name="place"><value>Los Angeles</value></Data>
      <Data name="years"><value>1923</value></Data>
      <Data name="sourceRecordId"><value>342</value></Data>
      <Data name="collection"><value></value></Data>
      <Data name="creator"><value></value></Data>
      <Data name="citation"><value>Los Angeles (1923). HyperCities Map Library.</value></Data>
      <Data name="tileTemplate"><value>https://tiles.ats.ucla.edu/tiles/LosAngeles_1923/{z}/{x}/{y}.png</value></Data>
      <Data name="groundOverlayTiles"><value>Source XYZ tiles included as KML GroundOverlays at the recorded minimum zoom.</value></Data>
      <Data name="rasterAvailability"><value>Original XYZ tiles, rendered here as KML GroundOverlays at the recorded minimum zoom.</value></Data>
      <Data name="exportScope"><value>Georeferenced footprint, provenance, and a source-tile raster overview at the recorded minimum zoom.</value></Data>
      </ExtendedData>
      <styleUrl>#hypercities-footprint</styleUrl>
      <Polygon><tessellate>1</tessellate><outerBoundaryIs><LinearRing><coordinates>-118.401382,33.951588,0 -118.060695,33.951588,0 -118.060695,34.206191,0 -118.401382,34.206191,0 -118.401382,33.951588,0</coordinates></LinearRing></outerBoundaryIs></Polygon>
    </Placemark>
    <GroundOverlay>
      <name>Los Angeles · raster tile 10/175/408</name>
      <drawOrder>1</drawOrder>
      <Icon><href>https://tiles.ats.ucla.edu/tiles/LosAngeles_1923/10/175/408.png</href></Icon>
      <LatLonBox>
        <north>34.307144</north>
        <south>34.016242</south>
        <east>-118.125000</east>
        <west>-118.476563</west>
      </LatLonBox>
    </GroundOverlay>
    <GroundOverlay>
      <name>Los Angeles · raster tile 10/176/408</name>
      <drawOrder>1</drawOrder>
      <Icon><href>https://tiles.ats.ucla.edu/tiles/LosAngeles_1923/10/176/408.png</href></Icon>
      <LatLonBox>
        <north>34.307144</north>
        <south>34.016242</south>
        <east>-117.773438</east>
        <west>-118.125000</west>
      </LatLonBox>
    </GroundOverlay>
    <GroundOverlay>
      <name>Los Angeles · raster tile 10/175/409</name>
      <drawOrder>1</drawOrder>
      <Icon><href>https://tiles.ats.ucla.edu/tiles/LosAngeles_1923/10/175/409.png</href></Icon>
      <LatLonBox>
        <north>34.016242</north>
        <south>33.724340</south>
        <east>-118.125000</east>
        <west>-118.476563</west>
      </LatLonBox>
    </GroundOverlay>
    <GroundOverlay>
      <name>Los Angeles · raster tile 10/176/409</name>
      <drawOrder>1</drawOrder>
      <Icon><href>https://tiles.ats.ucla.edu/tiles/LosAngeles_1923/10/176/409.png</href></Icon>
      <LatLonBox>
        <north>34.016242</north>
        <south>33.724340</south>
        <east>-117.773438</east>
        <west>-118.125000</west>
      </LatLonBox>
    </GroundOverlay>

  </Document>
</kml>