<?xml version="1.0" encoding="UTF-8"?>
<kml xmlns="http://www.opengis.net/kml/2.2">
  <Document>
    <name>Map of Horizon City 21_30_30A_Page 1</name>
    <description>Map of Horizon City 21_30_30A_Page 1, El Paso, 1963. Map of Horizon City 21_30_30A_Page 1 (1963). HyperCities Map Library.</description>
    <Style id="hypercities-footprint">
      <LineStyle><color>ff5e6ad6</color><width>2</width></LineStyle>
      <PolyStyle><color>285e6ad6</color><fill>1</fill><outline>1</outline></PolyStyle>
    </Style>

    <Placemark>
      <name>Map of Horizon City 21_30_30A_Page 1</name>
      <description>HyperCities Map Library footprint · El Paso · 1963</description>
      <TimeSpan><begin>1963-01-01</begin><end>1963-12-31</end></TimeSpan>
      <ExtendedData>
      <Data name="mapId"><value>map:480</value></Data>
      <Data name="place"><value>El Paso</value></Data>
      <Data name="years"><value>1963</value></Data>
      <Data name="sourceRecordId"><value>480</value></Data>
      <Data name="collection"><value></value></Data>
      <Data name="creator"><value></value></Data>
      <Data name="citation"><value>Map of Horizon City 21_30_30A_Page 1 (1963). HyperCities Map Library.</value></Data>
      <Data name="tileTemplate"><value>https://tiles.ats.ucla.edu/tiles/HorizonCity_1963_RectifiedMap_21_30_30A_Page_1/{z}/{x}/{y}.png</value></Data>
      <Data name="groundOverlayTiles"><value>Source XYZ tiles included as KML GroundOverlays at the recorded minimum zoom.</value></Data>
      <Data name="rasterAvailability"><value>Original XYZ tiles, rendered here as KML GroundOverlays at the recorded minimum zoom.</value></Data>
      <Data name="exportScope"><value>Georeferenced footprint, provenance, and a source-tile raster overview at the recorded minimum zoom.</value></Data>
      </ExtendedData>
      <styleUrl>#hypercities-footprint</styleUrl>
      <Polygon><tessellate>1</tessellate><outerBoundaryIs><LinearRing><coordinates>-106.158201,31.680931,0 -106.144296,31.680931,0 -106.144296,31.689782,0 -106.158201,31.689782,0 -106.158201,31.680931,0</coordinates></LinearRing></outerBoundaryIs></Polygon>
    </Placemark>
    <GroundOverlay>
      <name>Map of Horizon City 21_30_30A_Page 1 · raster tile 14/3360/6670</name>
      <drawOrder>1</drawOrder>
      <Icon><href>https://tiles.ats.ucla.edu/tiles/HorizonCity_1963_RectifiedMap_21_30_30A_Page_1/14/3360/6670.png</href></Icon>
      <LatLonBox>
        <north>31.690782</north>
        <south>31.672083</south>
        <east>-106.149902</east>
        <west>-106.171875</west>
      </LatLonBox>
    </GroundOverlay>
    <GroundOverlay>
      <name>Map of Horizon City 21_30_30A_Page 1 · raster tile 14/3361/6670</name>
      <drawOrder>1</drawOrder>
      <Icon><href>https://tiles.ats.ucla.edu/tiles/HorizonCity_1963_RectifiedMap_21_30_30A_Page_1/14/3361/6670.png</href></Icon>
      <LatLonBox>
        <north>31.690782</north>
        <south>31.672083</south>
        <east>-106.127930</east>
        <west>-106.149902</west>
      </LatLonBox>
    </GroundOverlay>

  </Document>
</kml>