<?xml version="1.0" encoding="UTF-8"?>
<kml xmlns="http://www.opengis.net/kml/2.2">
  <Document>
    <name>Map of Mexico (City)</name>
    <description>Map of Mexico (City), Mexico City, 1760. Map of Mexico (City) (1760). HyperCities Map Library.</description>
    <Style id="hypercities-footprint">
      <LineStyle><color>ff5e6ad6</color><width>2</width></LineStyle>
      <PolyStyle><color>285e6ad6</color><fill>1</fill><outline>1</outline></PolyStyle>
    </Style>

    <Placemark>
      <name>Map of Mexico (City)</name>
      <description>HyperCities Map Library footprint · Mexico City · 1760</description>
      <TimeSpan><begin>1760-01-01</begin><end>1760-12-31</end></TimeSpan>
      <ExtendedData>
      <Data name="mapId"><value>map:255</value></Data>
      <Data name="place"><value>Mexico City</value></Data>
      <Data name="years"><value>1760</value></Data>
      <Data name="sourceRecordId"><value>255</value></Data>
      <Data name="collection"><value></value></Data>
      <Data name="creator"><value></value></Data>
      <Data name="citation"><value>Map of Mexico (City) (1760). HyperCities Map Library.</value></Data>
      <Data name="tileTemplate"><value>https://tiles.ats.ucla.edu/tiles/Mexico_City_1760/{z}/{x}/{y}.png</value></Data>
      <Data name="groundOverlayTiles"><value>Source XYZ tiles included as KML GroundOverlays at the recorded minimum zoom.</value></Data>
      <Data name="rasterAvailability"><value>Original XYZ tiles, rendered here as KML GroundOverlays at the recorded minimum zoom.</value></Data>
      <Data name="exportScope"><value>Georeferenced footprint, provenance, and a source-tile raster overview at the recorded minimum zoom.</value></Data>
      </ExtendedData>
      <styleUrl>#hypercities-footprint</styleUrl>
      <Polygon><tessellate>1</tessellate><outerBoundaryIs><LinearRing><coordinates>-99.146446,19.425681,0 -99.118843,19.425681,0 -99.118843,19.443323,0 -99.146446,19.443323,0 -99.146446,19.425681,0</coordinates></LinearRing></outerBoundaryIs></Polygon>
    </Placemark>
    <GroundOverlay>
      <name>Map of Mexico (City) · raster tile 14/3679/7289</name>
      <drawOrder>1</drawOrder>
      <Icon><href>https://tiles.ats.ucla.edu/tiles/Mexico_City_1760/14/3679/7289.png</href></Icon>
      <LatLonBox>
        <north>19.456234</north>
        <south>19.435514</south>
        <east>-99.140625</east>
        <west>-99.162598</west>
      </LatLonBox>
    </GroundOverlay>
    <GroundOverlay>
      <name>Map of Mexico (City) · raster tile 14/3680/7289</name>
      <drawOrder>1</drawOrder>
      <Icon><href>https://tiles.ats.ucla.edu/tiles/Mexico_City_1760/14/3680/7289.png</href></Icon>
      <LatLonBox>
        <north>19.456234</north>
        <south>19.435514</south>
        <east>-99.118652</east>
        <west>-99.140625</west>
      </LatLonBox>
    </GroundOverlay>
    <GroundOverlay>
      <name>Map of Mexico (City) · raster tile 14/3679/7290</name>
      <drawOrder>1</drawOrder>
      <Icon><href>https://tiles.ats.ucla.edu/tiles/Mexico_City_1760/14/3679/7290.png</href></Icon>
      <LatLonBox>
        <north>19.435514</north>
        <south>19.414792</south>
        <east>-99.140625</east>
        <west>-99.162598</west>
      </LatLonBox>
    </GroundOverlay>
    <GroundOverlay>
      <name>Map of Mexico (City) · raster tile 14/3680/7290</name>
      <drawOrder>1</drawOrder>
      <Icon><href>https://tiles.ats.ucla.edu/tiles/Mexico_City_1760/14/3680/7290.png</href></Icon>
      <LatLonBox>
        <north>19.435514</north>
        <south>19.414792</south>
        <east>-99.118652</east>
        <west>-99.140625</west>
      </LatLonBox>
    </GroundOverlay>

  </Document>
</kml>