<?xml version="1.0" encoding="UTF-8"?>
<kml xmlns="http://www.opengis.net/kml/2.2">
  <Document>
    <name>Map of Magnesia (3_9)</name>
    <description>Map of Magnesia (3_9), Magnesia, 1891. Map of Magnesia (3_9) (1891). HyperCities Map Library.</description>
    <Style id="hypercities-footprint">
      <LineStyle><color>ff5e6ad6</color><width>2</width></LineStyle>
      <PolyStyle><color>285e6ad6</color><fill>1</fill><outline>1</outline></PolyStyle>
    </Style>

    <Placemark>
      <name>Map of Magnesia (3_9)</name>
      <description>HyperCities Map Library footprint · Magnesia · 1891</description>
      <TimeSpan><begin>1891-01-01</begin><end>1891-12-31</end></TimeSpan>
      <ExtendedData>
      <Data name="mapId"><value>map:355</value></Data>
      <Data name="place"><value>Magnesia</value></Data>
      <Data name="years"><value>1891</value></Data>
      <Data name="sourceRecordId"><value>355</value></Data>
      <Data name="collection"><value></value></Data>
      <Data name="creator"><value></value></Data>
      <Data name="citation"><value>Map of Magnesia (3_9) (1891). HyperCities Map Library.</value></Data>
      <Data name="tileTemplate"><value>https://tiles.ats.ucla.edu/tiles/Magnesia_1891-3_91/{z}/{x}/{y}.png</value></Data>
      <Data name="groundOverlayTiles"><value>Source XYZ tiles included as KML GroundOverlays at the recorded minimum zoom.</value></Data>
      <Data name="rasterAvailability"><value>Original XYZ tiles, rendered here as KML GroundOverlays at the recorded minimum zoom.</value></Data>
      <Data name="exportScope"><value>Georeferenced footprint, provenance, and a source-tile raster overview at the recorded minimum zoom.</value></Data>
      </ExtendedData>
      <styleUrl>#hypercities-footprint</styleUrl>
      <Polygon><tessellate>1</tessellate><outerBoundaryIs><LinearRing><coordinates>27.525006,37.852212,0 27.525385,37.852212,0 27.525385,37.852409,0 27.525006,37.852409,0 27.525006,37.852212,0</coordinates></LinearRing></outerBoundaryIs></Polygon>
    </Placemark>
    <GroundOverlay>
      <name>Map of Magnesia (3_9) · raster tile 20/604460/405010</name>
      <drawOrder>1</drawOrder>
      <Icon><href>https://tiles.ats.ucla.edu/tiles/Magnesia_1891-3_91/20/604460/405010.png</href></Icon>
      <LatLonBox>
        <north>37.852628</north>
        <south>37.852357</south>
        <east>27.525215</east>
        <west>27.524872</west>
      </LatLonBox>
    </GroundOverlay>
    <GroundOverlay>
      <name>Map of Magnesia (3_9) · raster tile 20/604461/405010</name>
      <drawOrder>1</drawOrder>
      <Icon><href>https://tiles.ats.ucla.edu/tiles/Magnesia_1891-3_91/20/604461/405010.png</href></Icon>
      <LatLonBox>
        <north>37.852628</north>
        <south>37.852357</south>
        <east>27.525558</east>
        <west>27.525215</west>
      </LatLonBox>
    </GroundOverlay>
    <GroundOverlay>
      <name>Map of Magnesia (3_9) · raster tile 20/604460/405011</name>
      <drawOrder>1</drawOrder>
      <Icon><href>https://tiles.ats.ucla.edu/tiles/Magnesia_1891-3_91/20/604460/405011.png</href></Icon>
      <LatLonBox>
        <north>37.852357</north>
        <south>37.852086</south>
        <east>27.525215</east>
        <west>27.524872</west>
      </LatLonBox>
    </GroundOverlay>
    <GroundOverlay>
      <name>Map of Magnesia (3_9) · raster tile 20/604461/405011</name>
      <drawOrder>1</drawOrder>
      <Icon><href>https://tiles.ats.ucla.edu/tiles/Magnesia_1891-3_91/20/604461/405011.png</href></Icon>
      <LatLonBox>
        <north>37.852357</north>
        <south>37.852086</south>
        <east>27.525558</east>
        <west>27.525215</west>
      </LatLonBox>
    </GroundOverlay>

  </Document>
</kml>