<?xml version="1.0" encoding="UTF-8"?>
<kml xmlns="http://www.opengis.net/kml/2.2">
  <Document>
    <name>Plan of Rome according to Regulatory plan with all the tram lines</name>
    <description>Plan of Rome according to Regulatory plan with all the tram lines, Rome, 1916. Plan of Rome according to Regulatory plan with all the tram lines (1916). HyperCities Map Library.</description>
    <Style id="hypercities-footprint">
      <LineStyle><color>ff5e6ad6</color><width>2</width></LineStyle>
      <PolyStyle><color>285e6ad6</color><fill>1</fill><outline>1</outline></PolyStyle>
    </Style>

    <Placemark>
      <name>Plan of Rome according to Regulatory plan with all the tram lines</name>
      <description>HyperCities Map Library footprint · Rome · 1916</description>
      <TimeSpan><begin>1916-01-01</begin><end>1916-12-31</end></TimeSpan>
      <ExtendedData>
      <Data name="mapId"><value>map:142</value></Data>
      <Data name="place"><value>Rome</value></Data>
      <Data name="years"><value>1916</value></Data>
      <Data name="sourceRecordId"><value>142</value></Data>
      <Data name="collection"><value></value></Data>
      <Data name="creator"><value></value></Data>
      <Data name="citation"><value>Plan of Rome according to Regulatory plan with all the tram lines (1916). HyperCities Map Library.</value></Data>
      <Data name="tileTemplate"><value>https://tiles.ats.ucla.edu/tiles/Rome_1916_Scarpitti/{z}/{x}/{y}.png</value></Data>
      <Data name="groundOverlayTiles"><value>Source XYZ tiles included as KML GroundOverlays at the recorded minimum zoom.</value></Data>
      <Data name="rasterAvailability"><value>Original XYZ tiles, rendered here as KML GroundOverlays at the recorded minimum zoom.</value></Data>
      <Data name="exportScope"><value>Georeferenced footprint, provenance, and a source-tile raster overview at the recorded minimum zoom.</value></Data>
      </ExtendedData>
      <styleUrl>#hypercities-footprint</styleUrl>
      <Polygon><tessellate>1</tessellate><outerBoundaryIs><LinearRing><coordinates>12.441187,41.869261,0 12.5285,41.869261,0 12.5285,41.9268,0 12.441187,41.9268,0 12.441187,41.869261,0</coordinates></LinearRing></outerBoundaryIs></Polygon>
    </Placemark>
    <GroundOverlay>
      <name>Plan of Rome according to Regulatory plan with all the tram lines · raster tile 12/2189/1521</name>
      <drawOrder>1</drawOrder>
      <Icon><href>https://tiles.ats.ucla.edu/tiles/Rome_1916_Scarpitti/12/2189/1521.png</href></Icon>
      <LatLonBox>
        <north>41.967659</north>
        <south>41.902277</south>
        <east>12.480469</east>
        <west>12.392578</west>
      </LatLonBox>
    </GroundOverlay>
    <GroundOverlay>
      <name>Plan of Rome according to Regulatory plan with all the tram lines · raster tile 12/2190/1521</name>
      <drawOrder>1</drawOrder>
      <Icon><href>https://tiles.ats.ucla.edu/tiles/Rome_1916_Scarpitti/12/2190/1521.png</href></Icon>
      <LatLonBox>
        <north>41.967659</north>
        <south>41.902277</south>
        <east>12.568359</east>
        <west>12.480469</west>
      </LatLonBox>
    </GroundOverlay>
    <GroundOverlay>
      <name>Plan of Rome according to Regulatory plan with all the tram lines · raster tile 12/2189/1522</name>
      <drawOrder>1</drawOrder>
      <Icon><href>https://tiles.ats.ucla.edu/tiles/Rome_1916_Scarpitti/12/2189/1522.png</href></Icon>
      <LatLonBox>
        <north>41.902277</north>
        <south>41.836828</south>
        <east>12.480469</east>
        <west>12.392578</west>
      </LatLonBox>
    </GroundOverlay>
    <GroundOverlay>
      <name>Plan of Rome according to Regulatory plan with all the tram lines · raster tile 12/2190/1522</name>
      <drawOrder>1</drawOrder>
      <Icon><href>https://tiles.ats.ucla.edu/tiles/Rome_1916_Scarpitti/12/2190/1522.png</href></Icon>
      <LatLonBox>
        <north>41.902277</north>
        <south>41.836828</south>
        <east>12.568359</east>
        <west>12.480469</west>
      </LatLonBox>
    </GroundOverlay>

  </Document>
</kml>