<?xml version="1.0" encoding="UTF-8"?>
<kml xmlns="http://www.opengis.net/kml/2.2">
  <Document>
    <name>State Highways California</name>
    <description>State Highways California, Los Angeles, 1937. State Highways California (1937). HyperCities Map Library.</description>
    <Style id="hypercities-footprint">
      <LineStyle><color>ff5e6ad6</color><width>2</width></LineStyle>
      <PolyStyle><color>285e6ad6</color><fill>1</fill><outline>1</outline></PolyStyle>
    </Style>

    <Placemark>
      <name>State Highways California</name>
      <description>HyperCities Map Library footprint · Los Angeles · 1937</description>
      <TimeSpan><begin>1937-01-01</begin><end>1937-12-31</end></TimeSpan>
      <ExtendedData>
      <Data name="mapId"><value>map:454</value></Data>
      <Data name="place"><value>Los Angeles</value></Data>
      <Data name="years"><value>1937</value></Data>
      <Data name="sourceRecordId"><value>454</value></Data>
      <Data name="collection"><value></value></Data>
      <Data name="creator"><value></value></Data>
      <Data name="citation"><value>State Highways California (1937). HyperCities Map Library.</value></Data>
      <Data name="tileTemplate"><value>https://tiles.ats.ucla.edu/tiles/1937_StateHighways_CA/{z}/{x}/{y}.png</value></Data>
      <Data name="groundOverlayTiles"><value>Source XYZ tiles included as KML GroundOverlays at the recorded minimum zoom.</value></Data>
      <Data name="rasterAvailability"><value>Original XYZ tiles, rendered here as KML GroundOverlays at the recorded minimum zoom.</value></Data>
      <Data name="exportScope"><value>Georeferenced footprint, provenance, and a source-tile raster overview at the recorded minimum zoom.</value></Data>
      </ExtendedData>
      <styleUrl>#hypercities-footprint</styleUrl>
      <Polygon><tessellate>1</tessellate><outerBoundaryIs><LinearRing><coordinates>-125.776152,31.124728,0 -111.683507,31.124728,0 -111.683507,43.338327,0 -125.776152,43.338327,0 -125.776152,31.124728,0</coordinates></LinearRing></outerBoundaryIs></Polygon>
    </Placemark>
    <GroundOverlay>
      <name>State Highways California · raster tile 4/2/5</name>
      <drawOrder>1</drawOrder>
      <Icon><href>https://tiles.ats.ucla.edu/tiles/1937_StateHighways_CA/4/2/5.png</href></Icon>
      <LatLonBox>
        <north>55.776573</north>
        <south>40.979898</south>
        <east>-112.500000</east>
        <west>-135.000000</west>
      </LatLonBox>
    </GroundOverlay>
    <GroundOverlay>
      <name>State Highways California · raster tile 4/3/5</name>
      <drawOrder>1</drawOrder>
      <Icon><href>https://tiles.ats.ucla.edu/tiles/1937_StateHighways_CA/4/3/5.png</href></Icon>
      <LatLonBox>
        <north>55.776573</north>
        <south>40.979898</south>
        <east>-90.000000</east>
        <west>-112.500000</west>
      </LatLonBox>
    </GroundOverlay>
    <GroundOverlay>
      <name>State Highways California · raster tile 4/2/6</name>
      <drawOrder>1</drawOrder>
      <Icon><href>https://tiles.ats.ucla.edu/tiles/1937_StateHighways_CA/4/2/6.png</href></Icon>
      <LatLonBox>
        <north>40.979898</north>
        <south>21.943046</south>
        <east>-112.500000</east>
        <west>-135.000000</west>
      </LatLonBox>
    </GroundOverlay>
    <GroundOverlay>
      <name>State Highways California · raster tile 4/3/6</name>
      <drawOrder>1</drawOrder>
      <Icon><href>https://tiles.ats.ucla.edu/tiles/1937_StateHighways_CA/4/3/6.png</href></Icon>
      <LatLonBox>
        <north>40.979898</north>
        <south>21.943046</south>
        <east>-90.000000</east>
        <west>-112.500000</west>
      </LatLonBox>
    </GroundOverlay>

  </Document>
</kml>