<?xml version="1.0" encoding="UTF-8"?>
<kml xmlns="http://www.opengis.net/kml/2.2">
  <Document>
    <name>McCone Watts Riot</name>
    <description>McCone Watts Riot, Los Angeles, 1965. McCone Watts Riot (1965). HyperCities Map Library.</description>
    <Style id="hypercities-footprint">
      <LineStyle><color>ff5e6ad6</color><width>2</width></LineStyle>
      <PolyStyle><color>285e6ad6</color><fill>1</fill><outline>1</outline></PolyStyle>
    </Style>

    <Placemark>
      <name>McCone Watts Riot</name>
      <description>HyperCities Map Library footprint · Los Angeles · 1965</description>
      <TimeSpan><begin>1965-01-01</begin><end>1965-12-31</end></TimeSpan>
      <ExtendedData>
      <Data name="mapId"><value>map:199</value></Data>
      <Data name="place"><value>Los Angeles</value></Data>
      <Data name="years"><value>1965</value></Data>
      <Data name="sourceRecordId"><value>199</value></Data>
      <Data name="collection"><value></value></Data>
      <Data name="creator"><value></value></Data>
      <Data name="citation"><value>McCone Watts Riot (1965). HyperCities Map Library.</value></Data>
      <Data name="tileTemplate"><value>https://tiles.ats.ucla.edu/tiles/Los_Angeles_1965_McCone/{z}/{x}/{y}.png</value></Data>
      <Data name="groundOverlayTiles"><value>Source XYZ tiles included as KML GroundOverlays at the recorded minimum zoom.</value></Data>
      <Data name="rasterAvailability"><value>Original XYZ tiles, rendered here as KML GroundOverlays at the recorded minimum zoom.</value></Data>
      <Data name="exportScope"><value>Georeferenced footprint, provenance, and a source-tile raster overview at the recorded minimum zoom.</value></Data>
      </ExtendedData>
      <styleUrl>#hypercities-footprint</styleUrl>
      <Polygon><tessellate>1</tessellate><outerBoundaryIs><LinearRing><coordinates>-118.351707,33.893779,0 -118.219222,33.893779,0 -118.219222,34.039667,0 -118.351707,34.039667,0 -118.351707,33.893779,0</coordinates></LinearRing></outerBoundaryIs></Polygon>
    </Placemark>
    <GroundOverlay>
      <name>McCone Watts Riot · raster tile 11/350/817</name>
      <drawOrder>1</drawOrder>
      <Icon><href>https://tiles.ats.ucla.edu/tiles/Los_Angeles_1965_McCone/11/350/817.png</href></Icon>
      <LatLonBox>
        <north>34.161818</north>
        <south>34.016242</south>
        <east>-118.300781</east>
        <west>-118.476563</west>
      </LatLonBox>
    </GroundOverlay>
    <GroundOverlay>
      <name>McCone Watts Riot · raster tile 11/351/817</name>
      <drawOrder>1</drawOrder>
      <Icon><href>https://tiles.ats.ucla.edu/tiles/Los_Angeles_1965_McCone/11/351/817.png</href></Icon>
      <LatLonBox>
        <north>34.161818</north>
        <south>34.016242</south>
        <east>-118.125000</east>
        <west>-118.300781</west>
      </LatLonBox>
    </GroundOverlay>
    <GroundOverlay>
      <name>McCone Watts Riot · raster tile 11/350/818</name>
      <drawOrder>1</drawOrder>
      <Icon><href>https://tiles.ats.ucla.edu/tiles/Los_Angeles_1965_McCone/11/350/818.png</href></Icon>
      <LatLonBox>
        <north>34.016242</north>
        <south>33.870416</south>
        <east>-118.300781</east>
        <west>-118.476563</west>
      </LatLonBox>
    </GroundOverlay>
    <GroundOverlay>
      <name>McCone Watts Riot · raster tile 11/351/818</name>
      <drawOrder>1</drawOrder>
      <Icon><href>https://tiles.ats.ucla.edu/tiles/Los_Angeles_1965_McCone/11/351/818.png</href></Icon>
      <LatLonBox>
        <north>34.016242</north>
        <south>33.870416</south>
        <east>-118.125000</east>
        <west>-118.300781</west>
      </LatLonBox>
    </GroundOverlay>

  </Document>
</kml>