<?xml version="1.0" encoding="UTF-8"?>
<kml xmlns="http://www.opengis.net/kml/2.2">
  <Document>
    <name>Types of Planning Areas in Chicago 1942</name>
    <description>Types of Planning Areas in Chicago 1942, Chicago, 1942. Types of Planning Areas in Chicago 1942 (1942). HyperCities Map Library.</description>
    <Style id="hypercities-footprint">
      <LineStyle><color>ff5e6ad6</color><width>2</width></LineStyle>
      <PolyStyle><color>285e6ad6</color><fill>1</fill><outline>1</outline></PolyStyle>
    </Style>

    <Placemark>
      <name>Types of Planning Areas in Chicago 1942</name>
      <description>HyperCities Map Library footprint · Chicago · 1942</description>
      <TimeSpan><begin>1942-01-01</begin><end>1942-12-31</end></TimeSpan>
      <ExtendedData>
      <Data name="mapId"><value>map:160</value></Data>
      <Data name="place"><value>Chicago</value></Data>
      <Data name="years"><value>1942</value></Data>
      <Data name="sourceRecordId"><value>160</value></Data>
      <Data name="collection"><value></value></Data>
      <Data name="creator"><value>Chicago Plan Commission</value></Data>
      <Data name="citation"><value>Types of Planning Areas in Chicago 1942 (1942). HyperCities Map Library.</value></Data>
      <Data name="tileTemplate"><value>https://tiles.ats.ucla.edu/tiles/Chicago_1942_TypesofPlanningAreas/{z}/{x}/{y}.png</value></Data>
      <Data name="groundOverlayTiles"><value>Source XYZ tiles included as KML GroundOverlays at the recorded minimum zoom.</value></Data>
      <Data name="rasterAvailability"><value>Original XYZ tiles, rendered here as KML GroundOverlays at the recorded minimum zoom.</value></Data>
      <Data name="exportScope"><value>Georeferenced footprint, provenance, and a source-tile raster overview at the recorded minimum zoom.</value></Data>
      </ExtendedData>
      <styleUrl>#hypercities-footprint</styleUrl>
      <Polygon><tessellate>1</tessellate><outerBoundaryIs><LinearRing><coordinates>-87.876469,41.607109,0 -87.445028,41.607109,0 -87.445028,42.064701,0 -87.876469,42.064701,0 -87.876469,41.607109,0</coordinates></LinearRing></outerBoundaryIs></Polygon>
    </Placemark>
    <GroundOverlay>
      <name>Types of Planning Areas in Chicago 1942 · raster tile 9/131/189</name>
      <drawOrder>1</drawOrder>
      <Icon><href>https://tiles.ats.ucla.edu/tiles/Chicago_1942_TypesofPlanningAreas/9/131/189.png</href></Icon>
      <LatLonBox>
        <north>42.553080</north>
        <south>42.032974</south>
        <east>-87.187500</east>
        <west>-87.890625</west>
      </LatLonBox>
    </GroundOverlay>
    <GroundOverlay>
      <name>Types of Planning Areas in Chicago 1942 · raster tile 9/131/190</name>
      <drawOrder>1</drawOrder>
      <Icon><href>https://tiles.ats.ucla.edu/tiles/Chicago_1942_TypesofPlanningAreas/9/131/190.png</href></Icon>
      <LatLonBox>
        <north>42.032974</north>
        <south>41.508577</south>
        <east>-87.187500</east>
        <west>-87.890625</west>
      </LatLonBox>
    </GroundOverlay>

  </Document>
</kml>