<?xml version="1.0" encoding="UTF-8"?>
<kml xmlns="http://www.opengis.net/kml/2.2">
  <Document>
    <name>Map of Horizon City Unit 6_19_15</name>
    <description>Map of Horizon City Unit 6_19_15, El Paso, 1962. Map of Horizon City Unit 6_19_15 (1962). HyperCities Map Library.</description>
    <Style id="hypercities-footprint">
      <LineStyle><color>ff5e6ad6</color><width>2</width></LineStyle>
      <PolyStyle><color>285e6ad6</color><fill>1</fill><outline>1</outline></PolyStyle>
    </Style>

    <Placemark>
      <name>Map of Horizon City Unit 6_19_15</name>
      <description>HyperCities Map Library footprint · El Paso · 1962</description>
      <TimeSpan><begin>1962-01-01</begin><end>1962-12-31</end></TimeSpan>
      <ExtendedData>
      <Data name="mapId"><value>map:495</value></Data>
      <Data name="place"><value>El Paso</value></Data>
      <Data name="years"><value>1962</value></Data>
      <Data name="sourceRecordId"><value>495</value></Data>
      <Data name="collection"><value></value></Data>
      <Data name="creator"><value></value></Data>
      <Data name="citation"><value>Map of Horizon City Unit 6_19_15 (1962). HyperCities Map Library.</value></Data>
      <Data name="tileTemplate"><value>https://tiles.ats.ucla.edu/tiles/HorizonCityUnit_1962_RectifiedMap_6_19_15/{z}/{x}/{y}.png</value></Data>
      <Data name="groundOverlayTiles"><value>Source XYZ tiles included as KML GroundOverlays at the recorded minimum zoom.</value></Data>
      <Data name="rasterAvailability"><value>Original XYZ tiles, rendered here as KML GroundOverlays at the recorded minimum zoom.</value></Data>
      <Data name="exportScope"><value>Georeferenced footprint, provenance, and a source-tile raster overview at the recorded minimum zoom.</value></Data>
      </ExtendedData>
      <styleUrl>#hypercities-footprint</styleUrl>
      <Polygon><tessellate>1</tessellate><outerBoundaryIs><LinearRing><coordinates>-106.115228,31.66293,0 -106.101497,31.66293,0 -106.101497,31.671364,0 -106.115228,31.671364,0 -106.115228,31.66293,0</coordinates></LinearRing></outerBoundaryIs></Polygon>
    </Placemark>
    <GroundOverlay>
      <name>Map of Horizon City Unit 6_19_15 · raster tile 14/3362/6671</name>
      <drawOrder>1</drawOrder>
      <Icon><href>https://tiles.ats.ucla.edu/tiles/HorizonCityUnit_1962_RectifiedMap_6_19_15/14/3362/6671.png</href></Icon>
      <LatLonBox>
        <north>31.672083</north>
        <south>31.653381</south>
        <east>-106.105957</east>
        <west>-106.127930</west>
      </LatLonBox>
    </GroundOverlay>
    <GroundOverlay>
      <name>Map of Horizon City Unit 6_19_15 · raster tile 14/3363/6671</name>
      <drawOrder>1</drawOrder>
      <Icon><href>https://tiles.ats.ucla.edu/tiles/HorizonCityUnit_1962_RectifiedMap_6_19_15/14/3363/6671.png</href></Icon>
      <LatLonBox>
        <north>31.672083</north>
        <south>31.653381</south>
        <east>-106.083984</east>
        <west>-106.105957</west>
      </LatLonBox>
    </GroundOverlay>

  </Document>
</kml>