<?xml version="1.0" encoding="UTF-8"?>
<kml xmlns="http://www.opengis.net/kml/2.2">
  <Document>
    <name>Map of Los Angeles (Fill)</name>
    <description>Map of Los Angeles (Fill), Los Angeles, 2006. Map of Los Angeles (Fill) (2006). HyperCities Map Library.</description>
    <Style id="hypercities-footprint">
      <LineStyle><color>ff5e6ad6</color><width>2</width></LineStyle>
      <PolyStyle><color>285e6ad6</color><fill>1</fill><outline>1</outline></PolyStyle>
    </Style>

    <Placemark>
      <name>Map of Los Angeles (Fill)</name>
      <description>HyperCities Map Library footprint · Los Angeles · 2006</description>
      <TimeSpan><begin>2006-01-01</begin><end>2006-12-31</end></TimeSpan>
      <ExtendedData>
      <Data name="mapId"><value>map:257</value></Data>
      <Data name="place"><value>Los Angeles</value></Data>
      <Data name="years"><value>2006</value></Data>
      <Data name="sourceRecordId"><value>257</value></Data>
      <Data name="collection"><value></value></Data>
      <Data name="creator"><value></value></Data>
      <Data name="citation"><value>Map of Los Angeles (Fill) (2006). HyperCities Map Library.</value></Data>
      <Data name="tileTemplate"><value>https://tiles.ats.ucla.edu/tiles/LosAngeles/2006_Fill/{z}/{x}/{y}.png</value></Data>
      <Data name="groundOverlayTiles"><value>Source XYZ tiles included as KML GroundOverlays at the recorded minimum zoom.</value></Data>
      <Data name="rasterAvailability"><value>Original XYZ tiles, rendered here as KML GroundOverlays at the recorded minimum zoom.</value></Data>
      <Data name="exportScope"><value>Georeferenced footprint, provenance, and a source-tile raster overview at the recorded minimum zoom.</value></Data>
      </ExtendedData>
      <styleUrl>#hypercities-footprint</styleUrl>
      <Polygon><tessellate>1</tessellate><outerBoundaryIs><LinearRing><coordinates>-118.953652,33.7015,0 -117.643325,33.7015,0 -117.643325,34.823398,0 -118.953652,34.823398,0 -118.953652,33.7015,0</coordinates></LinearRing></outerBoundaryIs></Polygon>
    </Placemark>
    <GroundOverlay>
      <name>Map of Los Angeles (Fill) · raster tile 5/5/12</name>
      <drawOrder>1</drawOrder>
      <Icon><href>https://tiles.ats.ucla.edu/tiles/LosAngeles/2006_Fill/5/5/12.png</href></Icon>
      <LatLonBox>
        <north>40.979898</north>
        <south>31.952162</south>
        <east>-112.500000</east>
        <west>-123.750000</west>
      </LatLonBox>
    </GroundOverlay>

  </Document>
</kml>