<?xml version="1.0" encoding="UTF-8"?>
<kml xmlns="http://www.opengis.net/kml/2.2">
  <Document>
    <name>HAGSTROM&apos;S Map of QUEENS (NEW YORK CITY)</name>
    <description>HAGSTROM&apos;S Map of QUEENS (NEW YORK CITY), New York, 1930. HAGSTROM&apos;S Map of QUEENS (NEW YORK CITY) (1930). HyperCities Map Library. UCLA Bruman Map Collection.</description>
    <Style id="hypercities-footprint">
      <LineStyle><color>ff5e6ad6</color><width>2</width></LineStyle>
      <PolyStyle><color>285e6ad6</color><fill>1</fill><outline>1</outline></PolyStyle>
    </Style>

    <Placemark>
      <name>HAGSTROM&apos;S Map of QUEENS (NEW YORK CITY)</name>
      <description>HyperCities Map Library footprint · New York · 1930</description>
      <TimeSpan><begin>1930-01-01</begin><end>1930-12-31</end></TimeSpan>
      <ExtendedData>
      <Data name="mapId"><value>map:52</value></Data>
      <Data name="place"><value>New York</value></Data>
      <Data name="years"><value>1930</value></Data>
      <Data name="sourceRecordId"><value>52</value></Data>
      <Data name="collection"><value>UCLA Bruman Map Collection</value></Data>
      <Data name="creator"><value>Hagstrom Map Company Incorporated Map Makers and Publishers</value></Data>
      <Data name="citation"><value>HAGSTROM&apos;S Map of QUEENS (NEW YORK CITY) (1930). HyperCities Map Library. UCLA Bruman Map Collection.</value></Data>
      <Data name="tileTemplate"><value>https://tiles.ats.ucla.edu/tiles/NewYork_1930/{z}/{x}/{y}.png</value></Data>
      <Data name="groundOverlayTiles"><value>Source XYZ tiles included as KML GroundOverlays at the recorded minimum zoom.</value></Data>
      <Data name="rasterAvailability"><value>Original XYZ tiles, rendered here as KML GroundOverlays at the recorded minimum zoom.</value></Data>
      <Data name="exportScope"><value>Georeferenced footprint, provenance, and a source-tile raster overview at the recorded minimum zoom.</value></Data>
      </ExtendedData>
      <styleUrl>#hypercities-footprint</styleUrl>
      <Polygon><tessellate>1</tessellate><outerBoundaryIs><LinearRing><coordinates>-73.976968,40.48962,0 -73.687844,40.48962,0 -73.687844,40.811245,0 -73.976968,40.811245,0 -73.976968,40.48962,0</coordinates></LinearRing></outerBoundaryIs></Polygon>
    </Placemark>
    <GroundOverlay>
      <name>HAGSTROM&apos;S Map of QUEENS (NEW YORK CITY) · raster tile 4/4/6</name>
      <drawOrder>1</drawOrder>
      <Icon><href>https://tiles.ats.ucla.edu/tiles/NewYork_1930/4/4/6.png</href></Icon>
      <LatLonBox>
        <north>40.979898</north>
        <south>21.943046</south>
        <east>-67.500000</east>
        <west>-90.000000</west>
      </LatLonBox>
    </GroundOverlay>

  </Document>
</kml>