<?xml version="1.0" encoding="UTF-8"?>
<kml xmlns="http://www.opengis.net/kml/2.2">
  <Document>
    <name>John Snow Cholera Map</name>
    <description>John Snow Cholera Map, London, 1854. John Snow Cholera Map (1854). HyperCities Map Library.</description>
    <Style id="hypercities-footprint">
      <LineStyle><color>ff5e6ad6</color><width>2</width></LineStyle>
      <PolyStyle><color>285e6ad6</color><fill>1</fill><outline>1</outline></PolyStyle>
    </Style>

    <Placemark>
      <name>John Snow Cholera Map</name>
      <description>HyperCities Map Library footprint · London · 1854</description>
      <TimeSpan><begin>1854-01-01</begin><end>1854-12-31</end></TimeSpan>
      <ExtendedData>
      <Data name="mapId"><value>map:143</value></Data>
      <Data name="place"><value>London</value></Data>
      <Data name="years"><value>1854</value></Data>
      <Data name="sourceRecordId"><value>143</value></Data>
      <Data name="collection"><value></value></Data>
      <Data name="creator"><value>John Snow</value></Data>
      <Data name="citation"><value>John Snow Cholera Map (1854). HyperCities Map Library.</value></Data>
      <Data name="tileTemplate"><value>https://tiles.ats.ucla.edu/tiles/1854_London_JohnSnow/{z}/{x}/{y}.png</value></Data>
      <Data name="groundOverlayTiles"><value>Source XYZ tiles included as KML GroundOverlays at the recorded minimum zoom.</value></Data>
      <Data name="rasterAvailability"><value>Original XYZ tiles, rendered here as KML GroundOverlays at the recorded minimum zoom.</value></Data>
      <Data name="exportScope"><value>Georeferenced footprint, provenance, and a source-tile raster overview at the recorded minimum zoom.</value></Data>
      </ExtendedData>
      <styleUrl>#hypercities-footprint</styleUrl>
      <Polygon><tessellate>1</tessellate><outerBoundaryIs><LinearRing><coordinates>-0.144057,51.509077,0 -0.130693,51.509077,0 -0.130693,51.516793,0 -0.144057,51.516793,0 -0.144057,51.509077,0</coordinates></LinearRing></outerBoundaryIs></Polygon>
    </Placemark>
    <GroundOverlay>
      <name>John Snow Cholera Map · raster tile 15/16370/10894</name>
      <drawOrder>1</drawOrder>
      <Icon><href>https://tiles.ats.ucla.edu/tiles/1854_London_JohnSnow/15/16370/10894.png</href></Icon>
      <LatLonBox>
        <north>51.522416</north>
        <south>51.515580</south>
        <east>-0.142822</east>
        <west>-0.153809</west>
      </LatLonBox>
    </GroundOverlay>
    <GroundOverlay>
      <name>John Snow Cholera Map · raster tile 15/16371/10894</name>
      <drawOrder>1</drawOrder>
      <Icon><href>https://tiles.ats.ucla.edu/tiles/1854_London_JohnSnow/15/16371/10894.png</href></Icon>
      <LatLonBox>
        <north>51.522416</north>
        <south>51.515580</south>
        <east>-0.131836</east>
        <west>-0.142822</west>
      </LatLonBox>
    </GroundOverlay>
    <GroundOverlay>
      <name>John Snow Cholera Map · raster tile 15/16372/10894</name>
      <drawOrder>1</drawOrder>
      <Icon><href>https://tiles.ats.ucla.edu/tiles/1854_London_JohnSnow/15/16372/10894.png</href></Icon>
      <LatLonBox>
        <north>51.522416</north>
        <south>51.515580</south>
        <east>-0.120850</east>
        <west>-0.131836</west>
      </LatLonBox>
    </GroundOverlay>
    <GroundOverlay>
      <name>John Snow Cholera Map · raster tile 15/16370/10895</name>
      <drawOrder>1</drawOrder>
      <Icon><href>https://tiles.ats.ucla.edu/tiles/1854_London_JohnSnow/15/16370/10895.png</href></Icon>
      <LatLonBox>
        <north>51.515580</north>
        <south>51.508742</south>
        <east>-0.142822</east>
        <west>-0.153809</west>
      </LatLonBox>
    </GroundOverlay>
    <GroundOverlay>
      <name>John Snow Cholera Map · raster tile 15/16371/10895</name>
      <drawOrder>1</drawOrder>
      <Icon><href>https://tiles.ats.ucla.edu/tiles/1854_London_JohnSnow/15/16371/10895.png</href></Icon>
      <LatLonBox>
        <north>51.515580</north>
        <south>51.508742</south>
        <east>-0.131836</east>
        <west>-0.142822</west>
      </LatLonBox>
    </GroundOverlay>
    <GroundOverlay>
      <name>John Snow Cholera Map · raster tile 15/16372/10895</name>
      <drawOrder>1</drawOrder>
      <Icon><href>https://tiles.ats.ucla.edu/tiles/1854_London_JohnSnow/15/16372/10895.png</href></Icon>
      <LatLonBox>
        <north>51.515580</north>
        <south>51.508742</south>
        <east>-0.120850</east>
        <west>-0.131836</west>
      </LatLonBox>
    </GroundOverlay>

  </Document>
</kml>