<?xml version="1.0" encoding="UTF-8"?>
<kml xmlns="http://www.opengis.net/kml/2.2">
  <Document>
    <name>City &amp; County Map of New-York, Brooklyn, Williamsburgh, Jersey City &amp; the adjacent Waters</name>
    <description>City &amp; County Map of New-York, Brooklyn, Williamsburgh, Jersey City &amp; the adjacent Waters, New York, 1849. City &amp; County Map of New-York, Brooklyn, Williamsburgh, Jersey City &amp; the adjacent Waters (1849). HyperCities Map Library. Humanities and Social Sciences Library / The Lionel Pincus and Princess Firyal Map Division, New York Public Library.</description>
    <Style id="hypercities-footprint">
      <LineStyle><color>ff5e6ad6</color><width>2</width></LineStyle>
      <PolyStyle><color>285e6ad6</color><fill>1</fill><outline>1</outline></PolyStyle>
    </Style>

    <Placemark>
      <name>City &amp; County Map of New-York, Brooklyn, Williamsburgh, Jersey City &amp; the adjacent Waters</name>
      <description>HyperCities Map Library footprint · New York · 1849</description>
      <TimeSpan><begin>1849-01-01</begin><end>1849-12-31</end></TimeSpan>
      <ExtendedData>
      <Data name="mapId"><value>map:54</value></Data>
      <Data name="place"><value>New York</value></Data>
      <Data name="years"><value>1849</value></Data>
      <Data name="sourceRecordId"><value>54</value></Data>
      <Data name="collection"><value>Humanities and Social Sciences Library / The Lionel Pincus and Princess Firyal Map Division, New York Public Library</value></Data>
      <Data name="creator"><value>J.H. Colton (Joseph Hutchins), engraved by D.G. Johnson, New York</value></Data>
      <Data name="citation"><value>City &amp; County Map of New-York, Brooklyn, Williamsburgh, Jersey City &amp; the adjacent Waters (1849). HyperCities Map Library. Humanities and Social Sciences Library / The Lionel Pincus and Princess Firyal Map Division, New York Public Library.</value></Data>
      <Data name="tileTemplate"><value>https://tiles.ats.ucla.edu/tiles/NewYork_1849/{z}/{x}/{y}.png</value></Data>
      <Data name="groundOverlayTiles"><value>Source XYZ tiles included as KML GroundOverlays at the recorded minimum zoom.</value></Data>
      <Data name="rasterAvailability"><value>Original XYZ tiles, rendered here as KML GroundOverlays at the recorded minimum zoom.</value></Data>
      <Data name="exportScope"><value>Georeferenced footprint, provenance, and a source-tile raster overview at the recorded minimum zoom.</value></Data>
      </ExtendedData>
      <styleUrl>#hypercities-footprint</styleUrl>
      <Polygon><tessellate>1</tessellate><outerBoundaryIs><LinearRing><coordinates>-74.128498,40.640447,0 -73.814421,40.640447,0 -73.814421,40.922051,0 -74.128498,40.922051,0 -74.128498,40.640447,0</coordinates></LinearRing></outerBoundaryIs></Polygon>
    </Placemark>
    <GroundOverlay>
      <name>City &amp; County Map of New-York, Brooklyn, Williamsburgh, Jersey City &amp; the adjacent Waters · raster tile 4/4/6</name>
      <drawOrder>1</drawOrder>
      <Icon><href>https://tiles.ats.ucla.edu/tiles/NewYork_1849/4/4/6.png</href></Icon>
      <LatLonBox>
        <north>40.979898</north>
        <south>21.943046</south>
        <east>-67.500000</east>
        <west>-90.000000</west>
      </LatLonBox>
    </GroundOverlay>

  </Document>
</kml>