<?xml version="1.0" encoding="UTF-8"?>
<kml xmlns="http://www.opengis.net/kml/2.2">
  <Document>
    <name>Map of Wellington</name>
    <description>Map of Wellington, Wellington, 1924. Map of Wellington (1924). HyperCities Map Library. Wellington City Archives, 00553:3:15.</description>
    <Style id="hypercities-footprint">
      <LineStyle><color>ff5e6ad6</color><width>2</width></LineStyle>
      <PolyStyle><color>285e6ad6</color><fill>1</fill><outline>1</outline></PolyStyle>
    </Style>

    <Placemark>
      <name>Map of Wellington</name>
      <description>HyperCities Map Library footprint · Wellington · 1924</description>
      <TimeSpan><begin>1924-01-01</begin><end>1924-12-31</end></TimeSpan>
      <ExtendedData>
      <Data name="mapId"><value>map:234</value></Data>
      <Data name="place"><value>Wellington</value></Data>
      <Data name="years"><value>1924</value></Data>
      <Data name="sourceRecordId"><value>234</value></Data>
      <Data name="collection"><value>Wellington City Archives, 00553:3:15</value></Data>
      <Data name="creator"><value></value></Data>
      <Data name="citation"><value>Map of Wellington (1924). HyperCities Map Library. Wellington City Archives, 00553:3:15.</value></Data>
      <Data name="tileTemplate"><value>https://tiles.ats.ucla.edu/tiles/Wellington_1924/{z}/{x}/{y}.png</value></Data>
      <Data name="groundOverlayTiles"><value>Source XYZ tiles included as KML GroundOverlays at the recorded minimum zoom.</value></Data>
      <Data name="rasterAvailability"><value>Original XYZ tiles, rendered here as KML GroundOverlays at the recorded minimum zoom.</value></Data>
      <Data name="exportScope"><value>Georeferenced footprint, provenance, and a source-tile raster overview at the recorded minimum zoom.</value></Data>
      </ExtendedData>
      <styleUrl>#hypercities-footprint</styleUrl>
      <Polygon><tessellate>1</tessellate><outerBoundaryIs><LinearRing><coordinates>174.757808,-41.309431,0 174.800752,-41.309431,0 174.800752,-41.261522,0 174.757808,-41.261522,0 174.757808,-41.309431,0</coordinates></LinearRing></outerBoundaryIs></Polygon>
    </Placemark>
    <GroundOverlay>
      <name>Map of Wellington · raster tile 13/8072/5128</name>
      <drawOrder>1</drawOrder>
      <Icon><href>https://tiles.ats.ucla.edu/tiles/Wellington_1924/13/8072/5128.png</href></Icon>
      <LatLonBox>
        <north>-41.244772</north>
        <south>-41.277806</south>
        <east>174.770508</east>
        <west>174.726563</west>
      </LatLonBox>
    </GroundOverlay>
    <GroundOverlay>
      <name>Map of Wellington · raster tile 13/8073/5128</name>
      <drawOrder>1</drawOrder>
      <Icon><href>https://tiles.ats.ucla.edu/tiles/Wellington_1924/13/8073/5128.png</href></Icon>
      <LatLonBox>
        <north>-41.244772</north>
        <south>-41.277806</south>
        <east>174.814453</east>
        <west>174.770508</west>
      </LatLonBox>
    </GroundOverlay>
    <GroundOverlay>
      <name>Map of Wellington · raster tile 13/8072/5129</name>
      <drawOrder>1</drawOrder>
      <Icon><href>https://tiles.ats.ucla.edu/tiles/Wellington_1924/13/8072/5129.png</href></Icon>
      <LatLonBox>
        <north>-41.277806</north>
        <south>-41.310824</south>
        <east>174.770508</east>
        <west>174.726563</west>
      </LatLonBox>
    </GroundOverlay>
    <GroundOverlay>
      <name>Map of Wellington · raster tile 13/8073/5129</name>
      <drawOrder>1</drawOrder>
      <Icon><href>https://tiles.ats.ucla.edu/tiles/Wellington_1924/13/8073/5129.png</href></Icon>
      <LatLonBox>
        <north>-41.277806</north>
        <south>-41.310824</south>
        <east>174.814453</east>
        <west>174.770508</west>
      </LatLonBox>
    </GroundOverlay>

  </Document>
</kml>