<?xml version="1.0" encoding="UTF-8"?>
<kml xmlns="http://www.opengis.net/kml/2.2">
  <Document>
    <name>Coral Gables Alcazar</name>
    <description>Coral Gables Alcazar, Miami, 1938. Coral Gables Alcazar (1938). HyperCities Map Library.</description>
    <Style id="hypercities-footprint">
      <LineStyle><color>ff5e6ad6</color><width>2</width></LineStyle>
      <PolyStyle><color>285e6ad6</color><fill>1</fill><outline>1</outline></PolyStyle>
    </Style>

    <Placemark>
      <name>Coral Gables Alcazar</name>
      <description>HyperCities Map Library footprint · Miami · 1938</description>
      <TimeSpan><begin>1938-01-01</begin><end>1938-12-31</end></TimeSpan>
      <ExtendedData>
      <Data name="mapId"><value>map:437</value></Data>
      <Data name="place"><value>Miami</value></Data>
      <Data name="years"><value>1938</value></Data>
      <Data name="sourceRecordId"><value>437</value></Data>
      <Data name="collection"><value></value></Data>
      <Data name="creator"><value></value></Data>
      <Data name="citation"><value>Coral Gables Alcazar (1938). HyperCities Map Library.</value></Data>
      <Data name="tileTemplate"><value>https://tiles.ats.ucla.edu/tiles/1938_Coral_Gables_Alcazar_0266S/{z}/{x}/{y}.png</value></Data>
      <Data name="groundOverlayTiles"><value>Source XYZ tiles included as KML GroundOverlays at the recorded minimum zoom.</value></Data>
      <Data name="rasterAvailability"><value>Original XYZ tiles, rendered here as KML GroundOverlays at the recorded minimum zoom.</value></Data>
      <Data name="exportScope"><value>Georeferenced footprint, provenance, and a source-tile raster overview at the recorded minimum zoom.</value></Data>
      </ExtendedData>
      <styleUrl>#hypercities-footprint</styleUrl>
      <Polygon><tessellate>1</tessellate><outerBoundaryIs><LinearRing><coordinates>-80.261588,25.751696,0 -80.253984,25.751696,0 -80.253984,25.759665,0 -80.261588,25.759665,0 -80.261588,25.751696,0</coordinates></LinearRing></outerBoundaryIs></Polygon>
    </Placemark>
    <GroundOverlay>
      <name>Coral Gables Alcazar · raster tile 16/18156/27912</name>
      <drawOrder>1</drawOrder>
      <Icon><href>https://tiles.ats.ucla.edu/tiles/1938_Coral_Gables_Alcazar_0266S/16/18156/27912.png</href></Icon>
      <LatLonBox>
        <north>25.760320</north>
        <south>25.755372</south>
        <east>-80.260620</east>
        <west>-80.266113</west>
      </LatLonBox>
    </GroundOverlay>
    <GroundOverlay>
      <name>Coral Gables Alcazar · raster tile 16/18157/27912</name>
      <drawOrder>1</drawOrder>
      <Icon><href>https://tiles.ats.ucla.edu/tiles/1938_Coral_Gables_Alcazar_0266S/16/18157/27912.png</href></Icon>
      <LatLonBox>
        <north>25.760320</north>
        <south>25.755372</south>
        <east>-80.255127</east>
        <west>-80.260620</west>
      </LatLonBox>
    </GroundOverlay>
    <GroundOverlay>
      <name>Coral Gables Alcazar · raster tile 16/18158/27912</name>
      <drawOrder>1</drawOrder>
      <Icon><href>https://tiles.ats.ucla.edu/tiles/1938_Coral_Gables_Alcazar_0266S/16/18158/27912.png</href></Icon>
      <LatLonBox>
        <north>25.760320</north>
        <south>25.755372</south>
        <east>-80.249634</east>
        <west>-80.255127</west>
      </LatLonBox>
    </GroundOverlay>
    <GroundOverlay>
      <name>Coral Gables Alcazar · raster tile 16/18156/27913</name>
      <drawOrder>1</drawOrder>
      <Icon><href>https://tiles.ats.ucla.edu/tiles/1938_Coral_Gables_Alcazar_0266S/16/18156/27913.png</href></Icon>
      <LatLonBox>
        <north>25.755372</north>
        <south>25.750425</south>
        <east>-80.260620</east>
        <west>-80.266113</west>
      </LatLonBox>
    </GroundOverlay>
    <GroundOverlay>
      <name>Coral Gables Alcazar · raster tile 16/18157/27913</name>
      <drawOrder>1</drawOrder>
      <Icon><href>https://tiles.ats.ucla.edu/tiles/1938_Coral_Gables_Alcazar_0266S/16/18157/27913.png</href></Icon>
      <LatLonBox>
        <north>25.755372</north>
        <south>25.750425</south>
        <east>-80.255127</east>
        <west>-80.260620</west>
      </LatLonBox>
    </GroundOverlay>
    <GroundOverlay>
      <name>Coral Gables Alcazar · raster tile 16/18158/27913</name>
      <drawOrder>1</drawOrder>
      <Icon><href>https://tiles.ats.ucla.edu/tiles/1938_Coral_Gables_Alcazar_0266S/16/18158/27913.png</href></Icon>
      <LatLonBox>
        <north>25.755372</north>
        <south>25.750425</south>
        <east>-80.249634</east>
        <west>-80.255127</west>
      </LatLonBox>
    </GroundOverlay>

  </Document>
</kml>