<?xml version="1.0" encoding="UTF-8"?>
<kml xmlns="http://www.opengis.net/kml/2.2">
  <Document>
    <name>Map of Iowa City</name>
    <description>Map of Iowa City, Chicago, 1870. Map of Iowa City (1870). HyperCities Map Library. Iowa County Historic Atlases Collection, University of Iowa (http://digital.lib.uiowa.edu/maps).</description>
    <Style id="hypercities-footprint">
      <LineStyle><color>ff5e6ad6</color><width>2</width></LineStyle>
      <PolyStyle><color>285e6ad6</color><fill>1</fill><outline>1</outline></PolyStyle>
    </Style>

    <Placemark>
      <name>Map of Iowa City</name>
      <description>HyperCities Map Library footprint · Chicago · 1870</description>
      <TimeSpan><begin>1870-01-01</begin><end>1870-12-31</end></TimeSpan>
      <ExtendedData>
      <Data name="mapId"><value>map:278</value></Data>
      <Data name="place"><value>Chicago</value></Data>
      <Data name="years"><value>1870</value></Data>
      <Data name="sourceRecordId"><value>278</value></Data>
      <Data name="collection"><value>Iowa County Historic Atlases Collection, University of Iowa (http://digital.lib.uiowa.edu/maps)</value></Data>
      <Data name="creator"><value>Thompson and Everts</value></Data>
      <Data name="citation"><value>Map of Iowa City (1870). HyperCities Map Library. Iowa County Historic Atlases Collection, University of Iowa (http://digital.lib.uiowa.edu/maps).</value></Data>
      <Data name="tileTemplate"><value>https://tiles.ats.ucla.edu/tiles/Iowa_City_1870/{z}/{x}/{y}.png</value></Data>
      <Data name="groundOverlayTiles"><value>Source XYZ tiles included as KML GroundOverlays at the recorded minimum zoom.</value></Data>
      <Data name="rasterAvailability"><value>Original XYZ tiles, rendered here as KML GroundOverlays at the recorded minimum zoom.</value></Data>
      <Data name="exportScope"><value>Georeferenced footprint, provenance, and a source-tile raster overview at the recorded minimum zoom.</value></Data>
      </ExtendedData>
      <styleUrl>#hypercities-footprint</styleUrl>
      <Polygon><tessellate>1</tessellate><outerBoundaryIs><LinearRing><coordinates>-91.543311,41.643408,0 -91.513115,41.643408,0 -91.513115,41.681111,0 -91.543311,41.681111,0 -91.543311,41.643408,0</coordinates></LinearRing></outerBoundaryIs></Polygon>
    </Placemark>
    <GroundOverlay>
      <name>Map of Iowa City · raster tile 14/4025/6101</name>
      <drawOrder>1</drawOrder>
      <Icon><href>https://tiles.ats.ucla.edu/tiles/Iowa_City_1870/14/4025/6101.png</href></Icon>
      <LatLonBox>
        <north>41.689322</north>
        <south>41.672912</south>
        <east>-91.538086</east>
        <west>-91.560059</west>
      </LatLonBox>
    </GroundOverlay>
    <GroundOverlay>
      <name>Map of Iowa City · raster tile 14/4026/6101</name>
      <drawOrder>1</drawOrder>
      <Icon><href>https://tiles.ats.ucla.edu/tiles/Iowa_City_1870/14/4026/6101.png</href></Icon>
      <LatLonBox>
        <north>41.689322</north>
        <south>41.672912</south>
        <east>-91.516113</east>
        <west>-91.538086</west>
      </LatLonBox>
    </GroundOverlay>
    <GroundOverlay>
      <name>Map of Iowa City · raster tile 14/4027/6101</name>
      <drawOrder>1</drawOrder>
      <Icon><href>https://tiles.ats.ucla.edu/tiles/Iowa_City_1870/14/4027/6101.png</href></Icon>
      <LatLonBox>
        <north>41.689322</north>
        <south>41.672912</south>
        <east>-91.494141</east>
        <west>-91.516113</west>
      </LatLonBox>
    </GroundOverlay>
    <GroundOverlay>
      <name>Map of Iowa City · raster tile 14/4025/6102</name>
      <drawOrder>1</drawOrder>
      <Icon><href>https://tiles.ats.ucla.edu/tiles/Iowa_City_1870/14/4025/6102.png</href></Icon>
      <LatLonBox>
        <north>41.672912</north>
        <south>41.656497</south>
        <east>-91.538086</east>
        <west>-91.560059</west>
      </LatLonBox>
    </GroundOverlay>
    <GroundOverlay>
      <name>Map of Iowa City · raster tile 14/4026/6102</name>
      <drawOrder>1</drawOrder>
      <Icon><href>https://tiles.ats.ucla.edu/tiles/Iowa_City_1870/14/4026/6102.png</href></Icon>
      <LatLonBox>
        <north>41.672912</north>
        <south>41.656497</south>
        <east>-91.516113</east>
        <west>-91.538086</west>
      </LatLonBox>
    </GroundOverlay>
    <GroundOverlay>
      <name>Map of Iowa City · raster tile 14/4027/6102</name>
      <drawOrder>1</drawOrder>
      <Icon><href>https://tiles.ats.ucla.edu/tiles/Iowa_City_1870/14/4027/6102.png</href></Icon>
      <LatLonBox>
        <north>41.672912</north>
        <south>41.656497</south>
        <east>-91.494141</east>
        <west>-91.516113</west>
      </LatLonBox>
    </GroundOverlay>
    <GroundOverlay>
      <name>Map of Iowa City · raster tile 14/4025/6103</name>
      <drawOrder>1</drawOrder>
      <Icon><href>https://tiles.ats.ucla.edu/tiles/Iowa_City_1870/14/4025/6103.png</href></Icon>
      <LatLonBox>
        <north>41.656497</north>
        <south>41.640078</south>
        <east>-91.538086</east>
        <west>-91.560059</west>
      </LatLonBox>
    </GroundOverlay>
    <GroundOverlay>
      <name>Map of Iowa City · raster tile 14/4026/6103</name>
      <drawOrder>1</drawOrder>
      <Icon><href>https://tiles.ats.ucla.edu/tiles/Iowa_City_1870/14/4026/6103.png</href></Icon>
      <LatLonBox>
        <north>41.656497</north>
        <south>41.640078</south>
        <east>-91.516113</east>
        <west>-91.538086</west>
      </LatLonBox>
    </GroundOverlay>
    <GroundOverlay>
      <name>Map of Iowa City · raster tile 14/4027/6103</name>
      <drawOrder>1</drawOrder>
      <Icon><href>https://tiles.ats.ucla.edu/tiles/Iowa_City_1870/14/4027/6103.png</href></Icon>
      <LatLonBox>
        <north>41.656497</north>
        <south>41.640078</south>
        <east>-91.494141</east>
        <west>-91.516113</west>
      </LatLonBox>
    </GroundOverlay>

  </Document>
</kml>