<?xml version="1.0" encoding="UTF-8"?>
<kml xmlns="http://www.opengis.net/kml/2.2">
  <Document>
    <name>Map of Cit of Los Angeles Founded 1781 Featuring Downtown* Civic Center * Points of Interest</name>
    <description>Map of Cit of Los Angeles Founded 1781 Featuring Downtown* Civic Center * Points of Interest, Los Angeles, 1969. Map of Cit of Los Angeles Founded 1781 Featuring Downtown* Civic Center * Points of Interest (1969). HyperCities Map Library. UCLA Bruman Map Collection.</description>
    <Style id="hypercities-footprint">
      <LineStyle><color>ff5e6ad6</color><width>2</width></LineStyle>
      <PolyStyle><color>285e6ad6</color><fill>1</fill><outline>1</outline></PolyStyle>
    </Style>

    <Placemark>
      <name>Map of Cit of Los Angeles Founded 1781 Featuring Downtown* Civic Center * Points of Interest</name>
      <description>HyperCities Map Library footprint · Los Angeles · 1969</description>
      <TimeSpan><begin>1969-01-01</begin><end>1969-12-31</end></TimeSpan>
      <ExtendedData>
      <Data name="mapId"><value>map:71</value></Data>
      <Data name="place"><value>Los Angeles</value></Data>
      <Data name="years"><value>1969</value></Data>
      <Data name="sourceRecordId"><value>71</value></Data>
      <Data name="collection"><value>UCLA Bruman Map Collection</value></Data>
      <Data name="creator"><value>Mitock &amp; Sons,</value></Data>
      <Data name="citation"><value>Map of Cit of Los Angeles Founded 1781 Featuring Downtown* Civic Center * Points of Interest (1969). HyperCities Map Library. UCLA Bruman Map Collection.</value></Data>
      <Data name="tileTemplate"><value>https://tiles.ats.ucla.edu/tiles/Los_Angeles_1969/{z}/{x}/{y}.png</value></Data>
      <Data name="groundOverlayTiles"><value>Source XYZ tiles included as KML GroundOverlays at the recorded minimum zoom.</value></Data>
      <Data name="rasterAvailability"><value>Original XYZ tiles, rendered here as KML GroundOverlays at the recorded minimum zoom.</value></Data>
      <Data name="exportScope"><value>Georeferenced footprint, provenance, and a source-tile raster overview at the recorded minimum zoom.</value></Data>
      </ExtendedData>
      <styleUrl>#hypercities-footprint</styleUrl>
      <Polygon><tessellate>1</tessellate><outerBoundaryIs><LinearRing><coordinates>-118.287632,34.022198,0 -118.223178,34.022198,0 -118.223178,34.078676,0 -118.287632,34.078676,0 -118.287632,34.022198,0</coordinates></LinearRing></outerBoundaryIs></Polygon>
    </Placemark>
    <GroundOverlay>
      <name>Map of Cit of Los Angeles Founded 1781 Featuring Downtown* Civic Center * Points of Interest · raster tile 12/702/1635</name>
      <drawOrder>1</drawOrder>
      <Icon><href>https://tiles.ats.ucla.edu/tiles/Los_Angeles_1969/12/702/1635.png</href></Icon>
      <LatLonBox>
        <north>34.089061</north>
        <south>34.016242</south>
        <east>-118.212891</east>
        <west>-118.300781</west>
      </LatLonBox>
    </GroundOverlay>

  </Document>
</kml>