<?xml version="1.0" encoding="UTF-8"?>
<kml xmlns="http://www.opengis.net/kml/2.2">
  <Document>
    <name>Berlin 1237</name>
    <description>Berlin 1237, Berlin, 1237. Berlin 1237 (1237). HyperCities Map Library.</description>
    <Style id="hypercities-footprint">
      <LineStyle><color>ff5e6ad6</color><width>2</width></LineStyle>
      <PolyStyle><color>285e6ad6</color><fill>1</fill><outline>1</outline></PolyStyle>
    </Style>

    <Placemark>
      <name>Berlin 1237</name>
      <description>HyperCities Map Library footprint · Berlin · 1237</description>
      <TimeSpan><begin>1237-01-01</begin><end>1237-12-31</end></TimeSpan>
      <ExtendedData>
      <Data name="mapId"><value>map:17</value></Data>
      <Data name="place"><value>Berlin</value></Data>
      <Data name="years"><value>1237</value></Data>
      <Data name="sourceRecordId"><value>17</value></Data>
      <Data name="collection"><value></value></Data>
      <Data name="creator"><value></value></Data>
      <Data name="citation"><value>Berlin 1237 (1237). HyperCities Map Library.</value></Data>
      <Data name="tileTemplate"><value>https://tiles.ats.ucla.edu/tiles/Berlin_1237/{z}/{x}/{y}.png</value></Data>
      <Data name="groundOverlayTiles"><value>Source XYZ tiles included as KML GroundOverlays at the recorded minimum zoom.</value></Data>
      <Data name="rasterAvailability"><value>Original XYZ tiles, rendered here as KML GroundOverlays at the recorded minimum zoom.</value></Data>
      <Data name="exportScope"><value>Georeferenced footprint, provenance, and a source-tile raster overview at the recorded minimum zoom.</value></Data>
      </ExtendedData>
      <styleUrl>#hypercities-footprint</styleUrl>
      <Polygon><tessellate>1</tessellate><outerBoundaryIs><LinearRing><coordinates>13.128002,52.40889,0 13.620013,52.40889,0 13.620013,52.61778,0 13.128002,52.61778,0 13.128002,52.40889,0</coordinates></LinearRing></outerBoundaryIs></Polygon>
    </Placemark>
    <GroundOverlay>
      <name>Berlin 1237 · raster tile 12/2197/1341</name>
      <drawOrder>1</drawOrder>
      <Icon><href>https://tiles.ats.ucla.edu/tiles/Berlin_1237/12/2197/1341.png</href></Icon>
      <LatLonBox>
        <north>52.643063</north>
        <south>52.589701</south>
        <east>13.183594</east>
        <west>13.095703</west>
      </LatLonBox>
    </GroundOverlay>
    <GroundOverlay>
      <name>Berlin 1237 · raster tile 12/2198/1341</name>
      <drawOrder>1</drawOrder>
      <Icon><href>https://tiles.ats.ucla.edu/tiles/Berlin_1237/12/2198/1341.png</href></Icon>
      <LatLonBox>
        <north>52.643063</north>
        <south>52.589701</south>
        <east>13.271484</east>
        <west>13.183594</west>
      </LatLonBox>
    </GroundOverlay>
    <GroundOverlay>
      <name>Berlin 1237 · raster tile 12/2199/1341</name>
      <drawOrder>1</drawOrder>
      <Icon><href>https://tiles.ats.ucla.edu/tiles/Berlin_1237/12/2199/1341.png</href></Icon>
      <LatLonBox>
        <north>52.643063</north>
        <south>52.589701</south>
        <east>13.359375</east>
        <west>13.271484</west>
      </LatLonBox>
    </GroundOverlay>
    <GroundOverlay>
      <name>Berlin 1237 · raster tile 12/2200/1341</name>
      <drawOrder>1</drawOrder>
      <Icon><href>https://tiles.ats.ucla.edu/tiles/Berlin_1237/12/2200/1341.png</href></Icon>
      <LatLonBox>
        <north>52.643063</north>
        <south>52.589701</south>
        <east>13.447266</east>
        <west>13.359375</west>
      </LatLonBox>
    </GroundOverlay>
    <GroundOverlay>
      <name>Berlin 1237 · raster tile 12/2201/1341</name>
      <drawOrder>1</drawOrder>
      <Icon><href>https://tiles.ats.ucla.edu/tiles/Berlin_1237/12/2201/1341.png</href></Icon>
      <LatLonBox>
        <north>52.643063</north>
        <south>52.589701</south>
        <east>13.535156</east>
        <west>13.447266</west>
      </LatLonBox>
    </GroundOverlay>
    <GroundOverlay>
      <name>Berlin 1237 · raster tile 12/2202/1341</name>
      <drawOrder>1</drawOrder>
      <Icon><href>https://tiles.ats.ucla.edu/tiles/Berlin_1237/12/2202/1341.png</href></Icon>
      <LatLonBox>
        <north>52.643063</north>
        <south>52.589701</south>
        <east>13.623047</east>
        <west>13.535156</west>
      </LatLonBox>
    </GroundOverlay>
    <GroundOverlay>
      <name>Berlin 1237 · raster tile 12/2197/1342</name>
      <drawOrder>1</drawOrder>
      <Icon><href>https://tiles.ats.ucla.edu/tiles/Berlin_1237/12/2197/1342.png</href></Icon>
      <LatLonBox>
        <north>52.589701</north>
        <south>52.536273</south>
        <east>13.183594</east>
        <west>13.095703</west>
      </LatLonBox>
    </GroundOverlay>
    <GroundOverlay>
      <name>Berlin 1237 · raster tile 12/2198/1342</name>
      <drawOrder>1</drawOrder>
      <Icon><href>https://tiles.ats.ucla.edu/tiles/Berlin_1237/12/2198/1342.png</href></Icon>
      <LatLonBox>
        <north>52.589701</north>
        <south>52.536273</south>
        <east>13.271484</east>
        <west>13.183594</west>
      </LatLonBox>
    </GroundOverlay>
    <GroundOverlay>
      <name>Berlin 1237 · raster tile 12/2199/1342</name>
      <drawOrder>1</drawOrder>
      <Icon><href>https://tiles.ats.ucla.edu/tiles/Berlin_1237/12/2199/1342.png</href></Icon>
      <LatLonBox>
        <north>52.589701</north>
        <south>52.536273</south>
        <east>13.359375</east>
        <west>13.271484</west>
      </LatLonBox>
    </GroundOverlay>
    <GroundOverlay>
      <name>Berlin 1237 · raster tile 12/2200/1342</name>
      <drawOrder>1</drawOrder>
      <Icon><href>https://tiles.ats.ucla.edu/tiles/Berlin_1237/12/2200/1342.png</href></Icon>
      <LatLonBox>
        <north>52.589701</north>
        <south>52.536273</south>
        <east>13.447266</east>
        <west>13.359375</west>
      </LatLonBox>
    </GroundOverlay>
    <GroundOverlay>
      <name>Berlin 1237 · raster tile 12/2201/1342</name>
      <drawOrder>1</drawOrder>
      <Icon><href>https://tiles.ats.ucla.edu/tiles/Berlin_1237/12/2201/1342.png</href></Icon>
      <LatLonBox>
        <north>52.589701</north>
        <south>52.536273</south>
        <east>13.535156</east>
        <west>13.447266</west>
      </LatLonBox>
    </GroundOverlay>
    <GroundOverlay>
      <name>Berlin 1237 · raster tile 12/2202/1342</name>
      <drawOrder>1</drawOrder>
      <Icon><href>https://tiles.ats.ucla.edu/tiles/Berlin_1237/12/2202/1342.png</href></Icon>
      <LatLonBox>
        <north>52.589701</north>
        <south>52.536273</south>
        <east>13.623047</east>
        <west>13.535156</west>
      </LatLonBox>
    </GroundOverlay>
    <GroundOverlay>
      <name>Berlin 1237 · raster tile 12/2197/1343</name>
      <drawOrder>1</drawOrder>
      <Icon><href>https://tiles.ats.ucla.edu/tiles/Berlin_1237/12/2197/1343.png</href></Icon>
      <LatLonBox>
        <north>52.536273</north>
        <south>52.482780</south>
        <east>13.183594</east>
        <west>13.095703</west>
      </LatLonBox>
    </GroundOverlay>
    <GroundOverlay>
      <name>Berlin 1237 · raster tile 12/2198/1343</name>
      <drawOrder>1</drawOrder>
      <Icon><href>https://tiles.ats.ucla.edu/tiles/Berlin_1237/12/2198/1343.png</href></Icon>
      <LatLonBox>
        <north>52.536273</north>
        <south>52.482780</south>
        <east>13.271484</east>
        <west>13.183594</west>
      </LatLonBox>
    </GroundOverlay>
    <GroundOverlay>
      <name>Berlin 1237 · raster tile 12/2199/1343</name>
      <drawOrder>1</drawOrder>
      <Icon><href>https://tiles.ats.ucla.edu/tiles/Berlin_1237/12/2199/1343.png</href></Icon>
      <LatLonBox>
        <north>52.536273</north>
        <south>52.482780</south>
        <east>13.359375</east>
        <west>13.271484</west>
      </LatLonBox>
    </GroundOverlay>
    <GroundOverlay>
      <name>Berlin 1237 · raster tile 12/2200/1343</name>
      <drawOrder>1</drawOrder>
      <Icon><href>https://tiles.ats.ucla.edu/tiles/Berlin_1237/12/2200/1343.png</href></Icon>
      <LatLonBox>
        <north>52.536273</north>
        <south>52.482780</south>
        <east>13.447266</east>
        <west>13.359375</west>
      </LatLonBox>
    </GroundOverlay>
    <GroundOverlay>
      <name>Berlin 1237 · raster tile 12/2201/1343</name>
      <drawOrder>1</drawOrder>
      <Icon><href>https://tiles.ats.ucla.edu/tiles/Berlin_1237/12/2201/1343.png</href></Icon>
      <LatLonBox>
        <north>52.536273</north>
        <south>52.482780</south>
        <east>13.535156</east>
        <west>13.447266</west>
      </LatLonBox>
    </GroundOverlay>
    <GroundOverlay>
      <name>Berlin 1237 · raster tile 12/2202/1343</name>
      <drawOrder>1</drawOrder>
      <Icon><href>https://tiles.ats.ucla.edu/tiles/Berlin_1237/12/2202/1343.png</href></Icon>
      <LatLonBox>
        <north>52.536273</north>
        <south>52.482780</south>
        <east>13.623047</east>
        <west>13.535156</west>
      </LatLonBox>
    </GroundOverlay>
    <GroundOverlay>
      <name>Berlin 1237 · raster tile 12/2197/1344</name>
      <drawOrder>1</drawOrder>
      <Icon><href>https://tiles.ats.ucla.edu/tiles/Berlin_1237/12/2197/1344.png</href></Icon>
      <LatLonBox>
        <north>52.482780</north>
        <south>52.429222</south>
        <east>13.183594</east>
        <west>13.095703</west>
      </LatLonBox>
    </GroundOverlay>
    <GroundOverlay>
      <name>Berlin 1237 · raster tile 12/2198/1344</name>
      <drawOrder>1</drawOrder>
      <Icon><href>https://tiles.ats.ucla.edu/tiles/Berlin_1237/12/2198/1344.png</href></Icon>
      <LatLonBox>
        <north>52.482780</north>
        <south>52.429222</south>
        <east>13.271484</east>
        <west>13.183594</west>
      </LatLonBox>
    </GroundOverlay>
    <GroundOverlay>
      <name>Berlin 1237 · raster tile 12/2199/1344</name>
      <drawOrder>1</drawOrder>
      <Icon><href>https://tiles.ats.ucla.edu/tiles/Berlin_1237/12/2199/1344.png</href></Icon>
      <LatLonBox>
        <north>52.482780</north>
        <south>52.429222</south>
        <east>13.359375</east>
        <west>13.271484</west>
      </LatLonBox>
    </GroundOverlay>
    <GroundOverlay>
      <name>Berlin 1237 · raster tile 12/2200/1344</name>
      <drawOrder>1</drawOrder>
      <Icon><href>https://tiles.ats.ucla.edu/tiles/Berlin_1237/12/2200/1344.png</href></Icon>
      <LatLonBox>
        <north>52.482780</north>
        <south>52.429222</south>
        <east>13.447266</east>
        <west>13.359375</west>
      </LatLonBox>
    </GroundOverlay>
    <GroundOverlay>
      <name>Berlin 1237 · raster tile 12/2201/1344</name>
      <drawOrder>1</drawOrder>
      <Icon><href>https://tiles.ats.ucla.edu/tiles/Berlin_1237/12/2201/1344.png</href></Icon>
      <LatLonBox>
        <north>52.482780</north>
        <south>52.429222</south>
        <east>13.535156</east>
        <west>13.447266</west>
      </LatLonBox>
    </GroundOverlay>
    <GroundOverlay>
      <name>Berlin 1237 · raster tile 12/2202/1344</name>
      <drawOrder>1</drawOrder>
      <Icon><href>https://tiles.ats.ucla.edu/tiles/Berlin_1237/12/2202/1344.png</href></Icon>
      <LatLonBox>
        <north>52.482780</north>
        <south>52.429222</south>
        <east>13.623047</east>
        <west>13.535156</west>
      </LatLonBox>
    </GroundOverlay>
    <GroundOverlay>
      <name>Berlin 1237 · raster tile 12/2197/1345</name>
      <drawOrder>1</drawOrder>
      <Icon><href>https://tiles.ats.ucla.edu/tiles/Berlin_1237/12/2197/1345.png</href></Icon>
      <LatLonBox>
        <north>52.429222</north>
        <south>52.375599</south>
        <east>13.183594</east>
        <west>13.095703</west>
      </LatLonBox>
    </GroundOverlay>
    <GroundOverlay>
      <name>Berlin 1237 · raster tile 12/2198/1345</name>
      <drawOrder>1</drawOrder>
      <Icon><href>https://tiles.ats.ucla.edu/tiles/Berlin_1237/12/2198/1345.png</href></Icon>
      <LatLonBox>
        <north>52.429222</north>
        <south>52.375599</south>
        <east>13.271484</east>
        <west>13.183594</west>
      </LatLonBox>
    </GroundOverlay>
    <GroundOverlay>
      <name>Berlin 1237 · raster tile 12/2199/1345</name>
      <drawOrder>1</drawOrder>
      <Icon><href>https://tiles.ats.ucla.edu/tiles/Berlin_1237/12/2199/1345.png</href></Icon>
      <LatLonBox>
        <north>52.429222</north>
        <south>52.375599</south>
        <east>13.359375</east>
        <west>13.271484</west>
      </LatLonBox>
    </GroundOverlay>
    <GroundOverlay>
      <name>Berlin 1237 · raster tile 12/2200/1345</name>
      <drawOrder>1</drawOrder>
      <Icon><href>https://tiles.ats.ucla.edu/tiles/Berlin_1237/12/2200/1345.png</href></Icon>
      <LatLonBox>
        <north>52.429222</north>
        <south>52.375599</south>
        <east>13.447266</east>
        <west>13.359375</west>
      </LatLonBox>
    </GroundOverlay>
    <GroundOverlay>
      <name>Berlin 1237 · raster tile 12/2201/1345</name>
      <drawOrder>1</drawOrder>
      <Icon><href>https://tiles.ats.ucla.edu/tiles/Berlin_1237/12/2201/1345.png</href></Icon>
      <LatLonBox>
        <north>52.429222</north>
        <south>52.375599</south>
        <east>13.535156</east>
        <west>13.447266</west>
      </LatLonBox>
    </GroundOverlay>
    <GroundOverlay>
      <name>Berlin 1237 · raster tile 12/2202/1345</name>
      <drawOrder>1</drawOrder>
      <Icon><href>https://tiles.ats.ucla.edu/tiles/Berlin_1237/12/2202/1345.png</href></Icon>
      <LatLonBox>
        <north>52.429222</north>
        <south>52.375599</south>
        <east>13.623047</east>
        <west>13.535156</west>
      </LatLonBox>
    </GroundOverlay>

  </Document>
</kml>