<?xml version="1.0" encoding="UTF-8"?>
<kml xmlns="http://www.opengis.net/kml/2.2">
  <Document>
    <name>Map of Shanghai (1932)</name>
    <description>Map of Shanghai (1932), Shanghai, 1932. Map of Shanghai (1932) (1932). HyperCities Map Library.</description>
    <Style id="hypercities-footprint">
      <LineStyle><color>ff5e6ad6</color><width>2</width></LineStyle>
      <PolyStyle><color>285e6ad6</color><fill>1</fill><outline>1</outline></PolyStyle>
    </Style>

    <Placemark>
      <name>Map of Shanghai (1932)</name>
      <description>HyperCities Map Library footprint · Shanghai · 1932</description>
      <TimeSpan><begin>1932-01-01</begin><end>1932-12-31</end></TimeSpan>
      <ExtendedData>
      <Data name="mapId"><value>map:186</value></Data>
      <Data name="place"><value>Shanghai</value></Data>
      <Data name="years"><value>1932</value></Data>
      <Data name="sourceRecordId"><value>186</value></Data>
      <Data name="collection"><value></value></Data>
      <Data name="creator"><value></value></Data>
      <Data name="citation"><value>Map of Shanghai (1932) (1932). HyperCities Map Library.</value></Data>
      <Data name="tileTemplate"><value>https://tiles.ats.ucla.edu/tiles/Shanghai_1932_2/{z}/{x}/{y}.png</value></Data>
      <Data name="groundOverlayTiles"><value>Source XYZ tiles included as KML GroundOverlays at the recorded minimum zoom.</value></Data>
      <Data name="rasterAvailability"><value>Original XYZ tiles, rendered here as KML GroundOverlays at the recorded minimum zoom.</value></Data>
      <Data name="exportScope"><value>Georeferenced footprint, provenance, and a source-tile raster overview at the recorded minimum zoom.</value></Data>
      </ExtendedData>
      <styleUrl>#hypercities-footprint</styleUrl>
      <Polygon><tessellate>1</tessellate><outerBoundaryIs><LinearRing><coordinates>121.340648,31.128298,0 121.501411,31.128298,0 121.501411,31.287849,0 121.340648,31.287849,0 121.340648,31.128298,0</coordinates></LinearRing></outerBoundaryIs></Polygon>
    </Placemark>
    <GroundOverlay>
      <name>Map of Shanghai (1932) · raster tile 11/1714/836</name>
      <drawOrder>1</drawOrder>
      <Icon><href>https://tiles.ats.ucla.edu/tiles/Shanghai_1932_2/11/1714/836.png</href></Icon>
      <LatLonBox>
        <north>31.353637</north>
        <south>31.203405</south>
        <east>121.464844</east>
        <west>121.289063</west>
      </LatLonBox>
    </GroundOverlay>
    <GroundOverlay>
      <name>Map of Shanghai (1932) · raster tile 11/1715/836</name>
      <drawOrder>1</drawOrder>
      <Icon><href>https://tiles.ats.ucla.edu/tiles/Shanghai_1932_2/11/1715/836.png</href></Icon>
      <LatLonBox>
        <north>31.353637</north>
        <south>31.203405</south>
        <east>121.640625</east>
        <west>121.464844</west>
      </LatLonBox>
    </GroundOverlay>
    <GroundOverlay>
      <name>Map of Shanghai (1932) · raster tile 11/1714/837</name>
      <drawOrder>1</drawOrder>
      <Icon><href>https://tiles.ats.ucla.edu/tiles/Shanghai_1932_2/11/1714/837.png</href></Icon>
      <LatLonBox>
        <north>31.203405</north>
        <south>31.052934</south>
        <east>121.464844</east>
        <west>121.289063</west>
      </LatLonBox>
    </GroundOverlay>
    <GroundOverlay>
      <name>Map of Shanghai (1932) · raster tile 11/1715/837</name>
      <drawOrder>1</drawOrder>
      <Icon><href>https://tiles.ats.ucla.edu/tiles/Shanghai_1932_2/11/1715/837.png</href></Icon>
      <LatLonBox>
        <north>31.203405</north>
        <south>31.052934</south>
        <east>121.640625</east>
        <west>121.464844</west>
      </LatLonBox>
    </GroundOverlay>

  </Document>
</kml>