<?xml version="1.0" encoding="UTF-8"?>
<kml xmlns="http://www.opengis.net/kml/2.2">
  <Document>
    <name>Berlin 1850</name>
    <description>Berlin 1850, Berlin, 1850. Berlin 1850 (1850). HyperCities Map Library.</description>
    <Style id="hypercities-footprint">
      <LineStyle><color>ff5e6ad6</color><width>2</width></LineStyle>
      <PolyStyle><color>285e6ad6</color><fill>1</fill><outline>1</outline></PolyStyle>
    </Style>

    <Placemark>
      <name>Berlin 1850</name>
      <description>HyperCities Map Library footprint · Berlin · 1850</description>
      <TimeSpan><begin>1850-01-01</begin><end>1850-12-31</end></TimeSpan>
      <ExtendedData>
      <Data name="mapId"><value>map:31</value></Data>
      <Data name="place"><value>Berlin</value></Data>
      <Data name="years"><value>1850</value></Data>
      <Data name="sourceRecordId"><value>31</value></Data>
      <Data name="collection"><value></value></Data>
      <Data name="creator"><value></value></Data>
      <Data name="citation"><value>Berlin 1850 (1850). HyperCities Map Library.</value></Data>
      <Data name="tileTemplate"><value>https://tiles.ats.ucla.edu/tiles/Berlin_1850/{z}/{x}/{y}.png</value></Data>
      <Data name="groundOverlayTiles"><value>Source XYZ tiles included as KML GroundOverlays at the recorded minimum zoom.</value></Data>
      <Data name="rasterAvailability"><value>Original XYZ tiles, rendered here as KML GroundOverlays at the recorded minimum zoom.</value></Data>
      <Data name="exportScope"><value>Georeferenced footprint, provenance, and a source-tile raster overview at the recorded minimum zoom.</value></Data>
      </ExtendedData>
      <styleUrl>#hypercities-footprint</styleUrl>
      <Polygon><tessellate>1</tessellate><outerBoundaryIs><LinearRing><coordinates>52.487951,13.347377,0 52.533155,13.347377,0 52.533155,13.447605,0 52.487951,13.447605,0 52.487951,13.347377,0</coordinates></LinearRing></outerBoundaryIs></Polygon>
    </Placemark>
    <GroundOverlay>
      <name>Berlin 1850 · raster tile 10/661/473</name>
      <drawOrder>1</drawOrder>
      <Icon><href>https://tiles.ats.ucla.edu/tiles/Berlin_1850/10/661/473.png</href></Icon>
      <LatLonBox>
        <north>13.581921</north>
        <south>13.239945</south>
        <east>52.734375</east>
        <west>52.382813</west>
      </LatLonBox>
    </GroundOverlay>

  </Document>
</kml>