<?xml version="1.0" encoding="UTF-8"?>
<kml xmlns="http://www.opengis.net/kml/2.2">
  <Document>
    <name>Map of Korea (1911)</name>
    <description>Map of Korea (1911), Seoul, 1911. Map of Korea (1911) (1911). HyperCities Map Library.</description>
    <Style id="hypercities-footprint">
      <LineStyle><color>ff5e6ad6</color><width>2</width></LineStyle>
      <PolyStyle><color>285e6ad6</color><fill>1</fill><outline>1</outline></PolyStyle>
    </Style>

    <Placemark>
      <name>Map of Korea (1911)</name>
      <description>HyperCities Map Library footprint · Seoul · 1911</description>
      <TimeSpan><begin>1911-01-01</begin><end>1911-12-31</end></TimeSpan>
      <ExtendedData>
      <Data name="mapId"><value>map:184</value></Data>
      <Data name="place"><value>Seoul</value></Data>
      <Data name="years"><value>1911</value></Data>
      <Data name="sourceRecordId"><value>184</value></Data>
      <Data name="collection"><value></value></Data>
      <Data name="creator"><value></value></Data>
      <Data name="citation"><value>Map of Korea (1911) (1911). HyperCities Map Library.</value></Data>
      <Data name="tileTemplate"><value>https://tiles.ats.ucla.edu/tiles/Korea_1911/{z}/{x}/{y}.png</value></Data>
      <Data name="groundOverlayTiles"><value>Source XYZ tiles included as KML GroundOverlays at the recorded minimum zoom.</value></Data>
      <Data name="rasterAvailability"><value>Original XYZ tiles, rendered here as KML GroundOverlays at the recorded minimum zoom.</value></Data>
      <Data name="exportScope"><value>Georeferenced footprint, provenance, and a source-tile raster overview at the recorded minimum zoom.</value></Data>
      </ExtendedData>
      <styleUrl>#hypercities-footprint</styleUrl>
      <Polygon><tessellate>1</tessellate><outerBoundaryIs><LinearRing><coordinates>121.698254,32.50268,0 131.59386,32.50268,0 131.59386,43.309059,0 121.698254,43.309059,0 121.698254,32.50268,0</coordinates></LinearRing></outerBoundaryIs></Polygon>
    </Placemark>
    <GroundOverlay>
      <name>Map of Korea (1911) · raster tile 5/26/11</name>
      <drawOrder>1</drawOrder>
      <Icon><href>https://tiles.ats.ucla.edu/tiles/Korea_1911/5/26/11.png</href></Icon>
      <LatLonBox>
        <north>48.922499</north>
        <south>40.979898</south>
        <east>123.750000</east>
        <west>112.500000</west>
      </LatLonBox>
    </GroundOverlay>
    <GroundOverlay>
      <name>Map of Korea (1911) · raster tile 5/27/11</name>
      <drawOrder>1</drawOrder>
      <Icon><href>https://tiles.ats.ucla.edu/tiles/Korea_1911/5/27/11.png</href></Icon>
      <LatLonBox>
        <north>48.922499</north>
        <south>40.979898</south>
        <east>135.000000</east>
        <west>123.750000</west>
      </LatLonBox>
    </GroundOverlay>
    <GroundOverlay>
      <name>Map of Korea (1911) · raster tile 5/26/12</name>
      <drawOrder>1</drawOrder>
      <Icon><href>https://tiles.ats.ucla.edu/tiles/Korea_1911/5/26/12.png</href></Icon>
      <LatLonBox>
        <north>40.979898</north>
        <south>31.952162</south>
        <east>123.750000</east>
        <west>112.500000</west>
      </LatLonBox>
    </GroundOverlay>
    <GroundOverlay>
      <name>Map of Korea (1911) · raster tile 5/27/12</name>
      <drawOrder>1</drawOrder>
      <Icon><href>https://tiles.ats.ucla.edu/tiles/Korea_1911/5/27/12.png</href></Icon>
      <LatLonBox>
        <north>40.979898</north>
        <south>31.952162</south>
        <east>135.000000</east>
        <west>123.750000</west>
      </LatLonBox>
    </GroundOverlay>

  </Document>
</kml>