<?xml version="1.0" encoding="UTF-8"?>
<kml xmlns="http://www.opengis.net/kml/2.2">
  <Document>
    <name>LaVigne Map</name>
    <description>LaVigne Map, Berlin, 1685. LaVigne Map (1685). HyperCities Map Library.</description>
    <Style id="hypercities-footprint">
      <LineStyle><color>ff5e6ad6</color><width>2</width></LineStyle>
      <PolyStyle><color>285e6ad6</color><fill>1</fill><outline>1</outline></PolyStyle>
    </Style>

    <Placemark>
      <name>LaVigne Map</name>
      <description>HyperCities Map Library footprint · Berlin · 1685</description>
      <TimeSpan><begin>1685-01-01</begin><end>1685-12-31</end></TimeSpan>
      <ExtendedData>
      <Data name="mapId"><value>map:384</value></Data>
      <Data name="place"><value>Berlin</value></Data>
      <Data name="years"><value>1685</value></Data>
      <Data name="sourceRecordId"><value>384</value></Data>
      <Data name="collection"><value></value></Data>
      <Data name="creator"><value></value></Data>
      <Data name="citation"><value>LaVigne Map (1685). HyperCities Map Library.</value></Data>
      <Data name="tileTemplate"><value>https://tiles.ats.ucla.edu/tiles/1685_LaVigne_Map7/{z}/{x}/{y}.png</value></Data>
      <Data name="groundOverlayTiles"><value>Source XYZ tiles included as KML GroundOverlays at the recorded minimum zoom.</value></Data>
      <Data name="rasterAvailability"><value>Original XYZ tiles, rendered here as KML GroundOverlays at the recorded minimum zoom.</value></Data>
      <Data name="exportScope"><value>Georeferenced footprint, provenance, and a source-tile raster overview at the recorded minimum zoom.</value></Data>
      </ExtendedData>
      <styleUrl>#hypercities-footprint</styleUrl>
      <Polygon><tessellate>1</tessellate><outerBoundaryIs><LinearRing><coordinates>13.273087,52.471221,0 13.464168,52.471221,0 13.464168,52.542893,0 13.273087,52.542893,0 13.273087,52.471221,0</coordinates></LinearRing></outerBoundaryIs></Polygon>
    </Placemark>
    <GroundOverlay>
      <name>LaVigne Map · raster tile 11/1099/671</name>
      <drawOrder>1</drawOrder>
      <Icon><href>https://tiles.ats.ucla.edu/tiles/1685_LaVigne_Map7/11/1099/671.png</href></Icon>
      <LatLonBox>
        <north>52.589701</north>
        <south>52.482780</south>
        <east>13.359375</east>
        <west>13.183594</west>
      </LatLonBox>
    </GroundOverlay>
    <GroundOverlay>
      <name>LaVigne Map · raster tile 11/1100/671</name>
      <drawOrder>1</drawOrder>
      <Icon><href>https://tiles.ats.ucla.edu/tiles/1685_LaVigne_Map7/11/1100/671.png</href></Icon>
      <LatLonBox>
        <north>52.589701</north>
        <south>52.482780</south>
        <east>13.535156</east>
        <west>13.359375</west>
      </LatLonBox>
    </GroundOverlay>
    <GroundOverlay>
      <name>LaVigne Map · raster tile 11/1099/672</name>
      <drawOrder>1</drawOrder>
      <Icon><href>https://tiles.ats.ucla.edu/tiles/1685_LaVigne_Map7/11/1099/672.png</href></Icon>
      <LatLonBox>
        <north>52.482780</north>
        <south>52.375599</south>
        <east>13.359375</east>
        <west>13.183594</west>
      </LatLonBox>
    </GroundOverlay>
    <GroundOverlay>
      <name>LaVigne Map · raster tile 11/1100/672</name>
      <drawOrder>1</drawOrder>
      <Icon><href>https://tiles.ats.ucla.edu/tiles/1685_LaVigne_Map7/11/1100/672.png</href></Icon>
      <LatLonBox>
        <north>52.482780</north>
        <south>52.375599</south>
        <east>13.535156</east>
        <west>13.359375</west>
      </LatLonBox>
    </GroundOverlay>

  </Document>
</kml>