<?xml version="1.0" encoding="UTF-8"?>
<kml xmlns="http://www.opengis.net/kml/2.2">
  <Document>
    <name>Map of Path 25_43</name>
    <description>Map of Path 25_43, Soweto-Johannesburg, 1925. Map of Path 25_43 (1925). HyperCities Map Library.</description>
    <Style id="hypercities-footprint">
      <LineStyle><color>ff5e6ad6</color><width>2</width></LineStyle>
      <PolyStyle><color>285e6ad6</color><fill>1</fill><outline>1</outline></PolyStyle>
    </Style>

    <Placemark>
      <name>Map of Path 25_43</name>
      <description>HyperCities Map Library footprint · Soweto-Johannesburg · 1925</description>
      <TimeSpan><begin>1925-01-01</begin><end>1925-12-31</end></TimeSpan>
      <ExtendedData>
      <Data name="mapId"><value>map:392</value></Data>
      <Data name="place"><value>Soweto-Johannesburg</value></Data>
      <Data name="years"><value>1925</value></Data>
      <Data name="sourceRecordId"><value>392</value></Data>
      <Data name="collection"><value></value></Data>
      <Data name="creator"><value></value></Data>
      <Data name="citation"><value>Map of Path 25_43 (1925). HyperCities Map Library.</value></Data>
      <Data name="tileTemplate"><value>https://tiles.ats.ucla.edu/tiles/Path_025_43/{z}/{x}/{y}.png</value></Data>
      <Data name="groundOverlayTiles"><value>Source XYZ tiles included as KML GroundOverlays at the recorded minimum zoom.</value></Data>
      <Data name="rasterAvailability"><value>Original XYZ tiles, rendered here as KML GroundOverlays at the recorded minimum zoom.</value></Data>
      <Data name="exportScope"><value>Georeferenced footprint, provenance, and a source-tile raster overview at the recorded minimum zoom.</value></Data>
      </ExtendedData>
      <styleUrl>#hypercities-footprint</styleUrl>
      <Polygon><tessellate>1</tessellate><outerBoundaryIs><LinearRing><coordinates>27.814799,-26.315319,0 27.872042,-26.315319,0 27.872042,-26.266217,0 27.814799,-26.266217,0 27.814799,-26.315319,0</coordinates></LinearRing></outerBoundaryIs></Polygon>
    </Placemark>
    <GroundOverlay>
      <name>Map of Path 25_43 · raster tile 13/4728/4715</name>
      <drawOrder>1</drawOrder>
      <Icon><href>https://tiles.ats.ucla.edu/tiles/Path_025_43/13/4728/4715.png</href></Icon>
      <LatLonBox>
        <north>-26.234302</north>
        <south>-26.273714</south>
        <east>27.817383</east>
        <west>27.773438</west>
      </LatLonBox>
    </GroundOverlay>
    <GroundOverlay>
      <name>Map of Path 25_43 · raster tile 13/4729/4715</name>
      <drawOrder>1</drawOrder>
      <Icon><href>https://tiles.ats.ucla.edu/tiles/Path_025_43/13/4729/4715.png</href></Icon>
      <LatLonBox>
        <north>-26.234302</north>
        <south>-26.273714</south>
        <east>27.861328</east>
        <west>27.817383</west>
      </LatLonBox>
    </GroundOverlay>
    <GroundOverlay>
      <name>Map of Path 25_43 · raster tile 13/4730/4715</name>
      <drawOrder>1</drawOrder>
      <Icon><href>https://tiles.ats.ucla.edu/tiles/Path_025_43/13/4730/4715.png</href></Icon>
      <LatLonBox>
        <north>-26.234302</north>
        <south>-26.273714</south>
        <east>27.905273</east>
        <west>27.861328</west>
      </LatLonBox>
    </GroundOverlay>
    <GroundOverlay>
      <name>Map of Path 25_43 · raster tile 13/4728/4716</name>
      <drawOrder>1</drawOrder>
      <Icon><href>https://tiles.ats.ucla.edu/tiles/Path_025_43/13/4728/4716.png</href></Icon>
      <LatLonBox>
        <north>-26.273714</north>
        <south>-26.313113</south>
        <east>27.817383</east>
        <west>27.773438</west>
      </LatLonBox>
    </GroundOverlay>
    <GroundOverlay>
      <name>Map of Path 25_43 · raster tile 13/4729/4716</name>
      <drawOrder>1</drawOrder>
      <Icon><href>https://tiles.ats.ucla.edu/tiles/Path_025_43/13/4729/4716.png</href></Icon>
      <LatLonBox>
        <north>-26.273714</north>
        <south>-26.313113</south>
        <east>27.861328</east>
        <west>27.817383</west>
      </LatLonBox>
    </GroundOverlay>
    <GroundOverlay>
      <name>Map of Path 25_43 · raster tile 13/4730/4716</name>
      <drawOrder>1</drawOrder>
      <Icon><href>https://tiles.ats.ucla.edu/tiles/Path_025_43/13/4730/4716.png</href></Icon>
      <LatLonBox>
        <north>-26.273714</north>
        <south>-26.313113</south>
        <east>27.905273</east>
        <west>27.861328</west>
      </LatLonBox>
    </GroundOverlay>
    <GroundOverlay>
      <name>Map of Path 25_43 · raster tile 13/4728/4717</name>
      <drawOrder>1</drawOrder>
      <Icon><href>https://tiles.ats.ucla.edu/tiles/Path_025_43/13/4728/4717.png</href></Icon>
      <LatLonBox>
        <north>-26.313113</north>
        <south>-26.352498</south>
        <east>27.817383</east>
        <west>27.773438</west>
      </LatLonBox>
    </GroundOverlay>
    <GroundOverlay>
      <name>Map of Path 25_43 · raster tile 13/4729/4717</name>
      <drawOrder>1</drawOrder>
      <Icon><href>https://tiles.ats.ucla.edu/tiles/Path_025_43/13/4729/4717.png</href></Icon>
      <LatLonBox>
        <north>-26.313113</north>
        <south>-26.352498</south>
        <east>27.861328</east>
        <west>27.817383</west>
      </LatLonBox>
    </GroundOverlay>
    <GroundOverlay>
      <name>Map of Path 25_43 · raster tile 13/4730/4717</name>
      <drawOrder>1</drawOrder>
      <Icon><href>https://tiles.ats.ucla.edu/tiles/Path_025_43/13/4730/4717.png</href></Icon>
      <LatLonBox>
        <north>-26.313113</north>
        <south>-26.352498</south>
        <east>27.905273</east>
        <west>27.861328</west>
      </LatLonBox>
    </GroundOverlay>

  </Document>
</kml>