<?xml version="1.0" encoding="UTF-8"?>
<kml xmlns="http://www.opengis.net/kml/2.2">
  <Document>
    <name>Map of Paris-bernardin</name>
    <description>Map of Paris-bernardin, Paris, 1860. Map of Paris-bernardin (1860). HyperCities Map Library.</description>
    <Style id="hypercities-footprint">
      <LineStyle><color>ff5e6ad6</color><width>2</width></LineStyle>
      <PolyStyle><color>285e6ad6</color><fill>1</fill><outline>1</outline></PolyStyle>
    </Style>

    <Placemark>
      <name>Map of Paris-bernardin</name>
      <description>HyperCities Map Library footprint · Paris · 1860</description>
      <TimeSpan><begin>1860-01-01</begin><end>1860-12-31</end></TimeSpan>
      <ExtendedData>
      <Data name="mapId"><value>map:210</value></Data>
      <Data name="place"><value>Paris</value></Data>
      <Data name="years"><value>1860</value></Data>
      <Data name="sourceRecordId"><value>210</value></Data>
      <Data name="collection"><value></value></Data>
      <Data name="creator"><value></value></Data>
      <Data name="citation"><value>Map of Paris-bernardin (1860). HyperCities Map Library.</value></Data>
      <Data name="tileTemplate"><value>https://tiles.ats.ucla.edu/tiles/Paris-bernardin-1860-BIG_final/{z}/{x}/{y}.png</value></Data>
      <Data name="groundOverlayTiles"><value>Source XYZ tiles included as KML GroundOverlays at the recorded minimum zoom.</value></Data>
      <Data name="rasterAvailability"><value>Original XYZ tiles, rendered here as KML GroundOverlays at the recorded minimum zoom.</value></Data>
      <Data name="exportScope"><value>Georeferenced footprint, provenance, and a source-tile raster overview at the recorded minimum zoom.</value></Data>
      </ExtendedData>
      <styleUrl>#hypercities-footprint</styleUrl>
      <Polygon><tessellate>1</tessellate><outerBoundaryIs><LinearRing><coordinates>2.25744,48.819323,0 2.424484,48.819323,0 2.424484,48.899393,0 2.25744,48.899393,0 2.25744,48.819323,0</coordinates></LinearRing></outerBoundaryIs></Polygon>
    </Placemark>
    <GroundOverlay>
      <name>Map of Paris-bernardin · raster tile 11/1036/704</name>
      <drawOrder>1</drawOrder>
      <Icon><href>https://tiles.ats.ucla.edu/tiles/Paris-bernardin-1860-BIG_final/11/1036/704.png</href></Icon>
      <LatLonBox>
        <north>48.922499</north>
        <south>48.806863</south>
        <east>2.285156</east>
        <west>2.109375</west>
      </LatLonBox>
    </GroundOverlay>
    <GroundOverlay>
      <name>Map of Paris-bernardin · raster tile 11/1037/704</name>
      <drawOrder>1</drawOrder>
      <Icon><href>https://tiles.ats.ucla.edu/tiles/Paris-bernardin-1860-BIG_final/11/1037/704.png</href></Icon>
      <LatLonBox>
        <north>48.922499</north>
        <south>48.806863</south>
        <east>2.460938</east>
        <west>2.285156</west>
      </LatLonBox>
    </GroundOverlay>

  </Document>
</kml>