<?xml version="1.0" encoding="UTF-8"?>
<kml xmlns="http://www.opengis.net/kml/2.2">
  <Document>
    <name>Roman Forum</name>
    <description>Roman Forum, Rome, 1877. Roman Forum (1877). HyperCities Map Library.</description>
    <Style id="hypercities-footprint">
      <LineStyle><color>ff5e6ad6</color><width>2</width></LineStyle>
      <PolyStyle><color>285e6ad6</color><fill>1</fill><outline>1</outline></PolyStyle>
    </Style>

    <Placemark>
      <name>Roman Forum</name>
      <description>HyperCities Map Library footprint · Rome · 1877</description>
      <TimeSpan><begin>1877-01-01</begin><end>1877-12-31</end></TimeSpan>
      <ExtendedData>
      <Data name="mapId"><value>map:138</value></Data>
      <Data name="place"><value>Rome</value></Data>
      <Data name="years"><value>1877</value></Data>
      <Data name="sourceRecordId"><value>138</value></Data>
      <Data name="collection"><value></value></Data>
      <Data name="creator"><value></value></Data>
      <Data name="citation"><value>Roman Forum (1877). HyperCities Map Library.</value></Data>
      <Data name="tileTemplate"><value>https://tiles.ats.ucla.edu/tiles/Rome_1877_Nichols_Forum/{z}/{x}/{y}.png</value></Data>
      <Data name="groundOverlayTiles"><value>Source XYZ tiles included as KML GroundOverlays at the recorded minimum zoom.</value></Data>
      <Data name="rasterAvailability"><value>Original XYZ tiles, rendered here as KML GroundOverlays at the recorded minimum zoom.</value></Data>
      <Data name="exportScope"><value>Georeferenced footprint, provenance, and a source-tile raster overview at the recorded minimum zoom.</value></Data>
      </ExtendedData>
      <styleUrl>#hypercities-footprint</styleUrl>
      <Polygon><tessellate>1</tessellate><outerBoundaryIs><LinearRing><coordinates>12.483131,41.891255,0 12.487518,41.891255,0 12.487518,41.893284,0 12.483131,41.893284,0 12.483131,41.891255,0</coordinates></LinearRing></outerBoundaryIs></Polygon>
    </Placemark>
    <GroundOverlay>
      <name>Roman Forum · raster tile 16/35040/24354</name>
      <drawOrder>1</drawOrder>
      <Icon><href>https://tiles.ats.ucla.edu/tiles/Rome_1877_Nichols_Forum/16/35040/24354.png</href></Icon>
      <LatLonBox>
        <north>41.894100</north>
        <south>41.890010</south>
        <east>12.485962</east>
        <west>12.480469</west>
      </LatLonBox>
    </GroundOverlay>
    <GroundOverlay>
      <name>Roman Forum · raster tile 16/35041/24354</name>
      <drawOrder>1</drawOrder>
      <Icon><href>https://tiles.ats.ucla.edu/tiles/Rome_1877_Nichols_Forum/16/35041/24354.png</href></Icon>
      <LatLonBox>
        <north>41.894100</north>
        <south>41.890010</south>
        <east>12.491455</east>
        <west>12.485962</west>
      </LatLonBox>
    </GroundOverlay>

  </Document>
</kml>