<?xml version="1.0" encoding="UTF-8"?>
<kml xmlns="http://www.opengis.net/kml/2.2">
  <Document>
    <name>Street Map of Los Angeles Central Section</name>
    <description>Street Map of Los Angeles Central Section, Los Angeles, 1986. Street Map of Los Angeles Central Section (1986). HyperCities Map Library. UCLA Bruman Map Collection.</description>
    <Style id="hypercities-footprint">
      <LineStyle><color>ff5e6ad6</color><width>2</width></LineStyle>
      <PolyStyle><color>285e6ad6</color><fill>1</fill><outline>1</outline></PolyStyle>
    </Style>

    <Placemark>
      <name>Street Map of Los Angeles Central Section</name>
      <description>HyperCities Map Library footprint · Los Angeles · 1986</description>
      <TimeSpan><begin>1986-01-01</begin><end>1986-12-31</end></TimeSpan>
      <ExtendedData>
      <Data name="mapId"><value>map:63</value></Data>
      <Data name="place"><value>Los Angeles</value></Data>
      <Data name="years"><value>1986</value></Data>
      <Data name="sourceRecordId"><value>63</value></Data>
      <Data name="collection"><value>UCLA Bruman Map Collection</value></Data>
      <Data name="creator"><value>Gousha Maps and Atlases</value></Data>
      <Data name="citation"><value>Street Map of Los Angeles Central Section (1986). HyperCities Map Library. UCLA Bruman Map Collection.</value></Data>
      <Data name="tileTemplate"><value>https://tiles.ats.ucla.edu/tiles/Los_Angeles_1986/{z}/{x}/{y}.png</value></Data>
      <Data name="groundOverlayTiles"><value>Source XYZ tiles included as KML GroundOverlays at the recorded minimum zoom.</value></Data>
      <Data name="rasterAvailability"><value>Original XYZ tiles, rendered here as KML GroundOverlays at the recorded minimum zoom.</value></Data>
      <Data name="exportScope"><value>Georeferenced footprint, provenance, and a source-tile raster overview at the recorded minimum zoom.</value></Data>
      </ExtendedData>
      <styleUrl>#hypercities-footprint</styleUrl>
      <Polygon><tessellate>1</tessellate><outerBoundaryIs><LinearRing><coordinates>-118.524134,33.908916,0 -118.055452,33.908916,0 -118.055452,34.23992,0 -118.524134,34.23992,0 -118.524134,33.908916,0</coordinates></LinearRing></outerBoundaryIs></Polygon>
    </Placemark>
    <GroundOverlay>
      <name>Street Map of Los Angeles Central Section · raster tile 9/87/204</name>
      <drawOrder>1</drawOrder>
      <Icon><href>https://tiles.ats.ucla.edu/tiles/Los_Angeles_1986/9/87/204.png</href></Icon>
      <LatLonBox>
        <north>34.307144</north>
        <south>33.724340</south>
        <east>-118.125000</east>
        <west>-118.828125</west>
      </LatLonBox>
    </GroundOverlay>
    <GroundOverlay>
      <name>Street Map of Los Angeles Central Section · raster tile 9/88/204</name>
      <drawOrder>1</drawOrder>
      <Icon><href>https://tiles.ats.ucla.edu/tiles/Los_Angeles_1986/9/88/204.png</href></Icon>
      <LatLonBox>
        <north>34.307144</north>
        <south>33.724340</south>
        <east>-117.421875</east>
        <west>-118.125000</west>
      </LatLonBox>
    </GroundOverlay>

  </Document>
</kml>