<?xml version="1.0" encoding="UTF-8"?>
<kml xmlns="http://www.opengis.net/kml/2.2">
  <Document>
    <name>Los Angeles USGS 1920 (OLD)</name>
    <description>Los Angeles USGS 1920 (OLD), Los Angeles, 1920. Los Angeles USGS 1920 (OLD) (1920). HyperCities Map Library.</description>
    <Style id="hypercities-footprint">
      <LineStyle><color>ff5e6ad6</color><width>2</width></LineStyle>
      <PolyStyle><color>285e6ad6</color><fill>1</fill><outline>1</outline></PolyStyle>
    </Style>

    <Placemark>
      <name>Los Angeles USGS 1920 (OLD)</name>
      <description>HyperCities Map Library footprint · Los Angeles · 1920</description>
      <TimeSpan><begin>1920-01-01</begin><end>1920-12-31</end></TimeSpan>
      <ExtendedData>
      <Data name="mapId"><value>map:34</value></Data>
      <Data name="place"><value>Los Angeles</value></Data>
      <Data name="years"><value>1920</value></Data>
      <Data name="sourceRecordId"><value>34</value></Data>
      <Data name="collection"><value></value></Data>
      <Data name="creator"><value>USGS</value></Data>
      <Data name="citation"><value>Los Angeles USGS 1920 (OLD) (1920). HyperCities Map Library.</value></Data>
      <Data name="tileTemplate"><value>https://tiles.ats.ucla.edu/tiles/LosAngeles/1920/{z}/{x}/{y}.png</value></Data>
      <Data name="groundOverlayTiles"><value>Source XYZ tiles included as KML GroundOverlays at the recorded minimum zoom.</value></Data>
      <Data name="rasterAvailability"><value>Original XYZ tiles, rendered here as KML GroundOverlays at the recorded minimum zoom.</value></Data>
      <Data name="exportScope"><value>Georeferenced footprint, provenance, and a source-tile raster overview at the recorded minimum zoom.</value></Data>
      </ExtendedData>
      <styleUrl>#hypercities-footprint</styleUrl>
      <Polygon><tessellate>1</tessellate><outerBoundaryIs><LinearRing><coordinates>-119.014,33.685,0 -117.582,33.685,0 -117.582,34.838,0 -119.014,34.838,0 -119.014,33.685,0</coordinates></LinearRing></outerBoundaryIs></Polygon>
    </Placemark>
    <GroundOverlay>
      <name>Los Angeles USGS 1920 (OLD) · raster tile 7/21/50</name>
      <drawOrder>1</drawOrder>
      <Icon><href>https://tiles.ats.ucla.edu/tiles/LosAngeles/1920/7/21/50.png</href></Icon>
      <LatLonBox>
        <north>36.597889</north>
        <south>34.307144</south>
        <east>-118.125000</east>
        <west>-120.937500</west>
      </LatLonBox>
    </GroundOverlay>
    <GroundOverlay>
      <name>Los Angeles USGS 1920 (OLD) · raster tile 7/22/50</name>
      <drawOrder>1</drawOrder>
      <Icon><href>https://tiles.ats.ucla.edu/tiles/LosAngeles/1920/7/22/50.png</href></Icon>
      <LatLonBox>
        <north>36.597889</north>
        <south>34.307144</south>
        <east>-115.312500</east>
        <west>-118.125000</west>
      </LatLonBox>
    </GroundOverlay>
    <GroundOverlay>
      <name>Los Angeles USGS 1920 (OLD) · raster tile 7/21/51</name>
      <drawOrder>1</drawOrder>
      <Icon><href>https://tiles.ats.ucla.edu/tiles/LosAngeles/1920/7/21/51.png</href></Icon>
      <LatLonBox>
        <north>34.307144</north>
        <south>31.952162</south>
        <east>-118.125000</east>
        <west>-120.937500</west>
      </LatLonBox>
    </GroundOverlay>
    <GroundOverlay>
      <name>Los Angeles USGS 1920 (OLD) · raster tile 7/22/51</name>
      <drawOrder>1</drawOrder>
      <Icon><href>https://tiles.ats.ucla.edu/tiles/LosAngeles/1920/7/22/51.png</href></Icon>
      <LatLonBox>
        <north>34.307144</north>
        <south>31.952162</south>
        <east>-115.312500</east>
        <west>-118.125000</west>
      </LatLonBox>
    </GroundOverlay>

  </Document>
</kml>