<?xml version="1.0" encoding="UTF-8"?>
<kml xmlns="http://www.opengis.net/kml/2.2">
  <Document>
    <name>Clarke Map of Florence</name>
    <description>Clarke Map of Florence, Berlin, 1835. Clarke Map of Florence (1835). HyperCities Map Library.</description>
    <Style id="hypercities-footprint">
      <LineStyle><color>ff5e6ad6</color><width>2</width></LineStyle>
      <PolyStyle><color>285e6ad6</color><fill>1</fill><outline>1</outline></PolyStyle>
    </Style>

    <Placemark>
      <name>Clarke Map of Florence</name>
      <description>HyperCities Map Library footprint · Berlin · 1835</description>
      <TimeSpan><begin>1835-01-01</begin><end>1835-12-31</end></TimeSpan>
      <ExtendedData>
      <Data name="mapId"><value>map:371</value></Data>
      <Data name="place"><value>Berlin</value></Data>
      <Data name="years"><value>1835</value></Data>
      <Data name="sourceRecordId"><value>371</value></Data>
      <Data name="collection"><value></value></Data>
      <Data name="creator"><value>W.B. Clarke</value></Data>
      <Data name="citation"><value>Clarke Map of Florence (1835). HyperCities Map Library.</value></Data>
      <Data name="tileTemplate"><value>https://tiles.ats.ucla.edu/tiles/1835_Clarke_Map_of_Florence/{z}/{x}/{y}.png</value></Data>
      <Data name="groundOverlayTiles"><value>Source XYZ tiles included as KML GroundOverlays at the recorded minimum zoom.</value></Data>
      <Data name="rasterAvailability"><value>Original XYZ tiles, rendered here as KML GroundOverlays at the recorded minimum zoom.</value></Data>
      <Data name="exportScope"><value>Georeferenced footprint, provenance, and a source-tile raster overview at the recorded minimum zoom.</value></Data>
      </ExtendedData>
      <styleUrl>#hypercities-footprint</styleUrl>
      <Polygon><tessellate>1</tessellate><outerBoundaryIs><LinearRing><coordinates>11.222671,43.753701,0 11.28452,43.753701,0 11.28452,43.791516,0 11.222671,43.791516,0 11.222671,43.753701,0</coordinates></LinearRing></outerBoundaryIs></Polygon>
    </Placemark>
    <GroundOverlay>
      <name>Clarke Map of Florence · raster tile 12/2175/1492</name>
      <drawOrder>1</drawOrder>
      <Icon><href>https://tiles.ats.ucla.edu/tiles/1835_Clarke_Map_of_Florence/12/2175/1492.png</href></Icon>
      <LatLonBox>
        <north>43.834527</north>
        <south>43.771094</south>
        <east>11.250000</east>
        <west>11.162109</west>
      </LatLonBox>
    </GroundOverlay>
    <GroundOverlay>
      <name>Clarke Map of Florence · raster tile 12/2176/1492</name>
      <drawOrder>1</drawOrder>
      <Icon><href>https://tiles.ats.ucla.edu/tiles/1835_Clarke_Map_of_Florence/12/2176/1492.png</href></Icon>
      <LatLonBox>
        <north>43.834527</north>
        <south>43.771094</south>
        <east>11.337891</east>
        <west>11.250000</west>
      </LatLonBox>
    </GroundOverlay>
    <GroundOverlay>
      <name>Clarke Map of Florence · raster tile 12/2175/1493</name>
      <drawOrder>1</drawOrder>
      <Icon><href>https://tiles.ats.ucla.edu/tiles/1835_Clarke_Map_of_Florence/12/2175/1493.png</href></Icon>
      <LatLonBox>
        <north>43.771094</north>
        <south>43.707594</south>
        <east>11.250000</east>
        <west>11.162109</west>
      </LatLonBox>
    </GroundOverlay>
    <GroundOverlay>
      <name>Clarke Map of Florence · raster tile 12/2176/1493</name>
      <drawOrder>1</drawOrder>
      <Icon><href>https://tiles.ats.ucla.edu/tiles/1835_Clarke_Map_of_Florence/12/2176/1493.png</href></Icon>
      <LatLonBox>
        <north>43.771094</north>
        <south>43.707594</south>
        <east>11.337891</east>
        <west>11.250000</west>
      </LatLonBox>
    </GroundOverlay>

  </Document>
</kml>