<?xml version="1.0" encoding="UTF-8"?>
<kml xmlns="http://www.opengis.net/kml/2.2">
  <Document>
    <name>Map of Seoul (1974)</name>
    <description>Map of Seoul (1974), Seoul, 1974. Map of Seoul (1974) (1974). HyperCities Map Library.</description>
    <Style id="hypercities-footprint">
      <LineStyle><color>ff5e6ad6</color><width>2</width></LineStyle>
      <PolyStyle><color>285e6ad6</color><fill>1</fill><outline>1</outline></PolyStyle>
    </Style>

    <Placemark>
      <name>Map of Seoul (1974)</name>
      <description>HyperCities Map Library footprint · Seoul · 1974</description>
      <TimeSpan><begin>1974-01-01</begin><end>1974-12-31</end></TimeSpan>
      <ExtendedData>
      <Data name="mapId"><value>map:185</value></Data>
      <Data name="place"><value>Seoul</value></Data>
      <Data name="years"><value>1974</value></Data>
      <Data name="sourceRecordId"><value>185</value></Data>
      <Data name="collection"><value></value></Data>
      <Data name="creator"><value></value></Data>
      <Data name="citation"><value>Map of Seoul (1974) (1974). HyperCities Map Library.</value></Data>
      <Data name="tileTemplate"><value>https://tiles.ats.ucla.edu/tiles/Seoul_1974/{z}/{x}/{y}.png</value></Data>
      <Data name="groundOverlayTiles"><value>Source XYZ tiles included as KML GroundOverlays at the recorded minimum zoom.</value></Data>
      <Data name="rasterAvailability"><value>Original XYZ tiles, rendered here as KML GroundOverlays at the recorded minimum zoom.</value></Data>
      <Data name="exportScope"><value>Georeferenced footprint, provenance, and a source-tile raster overview at the recorded minimum zoom.</value></Data>
      </ExtendedData>
      <styleUrl>#hypercities-footprint</styleUrl>
      <Polygon><tessellate>1</tessellate><outerBoundaryIs><LinearRing><coordinates>126.964991,37.560185,0 127.012032,37.560185,0 127.012032,37.58789,0 126.964991,37.58789,0 126.964991,37.560185,0</coordinates></LinearRing></outerBoundaryIs></Polygon>
    </Placemark>
    <GroundOverlay>
      <name>Map of Seoul (1974) · raster tile 13/6985/3171</name>
      <drawOrder>1</drawOrder>
      <Icon><href>https://tiles.ats.ucla.edu/tiles/Seoul_1974/13/6985/3171.png</href></Icon>
      <LatLonBox>
        <north>37.614231</north>
        <south>37.579413</south>
        <east>127.001953</east>
        <west>126.958008</west>
      </LatLonBox>
    </GroundOverlay>
    <GroundOverlay>
      <name>Map of Seoul (1974) · raster tile 13/6986/3171</name>
      <drawOrder>1</drawOrder>
      <Icon><href>https://tiles.ats.ucla.edu/tiles/Seoul_1974/13/6986/3171.png</href></Icon>
      <LatLonBox>
        <north>37.614231</north>
        <south>37.579413</south>
        <east>127.045898</east>
        <west>127.001953</west>
      </LatLonBox>
    </GroundOverlay>
    <GroundOverlay>
      <name>Map of Seoul (1974) · raster tile 13/6985/3172</name>
      <drawOrder>1</drawOrder>
      <Icon><href>https://tiles.ats.ucla.edu/tiles/Seoul_1974/13/6985/3172.png</href></Icon>
      <LatLonBox>
        <north>37.579413</north>
        <south>37.544577</south>
        <east>127.001953</east>
        <west>126.958008</west>
      </LatLonBox>
    </GroundOverlay>
    <GroundOverlay>
      <name>Map of Seoul (1974) · raster tile 13/6986/3172</name>
      <drawOrder>1</drawOrder>
      <Icon><href>https://tiles.ats.ucla.edu/tiles/Seoul_1974/13/6986/3172.png</href></Icon>
      <LatLonBox>
        <north>37.579413</north>
        <south>37.544577</south>
        <east>127.045898</east>
        <west>127.001953</west>
      </LatLonBox>
    </GroundOverlay>

  </Document>
</kml>