<?xml version="1.0" encoding="UTF-8"?>
<kml xmlns="http://www.opengis.net/kml/2.2">
  <Document>
    <name>Redraft of The Castello Plan: New Amsterdam in 1660</name>
    <description>Redraft of The Castello Plan: New Amsterdam in 1660, New York, 1660. Redraft of The Castello Plan: New Amsterdam in 1660 (1660). HyperCities Map Library.</description>
    <Style id="hypercities-footprint">
      <LineStyle><color>ff5e6ad6</color><width>2</width></LineStyle>
      <PolyStyle><color>285e6ad6</color><fill>1</fill><outline>1</outline></PolyStyle>
    </Style>

    <Placemark>
      <name>Redraft of The Castello Plan: New Amsterdam in 1660</name>
      <description>HyperCities Map Library footprint · New York · 1660</description>
      <TimeSpan><begin>1660-01-01</begin><end>1660-12-31</end></TimeSpan>
      <ExtendedData>
      <Data name="mapId"><value>map:57</value></Data>
      <Data name="place"><value>New York</value></Data>
      <Data name="years"><value>1660</value></Data>
      <Data name="sourceRecordId"><value>57</value></Data>
      <Data name="collection"><value></value></Data>
      <Data name="creator"><value></value></Data>
      <Data name="citation"><value>Redraft of The Castello Plan: New Amsterdam in 1660 (1660). HyperCities Map Library.</value></Data>
      <Data name="tileTemplate"><value>https://tiles.ats.ucla.edu/tiles/NewYork_1660/{z}/{x}/{y}.png</value></Data>
      <Data name="groundOverlayTiles"><value>Source XYZ tiles included as KML GroundOverlays at the recorded minimum zoom.</value></Data>
      <Data name="rasterAvailability"><value>Original XYZ tiles, rendered here as KML GroundOverlays at the recorded minimum zoom.</value></Data>
      <Data name="exportScope"><value>Georeferenced footprint, provenance, and a source-tile raster overview at the recorded minimum zoom.</value></Data>
      </ExtendedData>
      <styleUrl>#hypercities-footprint</styleUrl>
      <Polygon><tessellate>1</tessellate><outerBoundaryIs><LinearRing><coordinates>-74.01766,40.700795,0 -74.006443,40.700795,0 -74.006443,40.709993,0 -74.01766,40.709993,0 -74.01766,40.700795,0</coordinates></LinearRing></outerBoundaryIs></Polygon>
    </Placemark>
    <GroundOverlay>
      <name>Redraft of The Castello Plan: New Amsterdam in 1660 · raster tile 15/9646/12320</name>
      <drawOrder>1</drawOrder>
      <Icon><href>https://tiles.ats.ucla.edu/tiles/NewYork_1660/15/9646/12320.png</href></Icon>
      <LatLonBox>
        <north>40.713956</north>
        <south>40.705628</south>
        <east>-74.014893</east>
        <west>-74.025879</west>
      </LatLonBox>
    </GroundOverlay>
    <GroundOverlay>
      <name>Redraft of The Castello Plan: New Amsterdam in 1660 · raster tile 15/9647/12320</name>
      <drawOrder>1</drawOrder>
      <Icon><href>https://tiles.ats.ucla.edu/tiles/NewYork_1660/15/9647/12320.png</href></Icon>
      <LatLonBox>
        <north>40.713956</north>
        <south>40.705628</south>
        <east>-74.003906</east>
        <west>-74.014893</west>
      </LatLonBox>
    </GroundOverlay>
    <GroundOverlay>
      <name>Redraft of The Castello Plan: New Amsterdam in 1660 · raster tile 15/9646/12321</name>
      <drawOrder>1</drawOrder>
      <Icon><href>https://tiles.ats.ucla.edu/tiles/NewYork_1660/15/9646/12321.png</href></Icon>
      <LatLonBox>
        <north>40.705628</north>
        <south>40.697299</south>
        <east>-74.014893</east>
        <west>-74.025879</west>
      </LatLonBox>
    </GroundOverlay>
    <GroundOverlay>
      <name>Redraft of The Castello Plan: New Amsterdam in 1660 · raster tile 15/9647/12321</name>
      <drawOrder>1</drawOrder>
      <Icon><href>https://tiles.ats.ucla.edu/tiles/NewYork_1660/15/9647/12321.png</href></Icon>
      <LatLonBox>
        <north>40.705628</north>
        <south>40.697299</south>
        <east>-74.003906</east>
        <west>-74.014893</west>
      </LatLonBox>
    </GroundOverlay>

  </Document>
</kml>