<?xml version="1.0" encoding="UTF-8"?>
<kml xmlns="http://www.opengis.net/kml/2.2">
  <Document>
    <name>Map of Shanghai (1945)</name>
    <description>Map of Shanghai (1945), Shanghai, 1945. Map of Shanghai (1945) (1945). HyperCities Map Library.</description>
    <Style id="hypercities-footprint">
      <LineStyle><color>ff5e6ad6</color><width>2</width></LineStyle>
      <PolyStyle><color>285e6ad6</color><fill>1</fill><outline>1</outline></PolyStyle>
    </Style>

    <Placemark>
      <name>Map of Shanghai (1945)</name>
      <description>HyperCities Map Library footprint · Shanghai · 1945</description>
      <TimeSpan><begin>1945-01-01</begin><end>1945-12-31</end></TimeSpan>
      <ExtendedData>
      <Data name="mapId"><value>map:187</value></Data>
      <Data name="place"><value>Shanghai</value></Data>
      <Data name="years"><value>1945</value></Data>
      <Data name="sourceRecordId"><value>187</value></Data>
      <Data name="collection"><value></value></Data>
      <Data name="creator"><value></value></Data>
      <Data name="citation"><value>Map of Shanghai (1945) (1945). HyperCities Map Library.</value></Data>
      <Data name="tileTemplate"><value>https://tiles.ats.ucla.edu/tiles/Shanghai_1945/{z}/{x}/{y}.png</value></Data>
      <Data name="groundOverlayTiles"><value>Source XYZ tiles included as KML GroundOverlays at the recorded minimum zoom.</value></Data>
      <Data name="rasterAvailability"><value>Original XYZ tiles, rendered here as KML GroundOverlays at the recorded minimum zoom.</value></Data>
      <Data name="exportScope"><value>Georeferenced footprint, provenance, and a source-tile raster overview at the recorded minimum zoom.</value></Data>
      </ExtendedData>
      <styleUrl>#hypercities-footprint</styleUrl>
      <Polygon><tessellate>1</tessellate><outerBoundaryIs><LinearRing><coordinates>121.266779,31.054543,0 121.674027,31.054543,0 121.674027,31.475226,0 121.266779,31.475226,0 121.266779,31.054543,0</coordinates></LinearRing></outerBoundaryIs></Polygon>
    </Placemark>
    <GroundOverlay>
      <name>Map of Shanghai (1945) · raster tile 9/428/208</name>
      <drawOrder>1</drawOrder>
      <Icon><href>https://tiles.ats.ucla.edu/tiles/Shanghai_1945/9/428/208.png</href></Icon>
      <LatLonBox>
        <north>31.952162</north>
        <south>31.353637</south>
        <east>121.640625</east>
        <west>120.937500</west>
      </LatLonBox>
    </GroundOverlay>
    <GroundOverlay>
      <name>Map of Shanghai (1945) · raster tile 9/429/208</name>
      <drawOrder>1</drawOrder>
      <Icon><href>https://tiles.ats.ucla.edu/tiles/Shanghai_1945/9/429/208.png</href></Icon>
      <LatLonBox>
        <north>31.952162</north>
        <south>31.353637</south>
        <east>122.343750</east>
        <west>121.640625</west>
      </LatLonBox>
    </GroundOverlay>
    <GroundOverlay>
      <name>Map of Shanghai (1945) · raster tile 9/428/209</name>
      <drawOrder>1</drawOrder>
      <Icon><href>https://tiles.ats.ucla.edu/tiles/Shanghai_1945/9/428/209.png</href></Icon>
      <LatLonBox>
        <north>31.353637</north>
        <south>30.751278</south>
        <east>121.640625</east>
        <west>120.937500</west>
      </LatLonBox>
    </GroundOverlay>
    <GroundOverlay>
      <name>Map of Shanghai (1945) · raster tile 9/429/209</name>
      <drawOrder>1</drawOrder>
      <Icon><href>https://tiles.ats.ucla.edu/tiles/Shanghai_1945/9/429/209.png</href></Icon>
      <LatLonBox>
        <north>31.353637</north>
        <south>30.751278</south>
        <east>122.343750</east>
        <west>121.640625</west>
      </LatLonBox>
    </GroundOverlay>

  </Document>
</kml>