<?xml version="1.0" encoding="UTF-8"?>
<kml xmlns="http://www.opengis.net/kml/2.2">
  <Document>
    <name>The true map of the city Berlin</name>
    <description>The true map of the city Berlin, Berlin, 1710. The true map of the city Berlin (1710). HyperCities Map Library. UCLA Bruman Map Collection.</description>
    <Style id="hypercities-footprint">
      <LineStyle><color>ff5e6ad6</color><width>2</width></LineStyle>
      <PolyStyle><color>285e6ad6</color><fill>1</fill><outline>1</outline></PolyStyle>
    </Style>

    <Placemark>
      <name>The true map of the city Berlin</name>
      <description>HyperCities Map Library footprint · Berlin · 1710</description>
      <TimeSpan><begin>1710-01-01</begin><end>1710-12-31</end></TimeSpan>
      <ExtendedData>
      <Data name="mapId"><value>map:20</value></Data>
      <Data name="place"><value>Berlin</value></Data>
      <Data name="years"><value>1710</value></Data>
      <Data name="sourceRecordId"><value>20</value></Data>
      <Data name="collection"><value>UCLA Bruman Map Collection</value></Data>
      <Data name="creator"><value>illegible signature</value></Data>
      <Data name="citation"><value>The true map of the city Berlin (1710). HyperCities Map Library. UCLA Bruman Map Collection.</value></Data>
      <Data name="tileTemplate"><value>https://tiles.ats.ucla.edu/tiles/Berlin_1710/{z}/{x}/{y}.png</value></Data>
      <Data name="groundOverlayTiles"><value>Source XYZ tiles included as KML GroundOverlays at the recorded minimum zoom.</value></Data>
      <Data name="rasterAvailability"><value>Original XYZ tiles, rendered here as KML GroundOverlays at the recorded minimum zoom.</value></Data>
      <Data name="exportScope"><value>Georeferenced footprint, provenance, and a source-tile raster overview at the recorded minimum zoom.</value></Data>
      </ExtendedData>
      <styleUrl>#hypercities-footprint</styleUrl>
      <Polygon><tessellate>1</tessellate><outerBoundaryIs><LinearRing><coordinates>13.341351,52.478779,0 13.453486,52.478779,0 13.453486,52.540766,0 13.341351,52.540766,0 13.341351,52.478779,0</coordinates></LinearRing></outerBoundaryIs></Polygon>
    </Placemark>
    <GroundOverlay>
      <name>The true map of the city Berlin · raster tile 12/2199/1342</name>
      <drawOrder>1</drawOrder>
      <Icon><href>https://tiles.ats.ucla.edu/tiles/Berlin_1710/12/2199/1342.png</href></Icon>
      <LatLonBox>
        <north>52.589701</north>
        <south>52.536273</south>
        <east>13.359375</east>
        <west>13.271484</west>
      </LatLonBox>
    </GroundOverlay>
    <GroundOverlay>
      <name>The true map of the city Berlin · raster tile 12/2200/1342</name>
      <drawOrder>1</drawOrder>
      <Icon><href>https://tiles.ats.ucla.edu/tiles/Berlin_1710/12/2200/1342.png</href></Icon>
      <LatLonBox>
        <north>52.589701</north>
        <south>52.536273</south>
        <east>13.447266</east>
        <west>13.359375</west>
      </LatLonBox>
    </GroundOverlay>
    <GroundOverlay>
      <name>The true map of the city Berlin · raster tile 12/2201/1342</name>
      <drawOrder>1</drawOrder>
      <Icon><href>https://tiles.ats.ucla.edu/tiles/Berlin_1710/12/2201/1342.png</href></Icon>
      <LatLonBox>
        <north>52.589701</north>
        <south>52.536273</south>
        <east>13.535156</east>
        <west>13.447266</west>
      </LatLonBox>
    </GroundOverlay>
    <GroundOverlay>
      <name>The true map of the city Berlin · raster tile 12/2199/1343</name>
      <drawOrder>1</drawOrder>
      <Icon><href>https://tiles.ats.ucla.edu/tiles/Berlin_1710/12/2199/1343.png</href></Icon>
      <LatLonBox>
        <north>52.536273</north>
        <south>52.482780</south>
        <east>13.359375</east>
        <west>13.271484</west>
      </LatLonBox>
    </GroundOverlay>
    <GroundOverlay>
      <name>The true map of the city Berlin · raster tile 12/2200/1343</name>
      <drawOrder>1</drawOrder>
      <Icon><href>https://tiles.ats.ucla.edu/tiles/Berlin_1710/12/2200/1343.png</href></Icon>
      <LatLonBox>
        <north>52.536273</north>
        <south>52.482780</south>
        <east>13.447266</east>
        <west>13.359375</west>
      </LatLonBox>
    </GroundOverlay>
    <GroundOverlay>
      <name>The true map of the city Berlin · raster tile 12/2201/1343</name>
      <drawOrder>1</drawOrder>
      <Icon><href>https://tiles.ats.ucla.edu/tiles/Berlin_1710/12/2201/1343.png</href></Icon>
      <LatLonBox>
        <north>52.536273</north>
        <south>52.482780</south>
        <east>13.535156</east>
        <west>13.447266</west>
      </LatLonBox>
    </GroundOverlay>
    <GroundOverlay>
      <name>The true map of the city Berlin · raster tile 12/2199/1344</name>
      <drawOrder>1</drawOrder>
      <Icon><href>https://tiles.ats.ucla.edu/tiles/Berlin_1710/12/2199/1344.png</href></Icon>
      <LatLonBox>
        <north>52.482780</north>
        <south>52.429222</south>
        <east>13.359375</east>
        <west>13.271484</west>
      </LatLonBox>
    </GroundOverlay>
    <GroundOverlay>
      <name>The true map of the city Berlin · raster tile 12/2200/1344</name>
      <drawOrder>1</drawOrder>
      <Icon><href>https://tiles.ats.ucla.edu/tiles/Berlin_1710/12/2200/1344.png</href></Icon>
      <LatLonBox>
        <north>52.482780</north>
        <south>52.429222</south>
        <east>13.447266</east>
        <west>13.359375</west>
      </LatLonBox>
    </GroundOverlay>
    <GroundOverlay>
      <name>The true map of the city Berlin · raster tile 12/2201/1344</name>
      <drawOrder>1</drawOrder>
      <Icon><href>https://tiles.ats.ucla.edu/tiles/Berlin_1710/12/2201/1344.png</href></Icon>
      <LatLonBox>
        <north>52.482780</north>
        <south>52.429222</south>
        <east>13.535156</east>
        <west>13.447266</west>
      </LatLonBox>
    </GroundOverlay>

  </Document>
</kml>