<?xml version="1.0" encoding="UTF-8"?>
<kml xmlns="http://www.opengis.net/kml/2.2">
  <Document>
    <name>The Complete Map of New York (Manhattan)</name>
    <description>The Complete Map of New York (Manhattan), New York, 1950. The Complete Map of New York (Manhattan) (1950). HyperCities Map Library. UCLA Bruman Map Collection.</description>
    <Style id="hypercities-footprint">
      <LineStyle><color>ff5e6ad6</color><width>2</width></LineStyle>
      <PolyStyle><color>285e6ad6</color><fill>1</fill><outline>1</outline></PolyStyle>
    </Style>

    <Placemark>
      <name>The Complete Map of New York (Manhattan)</name>
      <description>HyperCities Map Library footprint · New York · 1950</description>
      <TimeSpan><begin>1950-01-01</begin><end>1950-12-31</end></TimeSpan>
      <ExtendedData>
      <Data name="mapId"><value>map:91</value></Data>
      <Data name="place"><value>New York</value></Data>
      <Data name="years"><value>1950</value></Data>
      <Data name="sourceRecordId"><value>91</value></Data>
      <Data name="collection"><value>UCLA Bruman Map Collection</value></Data>
      <Data name="creator"><value>Alexander Gross. F.R.G.S.</value></Data>
      <Data name="citation"><value>The Complete Map of New York (Manhattan) (1950). HyperCities Map Library. UCLA Bruman Map Collection.</value></Data>
      <Data name="tileTemplate"><value>https://tiles.ats.ucla.edu/tiles/NewYork_1950/{z}/{x}/{y}.png</value></Data>
      <Data name="groundOverlayTiles"><value>Source XYZ tiles included as KML GroundOverlays at the recorded minimum zoom.</value></Data>
      <Data name="rasterAvailability"><value>Original XYZ tiles, rendered here as KML GroundOverlays at the recorded minimum zoom.</value></Data>
      <Data name="exportScope"><value>Georeferenced footprint, provenance, and a source-tile raster overview at the recorded minimum zoom.</value></Data>
      </ExtendedData>
      <styleUrl>#hypercities-footprint</styleUrl>
      <Polygon><tessellate>1</tessellate><outerBoundaryIs><LinearRing><coordinates>-74.053775,40.683447,0 -73.840827,40.683447,0 -73.840827,40.898217,0 -74.053775,40.898217,0 -74.053775,40.683447,0</coordinates></LinearRing></outerBoundaryIs></Polygon>
    </Placemark>
    <GroundOverlay>
      <name>The Complete Map of New York (Manhattan) · raster tile 10/301/384</name>
      <drawOrder>1</drawOrder>
      <Icon><href>https://tiles.ats.ucla.edu/tiles/NewYork_1950/10/301/384.png</href></Icon>
      <LatLonBox>
        <north>40.979898</north>
        <south>40.713956</south>
        <east>-73.828125</east>
        <west>-74.179688</west>
      </LatLonBox>
    </GroundOverlay>
    <GroundOverlay>
      <name>The Complete Map of New York (Manhattan) · raster tile 10/301/385</name>
      <drawOrder>1</drawOrder>
      <Icon><href>https://tiles.ats.ucla.edu/tiles/NewYork_1950/10/301/385.png</href></Icon>
      <LatLonBox>
        <north>40.713956</north>
        <south>40.446947</south>
        <east>-73.828125</east>
        <west>-74.179688</west>
      </LatLonBox>
    </GroundOverlay>

  </Document>
</kml>