<?xml version="1.0" encoding="UTF-8"?>
<kml xmlns="http://www.opengis.net/kml/2.2">
  <Document>
    <name>New and Correct Mapp of the County of Richmond made in the Year 1797 Agreeable to an Act Passed by the Legislature of the State of New York passed the 28th day of March 1797</name>
    <description>New and Correct Mapp of the County of Richmond made in the Year 1797 Agreeable to an Act Passed by the Legislature of the State of New York passed the 28th day of March 1797, New York, 1797. New and Correct Mapp of the County of Richmond made in the Year 1797 Agreeable to an Act Passed by the Legislature of the State of New York passed the 28th day of March 1797 (1797). HyperCities Map Library.</description>
    <Style id="hypercities-footprint">
      <LineStyle><color>ff5e6ad6</color><width>2</width></LineStyle>
      <PolyStyle><color>285e6ad6</color><fill>1</fill><outline>1</outline></PolyStyle>
    </Style>

    <Placemark>
      <name>New and Correct Mapp of the County of Richmond made in the Year 1797 Agreeable to an Act Passed by the Legislature of the State of New York passed the 28th day of March 1797</name>
      <description>HyperCities Map Library footprint · New York · 1797</description>
      <TimeSpan><begin>1797-01-01</begin><end>1797-12-31</end></TimeSpan>
      <ExtendedData>
      <Data name="mapId"><value>map:79</value></Data>
      <Data name="place"><value>New York</value></Data>
      <Data name="years"><value>1797</value></Data>
      <Data name="sourceRecordId"><value>79</value></Data>
      <Data name="collection"><value></value></Data>
      <Data name="creator"><value></value></Data>
      <Data name="citation"><value>New and Correct Mapp of the County of Richmond made in the Year 1797 Agreeable to an Act Passed by the Legislature of the State of New York passed the 28th day of March 1797 (1797). HyperCities Map Library.</value></Data>
      <Data name="tileTemplate"><value>https://tiles.ats.ucla.edu/tiles/NewYork_1797_Staten/{z}/{x}/{y}.png</value></Data>
      <Data name="groundOverlayTiles"><value>Source XYZ tiles included as KML GroundOverlays at the recorded minimum zoom.</value></Data>
      <Data name="rasterAvailability"><value>Original XYZ tiles, rendered here as KML GroundOverlays at the recorded minimum zoom.</value></Data>
      <Data name="exportScope"><value>Georeferenced footprint, provenance, and a source-tile raster overview at the recorded minimum zoom.</value></Data>
      </ExtendedData>
      <styleUrl>#hypercities-footprint</styleUrl>
      <Polygon><tessellate>1</tessellate><outerBoundaryIs><LinearRing><coordinates>-74.40011,40.427711,0 -73.9764,40.427711,0 -73.9764,40.716417,0 -74.40011,40.716417,0 -74.40011,40.427711,0</coordinates></LinearRing></outerBoundaryIs></Polygon>
    </Placemark>
    <GroundOverlay>
      <name>New and Correct Mapp of the County of Richmond made in the Year 1797 Agreeable to an Act Passed by the Legislature of the State of New York passed the 28th day of March 1797 · raster tile 10/300/384</name>
      <drawOrder>1</drawOrder>
      <Icon><href>https://tiles.ats.ucla.edu/tiles/NewYork_1797_Staten/10/300/384.png</href></Icon>
      <LatLonBox>
        <north>40.979898</north>
        <south>40.713956</south>
        <east>-74.179688</east>
        <west>-74.531250</west>
      </LatLonBox>
    </GroundOverlay>
    <GroundOverlay>
      <name>New and Correct Mapp of the County of Richmond made in the Year 1797 Agreeable to an Act Passed by the Legislature of the State of New York passed the 28th day of March 1797 · raster tile 10/301/384</name>
      <drawOrder>1</drawOrder>
      <Icon><href>https://tiles.ats.ucla.edu/tiles/NewYork_1797_Staten/10/301/384.png</href></Icon>
      <LatLonBox>
        <north>40.979898</north>
        <south>40.713956</south>
        <east>-73.828125</east>
        <west>-74.179688</west>
      </LatLonBox>
    </GroundOverlay>
    <GroundOverlay>
      <name>New and Correct Mapp of the County of Richmond made in the Year 1797 Agreeable to an Act Passed by the Legislature of the State of New York passed the 28th day of March 1797 · raster tile 10/300/385</name>
      <drawOrder>1</drawOrder>
      <Icon><href>https://tiles.ats.ucla.edu/tiles/NewYork_1797_Staten/10/300/385.png</href></Icon>
      <LatLonBox>
        <north>40.713956</north>
        <south>40.446947</south>
        <east>-74.179688</east>
        <west>-74.531250</west>
      </LatLonBox>
    </GroundOverlay>
    <GroundOverlay>
      <name>New and Correct Mapp of the County of Richmond made in the Year 1797 Agreeable to an Act Passed by the Legislature of the State of New York passed the 28th day of March 1797 · raster tile 10/301/385</name>
      <drawOrder>1</drawOrder>
      <Icon><href>https://tiles.ats.ucla.edu/tiles/NewYork_1797_Staten/10/301/385.png</href></Icon>
      <LatLonBox>
        <north>40.713956</north>
        <south>40.446947</south>
        <east>-73.828125</east>
        <west>-74.179688</west>
      </LatLonBox>
    </GroundOverlay>
    <GroundOverlay>
      <name>New and Correct Mapp of the County of Richmond made in the Year 1797 Agreeable to an Act Passed by the Legislature of the State of New York passed the 28th day of March 1797 · raster tile 10/300/386</name>
      <drawOrder>1</drawOrder>
      <Icon><href>https://tiles.ats.ucla.edu/tiles/NewYork_1797_Staten/10/300/386.png</href></Icon>
      <LatLonBox>
        <north>40.446947</north>
        <south>40.178873</south>
        <east>-74.179688</east>
        <west>-74.531250</west>
      </LatLonBox>
    </GroundOverlay>
    <GroundOverlay>
      <name>New and Correct Mapp of the County of Richmond made in the Year 1797 Agreeable to an Act Passed by the Legislature of the State of New York passed the 28th day of March 1797 · raster tile 10/301/386</name>
      <drawOrder>1</drawOrder>
      <Icon><href>https://tiles.ats.ucla.edu/tiles/NewYork_1797_Staten/10/301/386.png</href></Icon>
      <LatLonBox>
        <north>40.446947</north>
        <south>40.178873</south>
        <east>-73.828125</east>
        <west>-74.179688</west>
      </LatLonBox>
    </GroundOverlay>

  </Document>
</kml>