<?xml version="1.0" encoding="UTF-8"?>
<kml xmlns="http://www.opengis.net/kml/2.2">
  <Document>
    <name>Palace Precinct Plans Corrected</name>
    <description>Palace Precinct Plans Corrected, Berlin, 1835. Palace Precinct Plans Corrected (1835). HyperCities Map Library.</description>
    <Style id="hypercities-footprint">
      <LineStyle><color>ff5e6ad6</color><width>2</width></LineStyle>
      <PolyStyle><color>285e6ad6</color><fill>1</fill><outline>1</outline></PolyStyle>
    </Style>

    <Placemark>
      <name>Palace Precinct Plans Corrected</name>
      <description>HyperCities Map Library footprint · Berlin · 1835</description>
      <TimeSpan><begin>1835-01-01</begin><end>1835-12-31</end></TimeSpan>
      <ExtendedData>
      <Data name="mapId"><value>map:383</value></Data>
      <Data name="place"><value>Berlin</value></Data>
      <Data name="years"><value>1835</value></Data>
      <Data name="sourceRecordId"><value>383</value></Data>
      <Data name="collection"><value></value></Data>
      <Data name="creator"><value></value></Data>
      <Data name="citation"><value>Palace Precinct Plans Corrected (1835). HyperCities Map Library.</value></Data>
      <Data name="tileTemplate"><value>https://tiles.ats.ucla.edu/tiles/12/{z}/{x}/{y}.png</value></Data>
      <Data name="groundOverlayTiles"><value>Source XYZ tiles included as KML GroundOverlays at the recorded minimum zoom.</value></Data>
      <Data name="rasterAvailability"><value>Original XYZ tiles, rendered here as KML GroundOverlays at the recorded minimum zoom.</value></Data>
      <Data name="exportScope"><value>Georeferenced footprint, provenance, and a source-tile raster overview at the recorded minimum zoom.</value></Data>
      </ExtendedData>
      <styleUrl>#hypercities-footprint</styleUrl>
      <Polygon><tessellate>1</tessellate><outerBoundaryIs><LinearRing><coordinates>13.39534,52.515728,0 13.405589,52.515728,0 13.405589,52.520603,0 13.39534,52.520603,0 13.39534,52.515728,0</coordinates></LinearRing></outerBoundaryIs></Polygon>
    </Placemark>
    <GroundOverlay>
      <name>Palace Precinct Plans Corrected · raster tile 15/17603/10746</name>
      <drawOrder>1</drawOrder>
      <Icon><href>https://tiles.ats.ucla.edu/tiles/12/15/17603/10746.png</href></Icon>
      <LatLonBox>
        <north>52.522906</north>
        <south>52.516221</south>
        <east>13.403320</east>
        <west>13.392334</west>
      </LatLonBox>
    </GroundOverlay>
    <GroundOverlay>
      <name>Palace Precinct Plans Corrected · raster tile 15/17604/10746</name>
      <drawOrder>1</drawOrder>
      <Icon><href>https://tiles.ats.ucla.edu/tiles/12/15/17604/10746.png</href></Icon>
      <LatLonBox>
        <north>52.522906</north>
        <south>52.516221</south>
        <east>13.414307</east>
        <west>13.403320</west>
      </LatLonBox>
    </GroundOverlay>
    <GroundOverlay>
      <name>Palace Precinct Plans Corrected · raster tile 15/17603/10747</name>
      <drawOrder>1</drawOrder>
      <Icon><href>https://tiles.ats.ucla.edu/tiles/12/15/17603/10747.png</href></Icon>
      <LatLonBox>
        <north>52.516221</north>
        <south>52.509535</south>
        <east>13.403320</east>
        <west>13.392334</west>
      </LatLonBox>
    </GroundOverlay>
    <GroundOverlay>
      <name>Palace Precinct Plans Corrected · raster tile 15/17604/10747</name>
      <drawOrder>1</drawOrder>
      <Icon><href>https://tiles.ats.ucla.edu/tiles/12/15/17604/10747.png</href></Icon>
      <LatLonBox>
        <north>52.516221</north>
        <south>52.509535</south>
        <east>13.414307</east>
        <west>13.403320</west>
      </LatLonBox>
    </GroundOverlay>

  </Document>
</kml>