<?xml version="1.0" encoding="UTF-8"?>
<kml xmlns="http://www.opengis.net/kml/2.2">
  <Document>
    <name>Map of Rome (1818)</name>
    <description>Map of Rome (1818), Rome, 1818. Map of Rome (1818) (1818). HyperCities Map Library.</description>
    <Style id="hypercities-footprint">
      <LineStyle><color>ff5e6ad6</color><width>2</width></LineStyle>
      <PolyStyle><color>285e6ad6</color><fill>1</fill><outline>1</outline></PolyStyle>
    </Style>

    <Placemark>
      <name>Map of Rome (1818)</name>
      <description>HyperCities Map Library footprint · Rome · 1818</description>
      <TimeSpan><begin>1818-01-01</begin><end>1818-12-31</end></TimeSpan>
      <ExtendedData>
      <Data name="mapId"><value>map:135</value></Data>
      <Data name="place"><value>Rome</value></Data>
      <Data name="years"><value>1818</value></Data>
      <Data name="sourceRecordId"><value>135</value></Data>
      <Data name="collection"><value></value></Data>
      <Data name="creator"><value></value></Data>
      <Data name="citation"><value>Map of Rome (1818) (1818). HyperCities Map Library.</value></Data>
      <Data name="tileTemplate"><value>https://tiles.ats.ucla.edu/tiles/Rome_1818_Nardini_Forum/{z}/{x}/{y}.png</value></Data>
      <Data name="groundOverlayTiles"><value>Source XYZ tiles included as KML GroundOverlays at the recorded minimum zoom.</value></Data>
      <Data name="rasterAvailability"><value>Original XYZ tiles, rendered here as KML GroundOverlays at the recorded minimum zoom.</value></Data>
      <Data name="exportScope"><value>Georeferenced footprint, provenance, and a source-tile raster overview at the recorded minimum zoom.</value></Data>
      </ExtendedData>
      <styleUrl>#hypercities-footprint</styleUrl>
      <Polygon><tessellate>1</tessellate><outerBoundaryIs><LinearRing><coordinates>12.474133,41.888032,0 12.497381,41.888032,0 12.497381,41.897054,0 12.474133,41.897054,0 12.474133,41.888032,0</coordinates></LinearRing></outerBoundaryIs></Polygon>
    </Placemark>
    <GroundOverlay>
      <name>Map of Rome (1818) · raster tile 14/8759/6088</name>
      <drawOrder>1</drawOrder>
      <Icon><href>https://tiles.ats.ucla.edu/tiles/Rome_1818_Nardini_Forum/14/8759/6088.png</href></Icon>
      <LatLonBox>
        <north>41.902277</north>
        <south>41.885921</south>
        <east>12.480469</east>
        <west>12.458496</west>
      </LatLonBox>
    </GroundOverlay>
    <GroundOverlay>
      <name>Map of Rome (1818) · raster tile 14/8760/6088</name>
      <drawOrder>1</drawOrder>
      <Icon><href>https://tiles.ats.ucla.edu/tiles/Rome_1818_Nardini_Forum/14/8760/6088.png</href></Icon>
      <LatLonBox>
        <north>41.902277</north>
        <south>41.885921</south>
        <east>12.502441</east>
        <west>12.480469</west>
      </LatLonBox>
    </GroundOverlay>

  </Document>
</kml>