<?xml version="1.0" encoding="UTF-8"?>
<kml xmlns="http://www.opengis.net/kml/2.2">
  <Document>
    <name>A Map of the upper part of the Island of Manhattan above Eighty-Eighth Street arranged to illustrate the Battle od Harlem Heights</name>
    <description>A Map of the upper part of the Island of Manhattan above Eighty-Eighth Street arranged to illustrate the Battle od Harlem Heights, New York, 1777. A Map of the upper part of the Island of Manhattan above Eighty-Eighth Street arranged to illustrate the Battle od Harlem Heights (1777). HyperCities Map Library.</description>
    <Style id="hypercities-footprint">
      <LineStyle><color>ff5e6ad6</color><width>2</width></LineStyle>
      <PolyStyle><color>285e6ad6</color><fill>1</fill><outline>1</outline></PolyStyle>
    </Style>

    <Placemark>
      <name>A Map of the upper part of the Island of Manhattan above Eighty-Eighth Street arranged to illustrate the Battle od Harlem Heights</name>
      <description>HyperCities Map Library footprint · New York · 1777</description>
      <TimeSpan><begin>1777-01-01</begin><end>1777-12-31</end></TimeSpan>
      <ExtendedData>
      <Data name="mapId"><value>map:101</value></Data>
      <Data name="place"><value>New York</value></Data>
      <Data name="years"><value>1777</value></Data>
      <Data name="sourceRecordId"><value>101</value></Data>
      <Data name="collection"><value></value></Data>
      <Data name="creator"><value>W.C. Rogers &amp; Co.</value></Data>
      <Data name="citation"><value>A Map of the upper part of the Island of Manhattan above Eighty-Eighth Street arranged to illustrate the Battle od Harlem Heights (1777). HyperCities Map Library.</value></Data>
      <Data name="tileTemplate"><value>https://tiles.ats.ucla.edu/tiles/NewYork_1777_Harlem/{z}/{x}/{y}.png</value></Data>
      <Data name="groundOverlayTiles"><value>Source XYZ tiles included as KML GroundOverlays at the recorded minimum zoom.</value></Data>
      <Data name="rasterAvailability"><value>Original XYZ tiles, rendered here as KML GroundOverlays at the recorded minimum zoom.</value></Data>
      <Data name="exportScope"><value>Georeferenced footprint, provenance, and a source-tile raster overview at the recorded minimum zoom.</value></Data>
      </ExtendedData>
      <styleUrl>#hypercities-footprint</styleUrl>
      <Polygon><tessellate>1</tessellate><outerBoundaryIs><LinearRing><coordinates>-74.003453,40.764662,0 -73.882209,40.764662,0 -73.882209,40.869936,0 -74.003453,40.869936,0 -74.003453,40.764662,0</coordinates></LinearRing></outerBoundaryIs></Polygon>
    </Placemark>
    <GroundOverlay>
      <name>A Map of the upper part of the Island of Manhattan above Eighty-Eighth Street arranged to illustrate the Battle od Harlem Heights · raster tile 11/603/768</name>
      <drawOrder>1</drawOrder>
      <Icon><href>https://tiles.ats.ucla.edu/tiles/NewYork_1777_Harlem/11/603/768.png</href></Icon>
      <LatLonBox>
        <north>40.979898</north>
        <south>40.847060</south>
        <east>-73.828125</east>
        <west>-74.003906</west>
      </LatLonBox>
    </GroundOverlay>
    <GroundOverlay>
      <name>A Map of the upper part of the Island of Manhattan above Eighty-Eighth Street arranged to illustrate the Battle od Harlem Heights · raster tile 11/603/769</name>
      <drawOrder>1</drawOrder>
      <Icon><href>https://tiles.ats.ucla.edu/tiles/NewYork_1777_Harlem/11/603/769.png</href></Icon>
      <LatLonBox>
        <north>40.847060</north>
        <south>40.713956</south>
        <east>-73.828125</east>
        <west>-74.003906</west>
      </LatLonBox>
    </GroundOverlay>

  </Document>
</kml>