<?xml version="1.0" encoding="UTF-8"?>
<kml xmlns="http://www.opengis.net/kml/2.2">
  <Document>
    <name>Miami 6</name>
    <description>Miami 6, Miami, 1951. Miami 6 (1951). HyperCities Map Library.</description>
    <Style id="hypercities-footprint">
      <LineStyle><color>ff5e6ad6</color><width>2</width></LineStyle>
      <PolyStyle><color>285e6ad6</color><fill>1</fill><outline>1</outline></PolyStyle>
    </Style>

    <Placemark>
      <name>Miami 6</name>
      <description>HyperCities Map Library footprint · Miami · 1951</description>
      <TimeSpan><begin>1951-01-01</begin><end>1951-12-31</end></TimeSpan>
      <ExtendedData>
      <Data name="mapId"><value>map:426</value></Data>
      <Data name="place"><value>Miami</value></Data>
      <Data name="years"><value>1951</value></Data>
      <Data name="sourceRecordId"><value>426</value></Data>
      <Data name="collection"><value></value></Data>
      <Data name="creator"><value></value></Data>
      <Data name="citation"><value>Miami 6 (1951). HyperCities Map Library.</value></Data>
      <Data name="tileTemplate"><value>https://tiles.ats.ucla.edu/tiles/1951_Miami_6_0342S/{z}/{x}/{y}.png</value></Data>
      <Data name="groundOverlayTiles"><value>Source XYZ tiles included as KML GroundOverlays at the recorded minimum zoom.</value></Data>
      <Data name="rasterAvailability"><value>Original XYZ tiles, rendered here as KML GroundOverlays at the recorded minimum zoom.</value></Data>
      <Data name="exportScope"><value>Georeferenced footprint, provenance, and a source-tile raster overview at the recorded minimum zoom.</value></Data>
      </ExtendedData>
      <styleUrl>#hypercities-footprint</styleUrl>
      <Polygon><tessellate>1</tessellate><outerBoundaryIs><LinearRing><coordinates>-80.200186,25.771601,0 -80.197051,25.771601,0 -80.197051,25.776607,0 -80.200186,25.776607,0 -80.200186,25.771601,0</coordinates></LinearRing></outerBoundaryIs></Polygon>
    </Placemark>
    <GroundOverlay>
      <name>Miami 6 · raster tile 17/36336/55817</name>
      <drawOrder>1</drawOrder>
      <Icon><href>https://tiles.ats.ucla.edu/tiles/1951_Miami_6_0342S/17/36336/55817.png</href></Icon>
      <LatLonBox>
        <north>25.777634</north>
        <south>25.775161</south>
        <east>-80.197449</east>
        <west>-80.200195</west>
      </LatLonBox>
    </GroundOverlay>
    <GroundOverlay>
      <name>Miami 6 · raster tile 17/36337/55817</name>
      <drawOrder>1</drawOrder>
      <Icon><href>https://tiles.ats.ucla.edu/tiles/1951_Miami_6_0342S/17/36337/55817.png</href></Icon>
      <LatLonBox>
        <north>25.777634</north>
        <south>25.775161</south>
        <east>-80.194702</east>
        <west>-80.197449</west>
      </LatLonBox>
    </GroundOverlay>
    <GroundOverlay>
      <name>Miami 6 · raster tile 17/36336/55818</name>
      <drawOrder>1</drawOrder>
      <Icon><href>https://tiles.ats.ucla.edu/tiles/1951_Miami_6_0342S/17/36336/55818.png</href></Icon>
      <LatLonBox>
        <north>25.775161</north>
        <south>25.772687</south>
        <east>-80.197449</east>
        <west>-80.200195</west>
      </LatLonBox>
    </GroundOverlay>
    <GroundOverlay>
      <name>Miami 6 · raster tile 17/36337/55818</name>
      <drawOrder>1</drawOrder>
      <Icon><href>https://tiles.ats.ucla.edu/tiles/1951_Miami_6_0342S/17/36337/55818.png</href></Icon>
      <LatLonBox>
        <north>25.775161</north>
        <south>25.772687</south>
        <east>-80.194702</east>
        <west>-80.197449</west>
      </LatLonBox>
    </GroundOverlay>
    <GroundOverlay>
      <name>Miami 6 · raster tile 17/36336/55819</name>
      <drawOrder>1</drawOrder>
      <Icon><href>https://tiles.ats.ucla.edu/tiles/1951_Miami_6_0342S/17/36336/55819.png</href></Icon>
      <LatLonBox>
        <north>25.772687</north>
        <south>25.770214</south>
        <east>-80.197449</east>
        <west>-80.200195</west>
      </LatLonBox>
    </GroundOverlay>
    <GroundOverlay>
      <name>Miami 6 · raster tile 17/36337/55819</name>
      <drawOrder>1</drawOrder>
      <Icon><href>https://tiles.ats.ucla.edu/tiles/1951_Miami_6_0342S/17/36337/55819.png</href></Icon>
      <LatLonBox>
        <north>25.772687</north>
        <south>25.770214</south>
        <east>-80.194702</east>
        <west>-80.197449</west>
      </LatLonBox>
    </GroundOverlay>

  </Document>
</kml>