<?xml version="1.0" encoding="UTF-8"?>
<kml xmlns="http://www.opengis.net/kml/2.2">
  <Document>
    <name>Map of Magnesia (3_12)</name>
    <description>Map of Magnesia (3_12), Magnesia, 1891. Map of Magnesia (3_12) (1891). HyperCities Map Library.</description>
    <Style id="hypercities-footprint">
      <LineStyle><color>ff5e6ad6</color><width>2</width></LineStyle>
      <PolyStyle><color>285e6ad6</color><fill>1</fill><outline>1</outline></PolyStyle>
    </Style>

    <Placemark>
      <name>Map of Magnesia (3_12)</name>
      <description>HyperCities Map Library footprint · Magnesia · 1891</description>
      <TimeSpan><begin>1891-01-01</begin><end>1891-12-31</end></TimeSpan>
      <ExtendedData>
      <Data name="mapId"><value>map:363</value></Data>
      <Data name="place"><value>Magnesia</value></Data>
      <Data name="years"><value>1891</value></Data>
      <Data name="sourceRecordId"><value>363</value></Data>
      <Data name="collection"><value></value></Data>
      <Data name="creator"><value></value></Data>
      <Data name="citation"><value>Map of Magnesia (3_12) (1891). HyperCities Map Library.</value></Data>
      <Data name="tileTemplate"><value>https://tiles.ats.ucla.edu/tiles/Magnesia_1891-3_121/{z}/{x}/{y}.png</value></Data>
      <Data name="groundOverlayTiles"><value>Source XYZ tiles included as KML GroundOverlays at the recorded minimum zoom.</value></Data>
      <Data name="rasterAvailability"><value>Original XYZ tiles, rendered here as KML GroundOverlays at the recorded minimum zoom.</value></Data>
      <Data name="exportScope"><value>Georeferenced footprint, provenance, and a source-tile raster overview at the recorded minimum zoom.</value></Data>
      </ExtendedData>
      <styleUrl>#hypercities-footprint</styleUrl>
      <Polygon><tessellate>1</tessellate><outerBoundaryIs><LinearRing><coordinates>27.522263,37.851215,0 27.527216,37.851215,0 27.527216,37.853835,0 27.522263,37.853835,0 27.522263,37.851215,0</coordinates></LinearRing></outerBoundaryIs></Polygon>
    </Placemark>
    <GroundOverlay>
      <name>Map of Magnesia (3_12) · raster tile 16/37778/25312</name>
      <drawOrder>1</drawOrder>
      <Icon><href>https://tiles.ats.ucla.edu/tiles/Magnesia_1891-3_121/16/37778/25312.png</href></Icon>
      <LatLonBox>
        <north>37.857507</north>
        <south>37.853170</south>
        <east>27.526245</east>
        <west>27.520752</west>
      </LatLonBox>
    </GroundOverlay>
    <GroundOverlay>
      <name>Map of Magnesia (3_12) · raster tile 16/37779/25312</name>
      <drawOrder>1</drawOrder>
      <Icon><href>https://tiles.ats.ucla.edu/tiles/Magnesia_1891-3_121/16/37779/25312.png</href></Icon>
      <LatLonBox>
        <north>37.857507</north>
        <south>37.853170</south>
        <east>27.531738</east>
        <west>27.526245</west>
      </LatLonBox>
    </GroundOverlay>
    <GroundOverlay>
      <name>Map of Magnesia (3_12) · raster tile 16/37778/25313</name>
      <drawOrder>1</drawOrder>
      <Icon><href>https://tiles.ats.ucla.edu/tiles/Magnesia_1891-3_121/16/37778/25313.png</href></Icon>
      <LatLonBox>
        <north>37.853170</north>
        <south>37.848833</south>
        <east>27.526245</east>
        <west>27.520752</west>
      </LatLonBox>
    </GroundOverlay>
    <GroundOverlay>
      <name>Map of Magnesia (3_12) · raster tile 16/37779/25313</name>
      <drawOrder>1</drawOrder>
      <Icon><href>https://tiles.ats.ucla.edu/tiles/Magnesia_1891-3_121/16/37779/25313.png</href></Icon>
      <LatLonBox>
        <north>37.853170</north>
        <south>37.848833</south>
        <east>27.531738</east>
        <west>27.526245</west>
      </LatLonBox>
    </GroundOverlay>

  </Document>
</kml>