<?xml version="1.0" encoding="UTF-8"?>
<kml xmlns="http://www.opengis.net/kml/2.2">
  <Document>
    <name>Mundy&apos;s Map of The Twin Cities: Edmonton and Strathcona</name>
    <description>Mundy&apos;s Map of The Twin Cities: Edmonton and Strathcona, Edmonton, 1911. Mundy&apos;s Map of The Twin Cities: Edmonton and Strathcona (1911). HyperCities Map Library. University of Alberta Map Collection.</description>
    <Style id="hypercities-footprint">
      <LineStyle><color>ff5e6ad6</color><width>2</width></LineStyle>
      <PolyStyle><color>285e6ad6</color><fill>1</fill><outline>1</outline></PolyStyle>
    </Style>

    <Placemark>
      <name>Mundy&apos;s Map of The Twin Cities: Edmonton and Strathcona</name>
      <description>HyperCities Map Library footprint · Edmonton · 1911</description>
      <TimeSpan><begin>1911-01-01</begin><end>1911-12-31</end></TimeSpan>
      <ExtendedData>
      <Data name="mapId"><value>map:304</value></Data>
      <Data name="place"><value>Edmonton</value></Data>
      <Data name="years"><value>1911</value></Data>
      <Data name="sourceRecordId"><value>304</value></Data>
      <Data name="collection"><value>University of Alberta Map Collection</value></Data>
      <Data name="creator"><value></value></Data>
      <Data name="citation"><value>Mundy&apos;s Map of The Twin Cities: Edmonton and Strathcona (1911). HyperCities Map Library. University of Alberta Map Collection.</value></Data>
      <Data name="tileTemplate"><value>https://tiles.ats.ucla.edu/tiles/Edmonton_1911/{z}/{x}/{y}.png</value></Data>
      <Data name="groundOverlayTiles"><value>Source XYZ tiles included as KML GroundOverlays at the recorded minimum zoom.</value></Data>
      <Data name="rasterAvailability"><value>Original XYZ tiles, rendered here as KML GroundOverlays at the recorded minimum zoom.</value></Data>
      <Data name="exportScope"><value>Georeferenced footprint, provenance, and a source-tile raster overview at the recorded minimum zoom.</value></Data>
      </ExtendedData>
      <styleUrl>#hypercities-footprint</styleUrl>
      <Polygon><tessellate>1</tessellate><outerBoundaryIs><LinearRing><coordinates>-113.613899,53.47805,0 -113.368625,53.47805,0 -113.368625,53.611634,0 -113.613899,53.611634,0 -113.613899,53.47805,0</coordinates></LinearRing></outerBoundaryIs></Polygon>
    </Placemark>
    <GroundOverlay>
      <name>Mundy&apos;s Map of The Twin Cities: Edmonton and Strathcona · raster tile 10/188/330</name>
      <drawOrder>1</drawOrder>
      <Icon><href>https://tiles.ats.ucla.edu/tiles/Edmonton_1911/10/188/330.png</href></Icon>
      <LatLonBox>
        <north>53.748711</north>
        <south>53.540307</south>
        <east>-113.554688</east>
        <west>-113.906250</west>
      </LatLonBox>
    </GroundOverlay>
    <GroundOverlay>
      <name>Mundy&apos;s Map of The Twin Cities: Edmonton and Strathcona · raster tile 10/189/330</name>
      <drawOrder>1</drawOrder>
      <Icon><href>https://tiles.ats.ucla.edu/tiles/Edmonton_1911/10/189/330.png</href></Icon>
      <LatLonBox>
        <north>53.748711</north>
        <south>53.540307</south>
        <east>-113.203125</east>
        <west>-113.554688</west>
      </LatLonBox>
    </GroundOverlay>
    <GroundOverlay>
      <name>Mundy&apos;s Map of The Twin Cities: Edmonton and Strathcona · raster tile 10/188/331</name>
      <drawOrder>1</drawOrder>
      <Icon><href>https://tiles.ats.ucla.edu/tiles/Edmonton_1911/10/188/331.png</href></Icon>
      <LatLonBox>
        <north>53.540307</north>
        <south>53.330873</south>
        <east>-113.554688</east>
        <west>-113.906250</west>
      </LatLonBox>
    </GroundOverlay>
    <GroundOverlay>
      <name>Mundy&apos;s Map of The Twin Cities: Edmonton and Strathcona · raster tile 10/189/331</name>
      <drawOrder>1</drawOrder>
      <Icon><href>https://tiles.ats.ucla.edu/tiles/Edmonton_1911/10/189/331.png</href></Icon>
      <LatLonBox>
        <north>53.540307</north>
        <south>53.330873</south>
        <east>-113.203125</east>
        <west>-113.554688</west>
      </LatLonBox>
    </GroundOverlay>

  </Document>
</kml>