<?xml version="1.0" encoding="UTF-8"?>
<kml xmlns="http://www.opengis.net/kml/2.2">
  <Document>
    <name>Map of El Paso</name>
    <description>Map of El Paso, El Paso, 1925. Map of El Paso (1925). HyperCities Map Library. Stewart Title of El Paso .</description>
    <Style id="hypercities-footprint">
      <LineStyle><color>ff5e6ad6</color><width>2</width></LineStyle>
      <PolyStyle><color>285e6ad6</color><fill>1</fill><outline>1</outline></PolyStyle>
    </Style>

    <Placemark>
      <name>Map of El Paso</name>
      <description>HyperCities Map Library footprint · El Paso · 1925</description>
      <TimeSpan><begin>1925-01-01</begin><end>1925-12-31</end></TimeSpan>
      <ExtendedData>
      <Data name="mapId"><value>map:319</value></Data>
      <Data name="place"><value>El Paso</value></Data>
      <Data name="years"><value>1925</value></Data>
      <Data name="sourceRecordId"><value>319</value></Data>
      <Data name="collection"><value>Stewart Title of El Paso </value></Data>
      <Data name="creator"><value>Aaron Margolis, doctoral student in History under the supervision of assistant professor of history Dr. Adam Arenson at the University of Texas at El Paso, with assistance from Dr. Raed Aldouri and Abdiel Quezada of, Geographical Informational Systems, at</value></Data>
      <Data name="citation"><value>Map of El Paso (1925). HyperCities Map Library. Stewart Title of El Paso .</value></Data>
      <Data name="tileTemplate"><value>https://tiles.ats.ucla.edu/tiles/El_Paso_57/{z}/{x}/{y}.png</value></Data>
      <Data name="groundOverlayTiles"><value>Source XYZ tiles included as KML GroundOverlays at the recorded minimum zoom.</value></Data>
      <Data name="rasterAvailability"><value>Original XYZ tiles, rendered here as KML GroundOverlays at the recorded minimum zoom.</value></Data>
      <Data name="exportScope"><value>Georeferenced footprint, provenance, and a source-tile raster overview at the recorded minimum zoom.</value></Data>
      </ExtendedData>
      <styleUrl>#hypercities-footprint</styleUrl>
      <Polygon><tessellate>1</tessellate><outerBoundaryIs><LinearRing><coordinates>-106.469437,31.77189,0 -106.457198,31.77189,0 -106.457198,31.782196,0 -106.469437,31.782196,0 -106.469437,31.77189,0</coordinates></LinearRing></outerBoundaryIs></Polygon>
    </Placemark>
    <GroundOverlay>
      <name>Map of El Paso · raster tile 15/6692/13330</name>
      <drawOrder>1</drawOrder>
      <Icon><href>https://tiles.ats.ucla.edu/tiles/El_Paso_57/15/6692/13330.png</href></Icon>
      <LatLonBox>
        <north>31.784217</north>
        <south>31.774878</south>
        <east>-106.468506</east>
        <west>-106.479492</west>
      </LatLonBox>
    </GroundOverlay>
    <GroundOverlay>
      <name>Map of El Paso · raster tile 15/6693/13330</name>
      <drawOrder>1</drawOrder>
      <Icon><href>https://tiles.ats.ucla.edu/tiles/El_Paso_57/15/6693/13330.png</href></Icon>
      <LatLonBox>
        <north>31.784217</north>
        <south>31.774878</south>
        <east>-106.457520</east>
        <west>-106.468506</west>
      </LatLonBox>
    </GroundOverlay>
    <GroundOverlay>
      <name>Map of El Paso · raster tile 15/6694/13330</name>
      <drawOrder>1</drawOrder>
      <Icon><href>https://tiles.ats.ucla.edu/tiles/El_Paso_57/15/6694/13330.png</href></Icon>
      <LatLonBox>
        <north>31.784217</north>
        <south>31.774878</south>
        <east>-106.446533</east>
        <west>-106.457520</west>
      </LatLonBox>
    </GroundOverlay>
    <GroundOverlay>
      <name>Map of El Paso · raster tile 15/6692/13331</name>
      <drawOrder>1</drawOrder>
      <Icon><href>https://tiles.ats.ucla.edu/tiles/El_Paso_57/15/6692/13331.png</href></Icon>
      <LatLonBox>
        <north>31.774878</north>
        <south>31.765537</south>
        <east>-106.468506</east>
        <west>-106.479492</west>
      </LatLonBox>
    </GroundOverlay>
    <GroundOverlay>
      <name>Map of El Paso · raster tile 15/6693/13331</name>
      <drawOrder>1</drawOrder>
      <Icon><href>https://tiles.ats.ucla.edu/tiles/El_Paso_57/15/6693/13331.png</href></Icon>
      <LatLonBox>
        <north>31.774878</north>
        <south>31.765537</south>
        <east>-106.457520</east>
        <west>-106.468506</west>
      </LatLonBox>
    </GroundOverlay>
    <GroundOverlay>
      <name>Map of El Paso · raster tile 15/6694/13331</name>
      <drawOrder>1</drawOrder>
      <Icon><href>https://tiles.ats.ucla.edu/tiles/El_Paso_57/15/6694/13331.png</href></Icon>
      <LatLonBox>
        <north>31.774878</north>
        <south>31.765537</south>
        <east>-106.446533</east>
        <west>-106.457520</west>
      </LatLonBox>
    </GroundOverlay>

  </Document>
</kml>