<?xml version="1.0" encoding="UTF-8"?>
<kml xmlns="http://www.opengis.net/kml/2.2">
  <Document>
    <name>Map of the City of Strathcona</name>
    <description>Map of the City of Strathcona, Edmonton, 1907. Map of the City of Strathcona (1907). HyperCities Map Library. University of Alberta Map Collection.</description>
    <Style id="hypercities-footprint">
      <LineStyle><color>ff5e6ad6</color><width>2</width></LineStyle>
      <PolyStyle><color>285e6ad6</color><fill>1</fill><outline>1</outline></PolyStyle>
    </Style>

    <Placemark>
      <name>Map of the City of Strathcona</name>
      <description>HyperCities Map Library footprint · Edmonton · 1907</description>
      <TimeSpan><begin>1907-01-01</begin><end>1907-12-31</end></TimeSpan>
      <ExtendedData>
      <Data name="mapId"><value>map:296</value></Data>
      <Data name="place"><value>Edmonton</value></Data>
      <Data name="years"><value>1907</value></Data>
      <Data name="sourceRecordId"><value>296</value></Data>
      <Data name="collection"><value>University of Alberta Map Collection</value></Data>
      <Data name="creator"><value></value></Data>
      <Data name="citation"><value>Map of the City of Strathcona (1907). HyperCities Map Library. University of Alberta Map Collection.</value></Data>
      <Data name="tileTemplate"><value>https://tiles.ats.ucla.edu/tiles/Edmonton_1907/{z}/{x}/{y}.png</value></Data>
      <Data name="groundOverlayTiles"><value>Source XYZ tiles included as KML GroundOverlays at the recorded minimum zoom.</value></Data>
      <Data name="rasterAvailability"><value>Original XYZ tiles, rendered here as KML GroundOverlays at the recorded minimum zoom.</value></Data>
      <Data name="exportScope"><value>Georeferenced footprint, provenance, and a source-tile raster overview at the recorded minimum zoom.</value></Data>
      </ExtendedData>
      <styleUrl>#hypercities-footprint</styleUrl>
      <Polygon><tessellate>1</tessellate><outerBoundaryIs><LinearRing><coordinates>-113.573061,53.494293,0 -113.44775,53.494293,0 -113.44775,53.553349,0 -113.573061,53.553349,0 -113.573061,53.494293,0</coordinates></LinearRing></outerBoundaryIs></Polygon>
    </Placemark>
    <GroundOverlay>
      <name>Map of the City of Strathcona · raster tile 12/755/1323</name>
      <drawOrder>1</drawOrder>
      <Icon><href>https://tiles.ats.ucla.edu/tiles/Edmonton_1907/12/755/1323.png</href></Icon>
      <LatLonBox>
        <north>53.592505</north>
        <south>53.540307</south>
        <east>-113.554688</east>
        <west>-113.642578</west>
      </LatLonBox>
    </GroundOverlay>
    <GroundOverlay>
      <name>Map of the City of Strathcona · raster tile 12/756/1323</name>
      <drawOrder>1</drawOrder>
      <Icon><href>https://tiles.ats.ucla.edu/tiles/Edmonton_1907/12/756/1323.png</href></Icon>
      <LatLonBox>
        <north>53.592505</north>
        <south>53.540307</south>
        <east>-113.466797</east>
        <west>-113.554688</west>
      </LatLonBox>
    </GroundOverlay>
    <GroundOverlay>
      <name>Map of the City of Strathcona · raster tile 12/757/1323</name>
      <drawOrder>1</drawOrder>
      <Icon><href>https://tiles.ats.ucla.edu/tiles/Edmonton_1907/12/757/1323.png</href></Icon>
      <LatLonBox>
        <north>53.592505</north>
        <south>53.540307</south>
        <east>-113.378906</east>
        <west>-113.466797</west>
      </LatLonBox>
    </GroundOverlay>
    <GroundOverlay>
      <name>Map of the City of Strathcona · raster tile 12/755/1324</name>
      <drawOrder>1</drawOrder>
      <Icon><href>https://tiles.ats.ucla.edu/tiles/Edmonton_1907/12/755/1324.png</href></Icon>
      <LatLonBox>
        <north>53.540307</north>
        <south>53.488046</south>
        <east>-113.554688</east>
        <west>-113.642578</west>
      </LatLonBox>
    </GroundOverlay>
    <GroundOverlay>
      <name>Map of the City of Strathcona · raster tile 12/756/1324</name>
      <drawOrder>1</drawOrder>
      <Icon><href>https://tiles.ats.ucla.edu/tiles/Edmonton_1907/12/756/1324.png</href></Icon>
      <LatLonBox>
        <north>53.540307</north>
        <south>53.488046</south>
        <east>-113.466797</east>
        <west>-113.554688</west>
      </LatLonBox>
    </GroundOverlay>
    <GroundOverlay>
      <name>Map of the City of Strathcona · raster tile 12/757/1324</name>
      <drawOrder>1</drawOrder>
      <Icon><href>https://tiles.ats.ucla.edu/tiles/Edmonton_1907/12/757/1324.png</href></Icon>
      <LatLonBox>
        <north>53.540307</north>
        <south>53.488046</south>
        <east>-113.378906</east>
        <west>-113.466797</west>
      </LatLonBox>
    </GroundOverlay>

  </Document>
</kml>