<?xml version="1.0" encoding="UTF-8"?>
<kml xmlns="http://www.opengis.net/kml/2.2">
  <Document>
    <name>Map of Chicago (1935)</name>
    <description>Map of Chicago (1935), Chicago, 1935. Map of Chicago (1935) (1935). HyperCities Map Library.</description>
    <Style id="hypercities-footprint">
      <LineStyle><color>ff5e6ad6</color><width>2</width></LineStyle>
      <PolyStyle><color>285e6ad6</color><fill>1</fill><outline>1</outline></PolyStyle>
    </Style>

    <Placemark>
      <name>Map of Chicago (1935)</name>
      <description>HyperCities Map Library footprint · Chicago · 1935</description>
      <TimeSpan><begin>1935-01-01</begin><end>1935-12-31</end></TimeSpan>
      <ExtendedData>
      <Data name="mapId"><value>map:172</value></Data>
      <Data name="place"><value>Chicago</value></Data>
      <Data name="years"><value>1935</value></Data>
      <Data name="sourceRecordId"><value>172</value></Data>
      <Data name="collection"><value></value></Data>
      <Data name="creator"><value></value></Data>
      <Data name="citation"><value>Map of Chicago (1935) (1935). HyperCities Map Library.</value></Data>
      <Data name="tileTemplate"><value>https://tiles.ats.ucla.edu/tiles/Chicago_1935/{z}/{x}/{y}.png</value></Data>
      <Data name="groundOverlayTiles"><value>Source XYZ tiles included as KML GroundOverlays at the recorded minimum zoom.</value></Data>
      <Data name="rasterAvailability"><value>Original XYZ tiles, rendered here as KML GroundOverlays at the recorded minimum zoom.</value></Data>
      <Data name="exportScope"><value>Georeferenced footprint, provenance, and a source-tile raster overview at the recorded minimum zoom.</value></Data>
      </ExtendedData>
      <styleUrl>#hypercities-footprint</styleUrl>
      <Polygon><tessellate>1</tessellate><outerBoundaryIs><LinearRing><coordinates>-88.239811,41.439906,0 -87.376467,41.439906,0 -87.376467,42.297643,0 -88.239811,42.297643,0 -88.239811,41.439906,0</coordinates></LinearRing></outerBoundaryIs></Polygon>
    </Placemark>
    <GroundOverlay>
      <name>Map of Chicago (1935) · raster tile 8/65/94</name>
      <drawOrder>1</drawOrder>
      <Icon><href>https://tiles.ats.ucla.edu/tiles/Chicago_1935/8/65/94.png</href></Icon>
      <LatLonBox>
        <north>43.068888</north>
        <south>42.032974</south>
        <east>-87.187500</east>
        <west>-88.593750</west>
      </LatLonBox>
    </GroundOverlay>
    <GroundOverlay>
      <name>Map of Chicago (1935) · raster tile 8/65/95</name>
      <drawOrder>1</drawOrder>
      <Icon><href>https://tiles.ats.ucla.edu/tiles/Chicago_1935/8/65/95.png</href></Icon>
      <LatLonBox>
        <north>42.032974</north>
        <south>40.979898</south>
        <east>-87.187500</east>
        <west>-88.593750</west>
      </LatLonBox>
    </GroundOverlay>

  </Document>
</kml>