<?xml version="1.0" encoding="UTF-8"?>
<kml xmlns="http://www.opengis.net/kml/2.2">
  <Document>
    <name>New York &amp; Vicinity: 1972 Happy Motoring Guide</name>
    <description>New York &amp; Vicinity: 1972 Happy Motoring Guide, New York, 1972. New York &amp; Vicinity: 1972 Happy Motoring Guide (1972). HyperCities Map Library. UCLA Bruman Map Collection.</description>
    <Style id="hypercities-footprint">
      <LineStyle><color>ff5e6ad6</color><width>2</width></LineStyle>
      <PolyStyle><color>285e6ad6</color><fill>1</fill><outline>1</outline></PolyStyle>
    </Style>

    <Placemark>
      <name>New York &amp; Vicinity: 1972 Happy Motoring Guide</name>
      <description>HyperCities Map Library footprint · New York · 1972</description>
      <TimeSpan><begin>1972-01-01</begin><end>1972-12-31</end></TimeSpan>
      <ExtendedData>
      <Data name="mapId"><value>map:95</value></Data>
      <Data name="place"><value>New York</value></Data>
      <Data name="years"><value>1972</value></Data>
      <Data name="sourceRecordId"><value>95</value></Data>
      <Data name="collection"><value>UCLA Bruman Map Collection</value></Data>
      <Data name="creator"><value>General Drafting Company</value></Data>
      <Data name="citation"><value>New York &amp; Vicinity: 1972 Happy Motoring Guide (1972). HyperCities Map Library. UCLA Bruman Map Collection.</value></Data>
      <Data name="tileTemplate"><value>https://tiles.ats.ucla.edu/tiles/NewYork_1972_Greater/{z}/{x}/{y}.png</value></Data>
      <Data name="groundOverlayTiles"><value>Source XYZ tiles included as KML GroundOverlays at the recorded minimum zoom.</value></Data>
      <Data name="rasterAvailability"><value>Original XYZ tiles, rendered here as KML GroundOverlays at the recorded minimum zoom.</value></Data>
      <Data name="exportScope"><value>Georeferenced footprint, provenance, and a source-tile raster overview at the recorded minimum zoom.</value></Data>
      </ExtendedData>
      <styleUrl>#hypercities-footprint</styleUrl>
      <Polygon><tessellate>1</tessellate><outerBoundaryIs><LinearRing><coordinates>-74.281411,40.494274,0 -73.42047,40.494274,0 -73.42047,40.948027,0 -74.281411,40.948027,0 -74.281411,40.494274,0</coordinates></LinearRing></outerBoundaryIs></Polygon>
    </Placemark>
    <GroundOverlay>
      <name>New York &amp; Vicinity: 1972 Happy Motoring Guide · raster tile 8/75/96</name>
      <drawOrder>1</drawOrder>
      <Icon><href>https://tiles.ats.ucla.edu/tiles/NewYork_1972_Greater/8/75/96.png</href></Icon>
      <LatLonBox>
        <north>40.979898</north>
        <south>39.909736</south>
        <east>-73.125000</east>
        <west>-74.531250</west>
      </LatLonBox>
    </GroundOverlay>

  </Document>
</kml>