<?xml version="1.0" encoding="UTF-8"?>
<kml xmlns="http://www.opengis.net/kml/2.2">
  <Document>
    <name>Map of Magnesia (29)</name>
    <description>Map of Magnesia (29), Magnesia, 1842. Map of Magnesia (29) (1842). HyperCities Map Library.</description>
    <Style id="hypercities-footprint">
      <LineStyle><color>ff5e6ad6</color><width>2</width></LineStyle>
      <PolyStyle><color>285e6ad6</color><fill>1</fill><outline>1</outline></PolyStyle>
    </Style>

    <Placemark>
      <name>Map of Magnesia (29)</name>
      <description>HyperCities Map Library footprint · Magnesia · 1842</description>
      <TimeSpan><begin>1842-01-01</begin><end>1842-12-31</end></TimeSpan>
      <ExtendedData>
      <Data name="mapId"><value>map:369</value></Data>
      <Data name="place"><value>Magnesia</value></Data>
      <Data name="years"><value>1842</value></Data>
      <Data name="sourceRecordId"><value>369</value></Data>
      <Data name="collection"><value></value></Data>
      <Data name="creator"><value></value></Data>
      <Data name="citation"><value>Map of Magnesia (29) (1842). HyperCities Map Library.</value></Data>
      <Data name="tileTemplate"><value>https://tiles.ats.ucla.edu/tiles/Magnesia_1842_291/{z}/{x}/{y}.png</value></Data>
      <Data name="groundOverlayTiles"><value>Source XYZ tiles included as KML GroundOverlays at the recorded minimum zoom.</value></Data>
      <Data name="rasterAvailability"><value>Original XYZ tiles, rendered here as KML GroundOverlays at the recorded minimum zoom.</value></Data>
      <Data name="exportScope"><value>Georeferenced footprint, provenance, and a source-tile raster overview at the recorded minimum zoom.</value></Data>
      </ExtendedData>
      <styleUrl>#hypercities-footprint</styleUrl>
      <Polygon><tessellate>1</tessellate><outerBoundaryIs><LinearRing><coordinates>27.52668,37.852984,0 27.527221,37.852984,0 27.527221,37.8534,0 27.52668,37.8534,0 27.52668,37.852984,0</coordinates></LinearRing></outerBoundaryIs></Polygon>
    </Placemark>
    <GroundOverlay>
      <name>Map of Magnesia (29) · raster tile 19/302232/202503</name>
      <drawOrder>1</drawOrder>
      <Icon><href>https://tiles.ats.ucla.edu/tiles/Magnesia_1842_291/19/302232/202503.png</href></Icon>
      <LatLonBox>
        <north>37.853712</north>
        <south>37.853170</south>
        <east>27.526932</east>
        <west>27.526245</west>
      </LatLonBox>
    </GroundOverlay>
    <GroundOverlay>
      <name>Map of Magnesia (29) · raster tile 19/302233/202503</name>
      <drawOrder>1</drawOrder>
      <Icon><href>https://tiles.ats.ucla.edu/tiles/Magnesia_1842_291/19/302233/202503.png</href></Icon>
      <LatLonBox>
        <north>37.853712</north>
        <south>37.853170</south>
        <east>27.527618</east>
        <west>27.526932</west>
      </LatLonBox>
    </GroundOverlay>
    <GroundOverlay>
      <name>Map of Magnesia (29) · raster tile 19/302232/202504</name>
      <drawOrder>1</drawOrder>
      <Icon><href>https://tiles.ats.ucla.edu/tiles/Magnesia_1842_291/19/302232/202504.png</href></Icon>
      <LatLonBox>
        <north>37.853170</north>
        <south>37.852628</south>
        <east>27.526932</east>
        <west>27.526245</west>
      </LatLonBox>
    </GroundOverlay>
    <GroundOverlay>
      <name>Map of Magnesia (29) · raster tile 19/302233/202504</name>
      <drawOrder>1</drawOrder>
      <Icon><href>https://tiles.ats.ucla.edu/tiles/Magnesia_1842_291/19/302233/202504.png</href></Icon>
      <LatLonBox>
        <north>37.853170</north>
        <south>37.852628</south>
        <east>27.527618</east>
        <west>27.526932</west>
      </LatLonBox>
    </GroundOverlay>

  </Document>
</kml>